Record Sequence Number,EQID,SSN,Earthquake Magnitude,Dip (deg),Rake Angle (deg),ClstD (km),Rjb (km),Repi (km),Rhyp (km),Rx,Source to Site Azimuth (deg),Preferred Vs30,GMX_C1,GMX_C2,GMX_C3,Dur,AI,minFreq,PGA (g),PGV (cm/sec),PGD (cm),T0.010S,T0.020S,T0.022S,T0.025S,T0.029S,T0.030S,T0.032S,T0.035S,T0.036S,T0.040S,T0.042S,T0.044S,T0.045S,T0.046S,T0.048S,T0.050S,T0.055S,T0.060S,T0.065S,T0.067S,T0.070S,T0.075S,T0.080S,T0.085S,T0.090S,T0.095S,T0.100S,T0.110S,T0.120S,T0.130S,T0.133S,T0.140S,T0.150S,T0.160S,T0.170S,T0.180S,T0.190S,T0.200S,T0.220S,T0.240S,T0.250S,T0.260S,T0.280S,T0.290S,T0.300S,T0.320S,T0.340S,T0.350S,T0.360S,T0.380S,T0.400S,T0.420S,T0.440S,T0.450S,T0.460S,T0.480S,T0.500S,T0.550S,T0.600S,T0.650S,T0.667S,T0.700S,T0.750S,T0.800S,T0.850S,T0.900S,T0.950S,T1.000S,T1.100S,T1.200S,T1.300S,T1.400S,T1.500S,T1.600S,T1.700S,T1.800S,T1.900S,T2.000S,T2.200S,T2.400S,T2.500S,T2.600S,T2.800S,T3.000S,T3.200S,T3.400S,T3.500S,T3.600S,T3.800S,T4.000S,T4.200S,T4.400S,T4.600S,T4.800S,T5.000S,T5.500S,T6.000S,T6.500S,T7.000S,T7.500S,T8.000S,T8.500S,T9.000S,T9.500S,T10.000S,T11.000S,T12.000S,T13.000S,T14.000S,T15.000S,T20.000S,FN1,FN2,FN3,File Name (Horizontal 1),File Name (Horizontal 2),File Name (Vertical)
729,116,233,6.54,90,180,23.85,999,999,999,-23.85,-23.85,179,I,Q,E,99,99,-999,0.202,31.6,26.1,0.202,0.204,0.206,0.207,0.215,0.216,0.221,0.239,0.26,0.258,0.269,0.287,0.287,0.279,0.3,0.3,0.318,0.335,0.35,0.359,0.356,0.333,0.328,0.359,0.4,0.424,0.423,0.501,0.642,0.571,0.546,0.537,0.487,0.446,0.445,0.435,0.419,0.435,0.479,0.489,0.471,0.43,0.432,0.411,0.433,0.532,0.553,0.576,0.601,0.598,0.525,0.446,0.4,0.396,0.389,0.347,0.373,0.39,0.396,0.419,0.406,0.418,0.455,0.415,0.356,0.339,0.338,0.321,0.299,0.327,0.325,0.288,0.232,0.226,0.24,0.242,0.231,0.263,0.307,0.228,0.22,0.186,0.183,0.184,0.205,0.194,0.177,0.168,0.136,0.137,0.124,0.118,0.105,0.0963,0.091,0.0772,0.06,0.0497,0.0585,0.0621,0.0581,0.0499,0.0388,0.0306,0.0218,0.0157,0.0118,0.00901,0.00694,0.00581,0.0029,SUPER.B_B-IVW090.AT2,SUPER.B_B-IVW360.AT2,SUPER.B_B-IVW-UP.AT2,RSN729_SUPER.B_B-IVW090.AT2,RSN729_SUPER.B_B-IVW360.AT2,RSN729_SUPER.B_B-IVW-UP.AT2
730,117,13,6.77,59,143,23.99,999,999,999,-1.87,-1.87,343.53,A,H,D,99,99,-999,0.191,20.6,7.35,0.192,0.192,0.192,0.194,0.195,0.196,0.206,0.226,0.231,0.237,0.233,0.247,0.254,0.26,0.262,0.256,0.257,0.266,0.287,0.287,0.283,0.283,0.277,0.287,0.286,0.292,0.29,0.321,0.349,0.354,0.351,0.357,0.368,0.454,0.464,0.411,0.378,0.345,0.368,0.347,0.357,0.365,0.424,0.46,0.479,0.511,0.484,0.467,0.444,0.461,0.441,0.435,0.424,0.424,0.419,0.402,0.39,0.375,0.321,0.265,0.253,0.244,0.296,0.329,0.341,0.327,0.308,0.295,0.218,0.21,0.185,0.12,0.117,0.115,0.107,0.0991,0.0786,0.0587,0.0489,0.0493,0.0484,0.0475,0.0405,0.0432,0.0467,0.0485,0.0473,0.0453,0.042,0.0375,0.0326,0.03,0.0282,0.0274,0.0264,0.0237,0.0211,0.0173,0.015,0.0128,0.0106,0.00856,0.00689,0.00596,0.00512,0.00376,0.00283,0.00226,0.00184,0.00153,0.000781,SPITAK_GUK000.AT2,SPITAK_GUK090.AT2,SPITAK_GUK-UP.AT2,RSN730_SPITAK_GUK000.AT2,RSN730_SPITAK_GUK090.AT2,RSN730_SPITAK_GUK-UP.AT2
737,118,445,6.93,70,140,24.57,999,999,999,-22.45,-22.45,239.69,A,Q,D,99,99,-999,0.163,25.5,17.3,0.163,0.164,0.164,0.165,0.166,0.166,0.166,0.166,0.165,0.172,0.173,0.177,0.179,0.181,0.183,0.183,0.187,0.196,0.206,0.202,0.199,0.216,0.209,0.229,0.241,0.249,0.274,0.324,0.33,0.303,0.31,0.321,0.35,0.397,0.454,0.478,0.46,0.467,0.465,0.535,0.576,0.517,0.5,0.503,0.464,0.433,0.427,0.448,0.49,0.424,0.316,0.286,0.251,0.245,0.24,0.251,0.269,0.238,0.224,0.22,0.235,0.236,0.231,0.216,0.198,0.21,0.181,0.166,0.147,0.139,0.137,0.134,0.125,0.125,0.116,0.116,0.123,0.137,0.132,0.155,0.166,0.17,0.154,0.113,0.104,0.0891,0.0767,0.0714,0.0649,0.0541,0.049,0.0498,0.0559,0.0631,0.0647,0.0601,0.0527,0.0421,0.0393,0.0344,0.0285,0.0237,0.0208,0.0189,0.0169,0.0132,0.0101,0.0077,0.0061,0.00526,0.00272,LOMAP_AGW000.AT2,LOMAP_AGW090.AT2,LOMAP_AGW-UP.AT2,RSN737_LOMAP_AGW000.AT2,RSN737_LOMAP_AGW090.AT2,RSN737_LOMAP_AGW-UP.AT2
739,118,184,6.93,70,140,20.26,999,999,999,-19.9,-19.9,488.77,H,Q,D,99,99,-999,0.239,21.5,11.6,0.239,0.242,0.244,0.252,0.252,0.252,0.254,0.26,0.261,0.268,0.274,0.28,0.283,0.286,0.287,0.283,0.291,0.277,0.285,0.288,0.296,0.306,0.308,0.335,0.339,0.37,0.381,0.439,0.521,0.596,0.6,0.647,0.615,0.594,0.629,0.653,0.704,0.772,0.702,0.717,0.669,0.677,0.651,0.558,0.519,0.499,0.498,0.507,0.506,0.492,0.584,0.576,0.596,0.608,0.587,0.534,0.515,0.623,0.653,0.649,0.598,0.521,0.393,0.289,0.242,0.258,0.216,0.18,0.149,0.137,0.166,0.159,0.145,0.153,0.157,0.151,0.128,0.101,0.0655,0.055,0.0461,0.0442,0.0417,0.0399,0.0374,0.031,0.0291,0.028,0.0264,0.0257,0.0251,0.0255,0.0257,0.0256,0.026,0.026,0.0239,0.0209,0.0185,0.0172,0.0152,0.0128,0.0104,0.00907,0.00833,0.00692,0.0056,0.00453,0.00367,0.00302,0.00151,LOMAP_AND250.AT2,LOMAP_AND340.AT2,LOMAP_AND-UP.AT2,RSN739_LOMAP_AND250.AT2,RSN739_LOMAP_AND340.AT2,RSN739_LOMAP_AND-UP.AT2
740,118,185,6.93,70,140,20.26,999,999,999,-19.9,-19.9,488.77,H,F,A,99,99,-999,0.0704,10.3,9.62,0.0704,0.0718,0.0722,0.0719,0.0736,0.0735,0.073,0.0749,0.0744,0.0715,0.0734,0.076,0.0764,0.0762,0.0765,0.0772,0.0817,0.0867,0.0955,0.103,0.106,0.106,0.111,0.11,0.11,0.108,0.114,0.128,0.123,0.136,0.14,0.141,0.148,0.149,0.14,0.127,0.14,0.149,0.154,0.17,0.168,0.142,0.123,0.126,0.128,0.133,0.143,0.152,0.154,0.13,0.125,0.133,0.158,0.151,0.149,0.132,0.138,0.139,0.166,0.15,0.141,0.126,0.109,0.102,0.106,0.111,0.11,0.112,0.102,0.0872,0.0924,0.0938,0.111,0.132,0.146,0.153,0.137,0.111,0.069,0.0595,0.055,0.0501,0.0488,0.0436,0.037,0.0326,0.0315,0.0301,0.0273,0.0257,0.0242,0.0236,0.0239,0.0254,0.0263,0.0258,0.0237,0.0199,0.0164,0.0151,0.0131,0.0117,0.0103,0.00895,0.00767,0.00557,0.0044,0.00352,0.00303,0.00262,0.00135,LOMAP_ADL250.AT2,LOMAP_ADL340.AT2,LOMAP_ADL-UP.AT2,RSN740_LOMAP_ADL250.AT2,RSN740_LOMAP_ADL340.AT2,RSN740_LOMAP_ADL-UP.AT2
741,118,14,6.93,70,140,10.72,999,999,999,10,10,476.54,A,P,A,99,99,-999,0.463,49.1,6.58,0.472,0.584,0.629,0.581,0.565,0.564,0.581,0.644,0.638,0.645,0.653,0.667,0.69,0.718,0.743,0.704,0.722,0.77,0.858,0.884,0.961,0.937,0.826,0.923,1.06,1.03,0.969,0.999,1.18,1.43,1.55,1.7,1.49,1.35,1.29,1.21,1.08,0.952,0.99,1.1,1.18,1.27,1.31,1.27,1.29,1.23,1.37,1.54,1.57,1.54,1.69,1.69,1.61,1.6,1.56,1.48,1.46,1.2,1.09,1.23,1.24,1.1,0.925,0.904,0.839,0.677,0.568,0.534,0.435,0.424,0.399,0.313,0.233,0.171,0.139,0.133,0.117,0.101,0.0821,0.0837,0.0867,0.0875,0.0822,0.0713,0.0687,0.0627,0.0587,0.0536,0.0422,0.0351,0.0297,0.0249,0.0219,0.0195,0.0172,0.0125,0.00956,0.00784,0.00651,0.00547,0.0047,0.00411,0.00361,0.0032,0.00285,0.00231,0.00191,0.00161,0.00138,0.0012,0.00067,LOMAP_BRN000.AT2,LOMAP_BRN090.AT2,LOMAP_BRN-UP.AT2,RSN741_LOMAP_BRN000.AT2,RSN741_LOMAP_BRN090.AT2,RSN741_LOMAP_BRN-UP.AT2
752,118,417,6.93,70,140,15.23,999,999,999,14.8,14.8,288.62,A,Q,B,99,99,-999,0.468,38.9,6.95,0.473,0.511,0.522,0.55,0.579,0.587,0.593,0.599,0.603,0.636,0.662,0.662,0.66,0.646,0.653,0.682,0.665,0.723,0.692,0.697,0.701,0.647,0.66,0.726,0.761,0.763,0.846,1.07,1.2,1.14,1.23,1.28,1.15,0.957,0.875,0.976,0.883,0.957,1.03,1.16,1.27,1.4,1.57,1.39,1.3,1.35,1.56,1.64,1.61,1.63,1.51,1.35,1.15,1.03,0.941,0.818,0.818,0.834,1.08,1.21,1.2,1.13,0.861,0.661,0.567,0.439,0.364,0.412,0.385,0.454,0.513,0.512,0.44,0.342,0.248,0.171,0.145,0.137,0.0958,0.0846,0.0806,0.0745,0.0592,0.0524,0.0431,0.0364,0.0337,0.0314,0.0296,0.0265,0.0211,0.0205,0.0189,0.0172,0.0161,0.0131,0.0102,0.00805,0.00644,0.00516,0.00436,0.00383,0.00339,0.00296,0.00259,0.00219,0.0019,0.00166,0.00146,0.00128,0.000728,LOMAP_CAP000.AT2,LOMAP_CAP090.AT2,LOMAP_CAP-UP.AT2,RSN752_LOMAP_CAP000.AT2,RSN752_LOMAP_CAP090.AT2,RSN752_LOMAP_CAP-UP.AT2
754,118,454,6.93,70,140,20.8,999,999,999,-20.44,-20.44,295.01,I,H,C,99,99,-999,0.163,19.2,10.3,0.163,0.165,0.166,0.165,0.172,0.173,0.176,0.181,0.183,0.182,0.18,0.18,0.181,0.183,0.183,0.18,0.197,0.196,0.204,0.207,0.219,0.247,0.25,0.257,0.246,0.279,0.279,0.297,0.307,0.402,0.425,0.457,0.503,0.427,0.495,0.666,0.72,0.728,0.564,0.403,0.416,0.393,0.3,0.331,0.338,0.4,0.471,0.486,0.527,0.566,0.519,0.498,0.471,0.444,0.419,0.384,0.378,0.321,0.301,0.248,0.234,0.226,0.216,0.218,0.267,0.232,0.182,0.162,0.146,0.135,0.149,0.167,0.158,0.141,0.121,0.105,0.0947,0.0907,0.0852,0.0716,0.0661,0.0596,0.0462,0.0365,0.0313,0.0283,0.0278,0.0276,0.0273,0.027,0.027,0.0279,0.0282,0.0282,0.0276,0.0257,0.0225,0.018,0.0152,0.0133,0.0115,0.00976,0.00844,0.00729,0.00619,0.00468,0.00382,0.00325,0.00278,0.0024,0.00127,LOMAP_CLD195.AT2,LOMAP_CLD285.AT2,LOMAP_CLD-UP.AT2,RSN754_LOMAP_CLD195.AT2,RSN754_LOMAP_CLD285.AT2,RSN754_LOMAP_CLD-UP.AT2
755,118,449,6.93,70,140,20.34,999,999,999,-19.97,-19.97,561.43,H,F,A,99,99,-999,0.343,31,11.7,0.344,0.349,0.35,0.352,0.346,0.346,0.351,0.363,0.367,0.378,0.388,0.398,0.402,0.403,0.413,0.414,0.408,0.401,0.403,0.414,0.426,0.438,0.436,0.42,0.43,0.466,0.473,0.489,0.566,0.566,0.546,0.526,0.617,0.543,0.541,0.546,0.502,0.588,0.552,0.544,0.546,0.532,0.593,0.567,0.603,0.704,0.631,0.614,0.656,0.69,0.589,0.544,0.545,0.565,0.602,0.628,0.692,0.749,0.869,0.892,0.828,0.655,0.446,0.406,0.39,0.39,0.373,0.334,0.269,0.227,0.207,0.223,0.204,0.177,0.16,0.146,0.138,0.14,0.13,0.0919,0.0807,0.0699,0.0527,0.0447,0.0427,0.0386,0.0369,0.0356,0.0346,0.0344,0.031,0.0317,0.034,0.0333,0.0333,0.0297,0.024,0.0194,0.0176,0.0154,0.013,0.0111,0.00954,0.00839,0.00743,0.0062,0.00518,0.00435,0.00368,0.00314,0.00159,LOMAP_CYC195.AT2,LOMAP_CYC285.AT2,LOMAP_CYC-UP.AT2,RSN755_LOMAP_CYC195.AT2,RSN755_LOMAP_CYC285.AT2,RSN755_LOMAP_CYC-UP.AT2
763,118,416,6.93,70,140,9.96,999,999,999,-6.3,-6.3,729.65,A,Q,B,99,99,-999,0.337,27.4,9.85,0.338,0.358,0.351,0.361,0.361,0.367,0.398,0.425,0.433,0.414,0.416,0.421,0.44,0.459,0.493,0.503,0.552,0.544,0.551,0.542,0.591,0.588,0.564,0.743,0.796,0.827,0.806,0.804,0.938,0.891,0.853,0.864,1.03,1.06,1.08,1.04,1.05,1.04,0.9,0.844,0.811,0.771,0.757,0.823,0.866,0.822,0.881,0.948,0.962,0.927,0.891,0.847,0.806,0.778,0.745,0.679,0.622,0.526,0.417,0.334,0.32,0.292,0.254,0.219,0.195,0.202,0.199,0.189,0.177,0.179,0.183,0.177,0.161,0.141,0.118,0.103,0.0973,0.0888,0.0705,0.0594,0.0559,0.0521,0.0475,0.0438,0.041,0.0362,0.0345,0.0331,0.031,0.0283,0.0266,0.0249,0.0236,0.0229,0.0217,0.0181,0.0151,0.013,0.0112,0.00981,0.00885,0.00779,0.00676,0.00597,0.00529,0.00419,0.00338,0.0028,0.00229,0.00186,0.000984,LOMAP_GIL067.AT2,LOMAP_GIL337.AT2,LOMAP_GIL-UP.AT2,RSN763_LOMAP_GIL067.AT2,RSN763_LOMAP_GIL337.AT2,RSN763_LOMAP_GIL-UP.AT2
764,118,453,6.93,70,140,10.97,999,999,999,-9.4,-9.4,308.55,B,Q,D,99,99,-999,0.276,32.1,7.34,0.276,0.277,0.277,0.279,0.28,0.28,0.283,0.288,0.286,0.284,0.284,0.289,0.29,0.289,0.288,0.285,0.291,0.288,0.287,0.289,0.29,0.295,0.301,0.298,0.307,0.327,0.371,0.358,0.37,0.427,0.432,0.43,0.386,0.422,0.419,0.485,0.44,0.453,0.453,0.556,0.572,0.579,0.512,0.547,0.582,0.582,0.603,0.639,0.642,0.708,0.833,0.829,0.761,0.728,0.691,0.639,0.636,0.512,0.403,0.334,0.328,0.316,0.307,0.294,0.306,0.33,0.351,0.371,0.383,0.364,0.351,0.341,0.315,0.275,0.233,0.209,0.186,0.164,0.124,0.0944,0.0841,0.0763,0.0632,0.0526,0.051,0.0442,0.0402,0.0359,0.0312,0.0279,0.0249,0.0222,0.0197,0.0175,0.0155,0.0127,0.0106,0.00895,0.00763,0.00656,0.00569,0.00498,0.00439,0.00389,0.00348,0.00282,0.00233,0.00196,0.00167,0.00144,0.000782,LOMAP_GOF160.AT2,LOMAP_GOF250.AT2,LOMAP_GOF-UP.AT2,RSN764_LOMAP_GOF160.AT2,RSN764_LOMAP_GOF250.AT2,RSN764_LOMAP_GOF-UP.AT2
765,118,424,6.93,70,140,9.64,999,999,999,-6.08,-6.08,1428.14,I,F,A,99,99,-999,0.433,32.7,13.1,0.437,0.478,0.48,0.497,0.526,0.534,0.534,0.544,0.539,0.583,0.624,0.637,0.639,0.648,0.669,0.68,0.744,0.804,0.773,0.74,0.787,0.826,0.826,0.944,0.923,0.963,1.02,0.9,0.824,0.878,0.963,1.03,0.994,0.996,0.989,1.01,1.04,1.12,1.22,1.18,1.05,1.02,1.05,1.09,1.14,1.19,1.38,1.51,1.55,1.59,1.54,1.42,1.26,1.18,1.11,0.972,0.852,0.635,0.458,0.335,0.327,0.309,0.269,0.266,0.244,0.243,0.237,0.226,0.189,0.195,0.204,0.198,0.174,0.149,0.13,0.112,0.107,0.0989,0.0792,0.0675,0.0634,0.0608,0.0562,0.0514,0.0477,0.0419,0.0399,0.0377,0.0356,0.0339,0.0323,0.0301,0.0285,0.0266,0.0247,0.021,0.0179,0.0148,0.0122,0.0106,0.0093,0.00818,0.00727,0.00669,0.00624,0.00528,0.0044,0.00371,0.00312,0.0026,0.00133,LOMAP_G01000.AT2,LOMAP_G01090.AT2,LOMAP_G01-UP.AT2,RSN765_LOMAP_G01000.AT2,RSN765_LOMAP_G01090.AT2,RSN765_LOMAP_G01-UP.AT2
766,118,425,6.93,70,140,11.07,999,999,999,-7.75,-7.75,270.84,I,Q,D,99,99,-999,0.357,38.1,14.4,0.357,0.359,0.359,0.359,0.362,0.363,0.365,0.367,0.369,0.383,0.392,0.392,0.388,0.393,0.405,0.405,0.428,0.429,0.43,0.437,0.424,0.433,0.455,0.462,0.499,0.526,0.551,0.534,0.557,0.63,0.628,0.678,0.708,0.726,0.78,0.87,0.869,0.888,0.806,0.802,0.774,0.756,0.834,0.929,0.965,1.02,1.03,1.1,1.12,1.18,1.16,1.05,0.909,0.844,0.789,0.746,0.7,0.561,0.52,0.589,0.613,0.623,0.569,0.474,0.405,0.336,0.341,0.39,0.432,0.485,0.505,0.489,0.463,0.399,0.324,0.282,0.241,0.202,0.153,0.121,0.109,0.0999,0.0843,0.0712,0.0603,0.0525,0.0497,0.0472,0.0425,0.0383,0.0346,0.0318,0.0285,0.0253,0.0232,0.0199,0.0167,0.015,0.0126,0.0111,0.00944,0.00834,0.00721,0.00669,0.00613,0.00496,0.00438,0.00378,0.00316,0.0026,0.00143,LOMAP_G02000.AT2,LOMAP_G02090.AT2,LOMAP_G02-UP.AT2,RSN766_LOMAP_G02000.AT2,RSN766_LOMAP_G02090.AT2,RSN766_LOMAP_G02-UP.AT2
767,118,426,6.93,70,140,12.82,999,999,999,-9.29,-9.29,349.85,I,H,D,99,99,-999,0.498,43.5,17.8,0.498,0.503,0.505,0.509,0.516,0.525,0.539,0.548,0.553,0.563,0.567,0.583,0.59,0.604,0.607,0.614,0.644,0.65,0.656,0.671,0.713,0.714,0.751,0.736,0.739,0.845,0.958,1.16,1.33,1.33,1.29,1.27,1.32,1.24,1.3,1.42,1.45,1.59,1.52,1.34,1.26,1.14,1.15,1.13,1.14,1.09,0.874,0.85,0.82,0.82,0.811,0.892,0.95,0.947,0.942,0.94,0.894,0.727,0.578,0.486,0.474,0.454,0.488,0.46,0.435,0.373,0.333,0.316,0.35,0.325,0.294,0.277,0.266,0.253,0.24,0.236,0.234,0.218,0.189,0.163,0.15,0.137,0.116,0.102,0.0895,0.079,0.0745,0.0704,0.0628,0.0562,0.0505,0.0453,0.0407,0.0356,0.0323,0.0258,0.0217,0.0187,0.0162,0.014,0.0132,0.0122,0.0109,0.00989,0.00873,0.00678,0.00541,0.00442,0.00365,0.00311,0.00164,LOMAP_G03000.AT2,LOMAP_G03090.AT2,LOMAP_G03-UP.AT2,RSN767_LOMAP_G03000.AT2,RSN767_LOMAP_G03090.AT2,RSN767_LOMAP_G03-UP.AT2
768,118,450,6.93,70,140,14.34,999,999,999,-11.28,-11.28,221.78,A,H,D,99,99,-999,0.311,38.4,14.4,0.311,0.312,0.312,0.312,0.313,0.313,0.314,0.314,0.314,0.317,0.317,0.32,0.321,0.321,0.32,0.321,0.323,0.332,0.34,0.343,0.348,0.352,0.335,0.333,0.355,0.387,0.386,0.45,0.515,0.519,0.532,0.533,0.535,0.598,0.638,0.561,0.596,0.611,0.565,0.559,0.537,0.542,0.684,0.776,0.83,0.844,0.81,0.829,0.837,0.827,0.948,0.916,0.941,0.943,0.936,0.884,0.892,0.832,0.592,0.399,0.388,0.376,0.385,0.403,0.412,0.379,0.332,0.333,0.4,0.381,0.403,0.371,0.348,0.274,0.219,0.182,0.166,0.151,0.121,0.0969,0.0931,0.0876,0.075,0.082,0.0905,0.0858,0.0805,0.075,0.0672,0.0573,0.046,0.0396,0.0343,0.03,0.0287,0.024,0.018,0.0154,0.0136,0.012,0.0107,0.00985,0.00911,0.00819,0.00727,0.00565,0.00479,0.00403,0.00342,0.00297,0.00153,LOMAP_G04000.AT2,LOMAP_G04090.AT2,LOMAP_G04-UP.AT2,RSN768_LOMAP_G04000.AT2,RSN768_LOMAP_G04090.AT2,RSN768_LOMAP_G04-UP.AT2
769,118,451,6.93,70,140,18.33,999,999,999,-15.56,-15.56,663.31,I,K,A,99,99,-999,0.164,13.9,4.72,0.164,0.166,0.166,0.166,0.169,0.169,0.17,0.176,0.179,0.174,0.175,0.184,0.19,0.193,0.191,0.188,0.183,0.198,0.219,0.221,0.222,0.219,0.24,0.245,0.276,0.296,0.318,0.353,0.373,0.347,0.37,0.377,0.49,0.476,0.491,0.446,0.474,0.455,0.583,0.748,0.755,0.65,0.438,0.389,0.377,0.402,0.359,0.32,0.321,0.317,0.333,0.301,0.286,0.28,0.274,0.256,0.252,0.266,0.291,0.251,0.238,0.214,0.166,0.159,0.158,0.165,0.186,0.203,0.172,0.171,0.16,0.14,0.125,0.118,0.102,0.0869,0.0792,0.0707,0.0548,0.045,0.044,0.0434,0.0359,0.0304,0.0284,0.0295,0.0292,0.0291,0.0267,0.0257,0.0248,0.0234,0.0216,0.0195,0.0179,0.0151,0.0112,0.00944,0.00741,0.00596,0.00487,0.00408,0.00348,0.00307,0.00262,0.00191,0.00164,0.00139,0.00123,0.0011,0.000561,LOMAP_G06000.AT2,LOMAP_G06090.AT2,LOMAP_G06-UP.AT2,RSN769_LOMAP_G06000.AT2,RSN769_LOMAP_G06090.AT2,RSN769_LOMAP_G06-UP.AT2
770,118,452,6.93,70,140,22.68,999,999,999,-18.92,-18.92,333.85,I,H,B,99,99,-999,0.312,16.5,3.12,0.313,0.316,0.316,0.319,0.323,0.325,0.328,0.327,0.336,0.354,0.343,0.33,0.335,0.333,0.348,0.356,0.377,0.407,0.381,0.389,0.377,0.387,0.398,0.41,0.392,0.417,0.459,0.531,0.728,0.95,0.987,1.03,1.02,0.872,0.783,0.76,0.707,0.704,0.642,0.572,0.519,0.518,0.514,0.559,0.551,0.599,0.597,0.602,0.64,0.786,0.801,0.848,0.911,0.93,0.92,0.794,0.659,0.478,0.417,0.399,0.372,0.324,0.269,0.205,0.17,0.135,0.117,0.106,0.0889,0.0779,0.0658,0.0522,0.0498,0.0461,0.0451,0.0417,0.0383,0.036,0.0359,0.0336,0.0289,0.0253,0.0222,0.0196,0.0166,0.014,0.0135,0.0135,0.0135,0.0132,0.0133,0.0145,0.015,0.0152,0.0152,0.0141,0.0121,0.00976,0.00707,0.005,0.00395,0.00327,0.00279,0.00241,0.00214,0.00168,0.00138,0.00112,0.000949,0.000839,0.000412,LOMAP_GMR000.AT2,LOMAP_GMR090.AT2,LOMAP_GMR-UP.AT2,RSN770_LOMAP_GMR000.AT2,RSN770_LOMAP_GMR090.AT2,RSN770_LOMAP_GMR-UP.AT2
778,118,188,6.93,70,140,24.82,999,999,999,-7.41,-7.41,215.54,I,Q,D,99,99,-999,0.281,43.1,16.8,0.281,0.281,0.282,0.282,0.285,0.285,0.284,0.284,0.284,0.283,0.283,0.283,0.284,0.284,0.285,0.285,0.284,0.288,0.295,0.297,0.299,0.31,0.316,0.306,0.316,0.322,0.32,0.377,0.37,0.399,0.401,0.409,0.419,0.409,0.381,0.428,0.467,0.46,0.626,0.666,0.64,0.596,0.543,0.525,0.565,0.671,0.786,0.812,0.806,0.726,0.645,0.594,0.624,0.633,0.663,0.69,0.703,0.746,0.694,0.758,0.759,0.702,0.716,0.67,0.638,0.581,0.523,0.466,0.382,0.281,0.268,0.257,0.262,0.264,0.233,0.219,0.213,0.209,0.184,0.153,0.146,0.151,0.146,0.136,0.126,0.125,0.12,0.113,0.0896,0.0736,0.0668,0.0708,0.0671,0.0606,0.0546,0.0494,0.0525,0.0498,0.0447,0.0369,0.0292,0.0257,0.0225,0.0189,0.0155,0.0106,0.00742,0.00589,0.00491,0.00416,0.00203,LOMAP_HDA165.AT2,LOMAP_HDA255.AT2,LOMAP_HDA-UP.AT2,RSN778_LOMAP_HDA165.AT2,RSN778_LOMAP_HDA255.AT2,RSN778_LOMAP_HDA-UP.AT2
801,118,1480,6.93,70,140,14.69,999,999,999,-14.18,-14.18,671.77,I,F,A,99,99,-999,0.28,25.6,16.6,0.281,0.286,0.288,0.288,0.292,0.293,0.302,0.342,0.351,0.358,0.356,0.374,0.381,0.375,0.372,0.373,0.419,0.481,0.538,0.589,0.618,0.606,0.579,0.679,0.753,0.831,0.827,0.818,0.83,0.769,0.764,0.718,0.841,0.846,0.769,0.806,0.81,0.719,0.654,0.644,0.558,0.522,0.462,0.437,0.432,0.478,0.478,0.475,0.465,0.548,0.563,0.568,0.542,0.527,0.505,0.454,0.453,0.507,0.499,0.514,0.459,0.362,0.305,0.293,0.348,0.348,0.296,0.234,0.157,0.162,0.182,0.168,0.159,0.131,0.108,0.0903,0.0814,0.0732,0.0576,0.0469,0.0456,0.0427,0.0376,0.0298,0.026,0.0245,0.0252,0.0255,0.0265,0.0264,0.0265,0.0265,0.0259,0.0247,0.0243,0.0252,0.024,0.0229,0.0211,0.0198,0.0176,0.0157,0.0143,0.0128,0.0118,0.00971,0.00804,0.00677,0.00545,0.00464,0.00213,LOMAP_SJTE225.AT2,LOMAP_SJTE315.AT2,LOMAP_SJTE-UP.AT2,RSN801_LOMAP_SJTE225.AT2,RSN801_LOMAP_SJTE315.AT2,RSN801_LOMAP_SJTE-UP.AT2
806,118,196,6.93,70,140,24.23,999,999,999,-18.92,-18.92,267.71,A,H,D,99,99,-999,0.21,37.9,18,0.21,0.211,0.211,0.211,0.215,0.215,0.216,0.219,0.218,0.214,0.224,0.229,0.227,0.227,0.229,0.231,0.242,0.242,0.23,0.231,0.242,0.258,0.256,0.259,0.284,0.306,0.321,0.342,0.406,0.46,0.432,0.377,0.398,0.425,0.467,0.587,0.661,0.642,0.646,0.557,0.539,0.563,0.555,0.55,0.524,0.457,0.417,0.434,0.466,0.471,0.429,0.424,0.426,0.414,0.408,0.424,0.424,0.399,0.359,0.279,0.276,0.269,0.285,0.288,0.265,0.258,0.261,0.264,0.261,0.308,0.293,0.256,0.213,0.172,0.172,0.192,0.188,0.163,0.171,0.222,0.244,0.266,0.309,0.324,0.295,0.245,0.213,0.181,0.126,0.0986,0.0811,0.0726,0.0715,0.0709,0.0759,0.0665,0.0564,0.0489,0.0413,0.0374,0.0309,0.0255,0.0216,0.0185,0.0168,0.0129,0.00941,0.00735,0.00605,0.00502,0.00239,LOMAP_SVL270.AT2,LOMAP_SVL360.AT2,LOMAP_SVL-UP.AT2,RSN806_LOMAP_SVL270.AT2,RSN806_LOMAP_SVL360.AT2,RSN806_LOMAP_SVL-UP.AT2
