Record Sequence Number,EQID,SSN,Earthquake Magnitude,Dip (deg),Rake Angle (deg),ClstD (km),Rjb (km),Repi (km),Rhyp (km),Rx,Source to Site Azimuth (deg),Preferred Vs30,GMX_C1,GMX_C2,GMX_C3,Dur,AI,minFreq,PGA (g),PGV (cm/sec),PGD (cm),T0.010S,T0.020S,T0.022S,T0.025S,T0.029S,T0.030S,T0.032S,T0.035S,T0.036S,T0.040S,T0.042S,T0.044S,T0.045S,T0.046S,T0.048S,T0.050S,T0.055S,T0.060S,T0.065S,T0.067S,T0.070S,T0.075S,T0.080S,T0.085S,T0.090S,T0.095S,T0.100S,T0.110S,T0.120S,T0.130S,T0.133S,T0.140S,T0.150S,T0.160S,T0.170S,T0.180S,T0.190S,T0.200S,T0.220S,T0.240S,T0.250S,T0.260S,T0.280S,T0.290S,T0.300S,T0.320S,T0.340S,T0.350S,T0.360S,T0.380S,T0.400S,T0.420S,T0.440S,T0.450S,T0.460S,T0.480S,T0.500S,T0.550S,T0.600S,T0.650S,T0.667S,T0.700S,T0.750S,T0.800S,T0.850S,T0.900S,T0.950S,T1.000S,T1.100S,T1.200S,T1.300S,T1.400S,T1.500S,T1.600S,T1.700S,T1.800S,T1.900S,T2.000S,T2.200S,T2.400S,T2.500S,T2.600S,T2.800S,T3.000S,T3.200S,T3.400S,T3.500S,T3.600S,T3.800S,T4.000S,T4.200S,T4.400S,T4.600S,T4.800S,T5.000S,T5.500S,T6.000S,T6.500S,T7.000S,T7.500S,T8.000S,T8.500S,T9.000S,T9.500S,T10.000S,T11.000S,T12.000S,T13.000S,T14.000S,T15.000S,T20.000S,FN1,FN2,FN3,File Name (Horizontal 1),File Name (Horizontal 2),File Name (Vertical)
177,50,228,6.53,80,180,15.33,999,999,999,15.56,15.56,188.78,I,Q,D,99,99,-999,-999,-999,-999,-999,-999,-999,-999,-999,-999,-999,-999,-999,-999,-999,-999,-999,-999,-999,-999,-999,-999,-999,-999,-999,-999,-999,-999,-999,-999,-999,-999,-999,-999,-999,-999,-999,-999,-999,-999,-999,-999,-999,-999,-999,-999,-999,-999,-999,-999,-999,-999,-999,-999,-999,-999,-999,-999,-999,-999,-999,-999,-999,-999,-999,-999,-999,-999,-999,-999,-999,-999,-999,-999,-999,-999,-999,-999,-999,-999,-999,-999,-999,-999,-999,-999,-999,-999,-999,-999,-999,-999,-999,-999,-999,-999,-999,-999,-999,-999,-999,-999,-999,-999,-999,-999,-999,-999,-999,-999,-999,-999,-999,-999,-999,IMPVALL.H_H-E02140.AT2,IMPVALL.H_H-E02XXX.AT2,IMPVALL.H_H-E02-UP.AT2,RSN177_IMPVALL.H_H-E02140.AT2,RSN177_IMPVALL.H_H-E02XXX.AT2,RSN177_IMPVALL.H_H-E02-UP.AT2
178,50,213,6.53,80,180,12.85,999,999,999,13.04,13.04,162.94,A,Q,D,99,99,-999,0.265,45.3,23.9,0.265,0.27,0.274,0.278,0.279,0.278,0.276,0.275,0.282,0.288,0.295,0.299,0.302,0.303,0.316,0.332,0.344,0.383,0.387,0.383,0.406,0.435,0.46,0.504,0.538,0.624,0.725,0.705,0.672,0.751,0.8,0.812,0.778,0.72,0.847,0.889,0.798,0.73,0.745,0.752,0.757,0.775,0.686,0.576,0.542,0.506,0.597,0.586,0.572,0.509,0.468,0.486,0.456,0.436,0.426,0.463,0.526,0.461,0.45,0.413,0.406,0.399,0.371,0.358,0.32,0.283,0.248,0.23,0.216,0.225,0.221,0.205,0.191,0.182,0.183,0.194,0.207,0.211,0.203,0.191,0.182,0.174,0.161,0.148,0.14,0.131,0.127,0.122,0.114,0.105,0.0972,0.0886,0.0809,0.0741,0.0694,0.0581,0.0484,0.0409,0.0348,0.0359,0.0322,0.0289,0.0261,0.0216,0.019,0.0137,0.0108,0.00892,0.00747,0.00632,0.00317,IMPVALL.H_H-E03140.AT2,IMPVALL.H_H-E03230.AT2,IMPVALL.H_H-E03-UP.AT2,RSN178_IMPVALL.H_H-E03140.AT2,RSN178_IMPVALL.H_H-E03230.AT2,RSN178_IMPVALL.H_H-E03-UP.AT2
187,50,207,6.53,80,180,12.69,999,999,999,-8.52,-8.52,348.69,A,Q,D,99,99,-999,0.167,19.8,12.5,0.168,0.174,0.177,0.182,0.19,0.189,0.187,0.179,0.178,0.177,0.182,0.182,0.183,0.181,0.185,0.186,0.185,0.18,0.187,0.188,0.204,0.214,0.208,0.184,0.207,0.235,0.236,0.251,0.315,0.416,0.414,0.356,0.306,0.364,0.338,0.357,0.377,0.391,0.31,0.29,0.287,0.279,0.239,0.231,0.236,0.24,0.256,0.249,0.256,0.263,0.291,0.291,0.292,0.264,0.252,0.273,0.302,0.239,0.163,0.143,0.134,0.131,0.121,0.116,0.109,0.107,0.116,0.125,0.126,0.106,0.109,0.102,0.0948,0.0893,0.0844,0.0795,0.0765,0.0794,0.0803,0.0788,0.0776,0.0756,0.069,0.0642,0.0602,0.0581,0.0565,0.055,0.0544,0.0538,0.0512,0.0478,0.0442,0.0403,0.0373,0.0344,0.0263,0.0225,0.019,0.0158,0.014,0.0157,0.0161,0.0154,0.014,0.00949,0.00737,0.00586,0.00471,0.0038,0.00164,IMPVALL.H_H-PTS225.AT2,IMPVALL.H_H-PTS315.AT2,IMPVALL.H_H-PTS-UP.AT2,RSN187_IMPVALL.H_H-PTS225.AT2,RSN187_IMPVALL.H_H-PTS315.AT2,RSN187_IMPVALL.H_H-PTS-UP.AT2
189,50,246,6.53,80,180,9.64,999,999,999,-9.64,-9.64,259.59,A,Q,C,99,99,-999,-999,-999,-999,-999,-999,-999,-999,-999,-999,-999,-999,-999,-999,-999,-999,-999,-999,-999,-999,-999,-999,-999,-999,-999,-999,-999,-999,-999,-999,-999,-999,-999,-999,-999,-999,-999,-999,-999,-999,-999,-999,-999,-999,-999,-999,-999,-999,-999,-999,-999,-999,-999,-999,-999,-999,-999,-999,-999,-999,-999,-999,-999,-999,-999,-999,-999,-999,-999,-999,-999,-999,-999,-999,-999,-999,-999,-999,-999,-999,-999,-999,-999,-999,-999,-999,-999,-999,-999,-999,-999,-999,-999,-999,-999,-999,-999,-999,-999,-999,-999,-999,-999,-999,-999,-999,-999,-999,-999,-999,-999,-999,-999,-999,-999,IMPVALL.H_H-SHP000.AT2,IMPVALL.H_H-SHP270.AT2,IMPVALL.H_H-SHP-UP.AT2,RSN189_IMPVALL.H_H-SHP000.AT2,RSN189_IMPVALL.H_H-SHP270.AT2,RSN189_IMPVALL.H_H-SHP-UP.AT2
190,50,94,6.53,80,180,24.61,999,999,999,-15.98,-15.98,362.38,A,G,B,99,99,-999,0.164,6.69,2.33,0.164,0.168,0.167,0.174,0.177,0.179,0.191,0.189,0.19,0.19,0.203,0.209,0.214,0.214,0.206,0.214,0.211,0.257,0.294,0.301,0.284,0.306,0.348,0.396,0.42,0.426,0.359,0.382,0.458,0.539,0.538,0.571,0.677,0.677,0.565,0.517,0.469,0.447,0.355,0.317,0.32,0.314,0.245,0.203,0.186,0.217,0.235,0.238,0.235,0.189,0.145,0.125,0.124,0.123,0.134,0.117,0.115,0.0891,0.086,0.0558,0.0558,0.0623,0.0557,0.0441,0.0439,0.0401,0.0346,0.0331,0.0293,0.0302,0.036,0.038,0.033,0.0357,0.035,0.0314,0.027,0.0221,0.0197,0.0183,0.0191,0.0178,0.0156,0.0156,0.0152,0.0139,0.0134,0.0131,0.0138,0.0152,0.0147,0.0139,0.0125,0.0113,0.0106,0.00957,0.00854,0.00767,0.0063,0.00504,0.00434,0.00375,0.00317,0.0026,0.00225,0.00176,0.00133,0.00105,0.000857,0.000692,0.000298,IMPVALL.H_H-SUP045.AT2,IMPVALL.H_H-SUP135.AT2,IMPVALL.H_H-SUP-UP.AT2,RSN190_IMPVALL.H_H-SUP045.AT2,RSN190_IMPVALL.H_H-SUP135.AT2,RSN190_IMPVALL.H_H-SUP-UP.AT2
192,50,264,6.53,80,180,15.25,999,999,999,4.55,4.55,193.67,A,H,D,99,99,-999,0.0824,22.4,16.9,0.0825,0.0828,0.0836,0.0852,0.0859,0.0845,0.0849,0.0862,0.0853,0.0857,0.089,0.0907,0.0918,0.0924,0.0945,0.0973,0.0994,0.108,0.119,0.117,0.117,0.13,0.142,0.157,0.172,0.177,0.176,0.172,0.19,0.179,0.158,0.142,0.131,0.124,0.127,0.135,0.134,0.154,0.175,0.159,0.145,0.137,0.138,0.138,0.138,0.148,0.152,0.147,0.149,0.154,0.168,0.172,0.175,0.186,0.199,0.214,0.219,0.199,0.171,0.173,0.169,0.156,0.126,0.127,0.116,0.106,0.0966,0.0926,0.0856,0.0773,0.0799,0.089,0.0803,0.0816,0.0859,0.086,0.0921,0.0922,0.0894,0.0974,0.0978,0.0956,0.0841,0.0753,0.0723,0.0689,0.0673,0.0656,0.0618,0.0687,0.0791,0.0801,0.0791,0.0738,0.069,0.0481,0.0294,0.0227,0.0191,0.0162,0.0181,0.0198,0.0205,0.02,0.0181,0.0135,0.0108,0.00789,0.0061,0.00462,0.00204,IMPVALL.H_H-WSM090.AT2,IMPVALL.H_H-WSM180.AT2,IMPVALL.H_H-WSM-UP.AT2,RSN192_IMPVALL.H_H-WSM090.AT2,RSN192_IMPVALL.H_H-WSM180.AT2,RSN192_IMPVALL.H_H-WSM-UP.AT2
286,68,610,6.9,60,-90,21.26,999,999,999,25.01,25.01,496.46,A,Q,B,99,99,-999,0.0825,18.5,13.9,0.0827,0.0827,0.0829,0.0831,0.0836,0.0836,0.084,0.0841,0.0843,0.0845,0.0837,0.0844,0.0847,0.0853,0.0853,0.0842,0.0834,0.0872,0.088,0.087,0.0881,0.0887,0.0893,0.0895,0.0897,0.0873,0.093,0.0984,0.104,0.131,0.135,0.132,0.139,0.128,0.134,0.138,0.147,0.171,0.17,0.174,0.17,0.149,0.158,0.187,0.214,0.238,0.236,0.211,0.205,0.193,0.184,0.198,0.229,0.251,0.265,0.256,0.222,0.166,0.163,0.132,0.121,0.118,0.132,0.15,0.158,0.173,0.179,0.183,0.165,0.151,0.136,0.13,0.122,0.112,0.125,0.138,0.147,0.146,0.123,0.089,0.0782,0.0688,0.0701,0.0624,0.0505,0.0442,0.0444,0.0444,0.0441,0.0451,0.0487,0.0504,0.0489,0.0453,0.042,0.0337,0.0239,0.0194,0.0179,0.0182,0.0178,0.0165,0.015,0.0136,0.0122,0.0102,0.00814,0.00634,0.0052,0.0042,0.00197,ITALY_A-BIS000.AT2,ITALY_A-BIS270.AT2,ITALY_A-BIS-UP.AT2,RSN286_ITALY_A-BIS000.AT2,RSN286_ITALY_A-BIS270.AT2,RSN286_ITALY_A-BIS-UP.AT2
288,68,616,6.9,60,-90,22.56,999,999,999,-5.3,-5.3,561.04,A,Q,B,99,99,-999,0.205,10.4,2.29,0.206,0.213,0.214,0.215,0.22,0.225,0.227,0.231,0.231,0.238,0.253,0.278,0.283,0.285,0.275,0.282,0.276,0.274,0.316,0.342,0.382,0.486,0.541,0.523,0.509,0.491,0.473,0.537,0.681,0.756,0.766,0.871,0.728,0.592,0.575,0.623,0.657,0.682,0.701,0.543,0.531,0.473,0.375,0.356,0.301,0.345,0.37,0.425,0.455,0.46,0.43,0.378,0.323,0.298,0.284,0.251,0.232,0.229,0.212,0.16,0.152,0.152,0.136,0.118,0.111,0.11,0.109,0.102,0.111,0.106,0.0873,0.082,0.0816,0.0704,0.0606,0.0514,0.0417,0.0366,0.034,0.0327,0.0304,0.0343,0.0396,0.0384,0.0366,0.0305,0.0285,0.0272,0.0219,0.0173,0.0155,0.0145,0.0133,0.0111,0.00932,0.00704,0.00515,0.00383,0.00289,0.00223,0.0018,0.00155,0.00138,0.00122,0.00108,0.000889,0.00074,0.000621,0.000527,0.000451,0.000241,ITALY_A-BRZ000.AT2,ITALY_A-BRZ270.AT2,ITALY_A-BRZ-UP.AT2,RSN288_ITALY_A-BRZ000.AT2,RSN288_ITALY_A-BRZ270.AT2,RSN288_ITALY_A-BRZ-UP.AT2
289,68,621,6.9,60,-90,17.64,999,999,999,20.84,20.84,455.93,A,Q,B,99,99,-999,0.138,18.7,4.96,0.138,0.139,0.14,0.14,0.141,0.142,0.143,0.143,0.143,0.145,0.144,0.145,0.144,0.143,0.148,0.152,0.153,0.165,0.169,0.173,0.173,0.172,0.183,0.208,0.21,0.201,0.203,0.19,0.261,0.227,0.219,0.249,0.257,0.237,0.243,0.251,0.265,0.298,0.332,0.357,0.39,0.432,0.431,0.456,0.476,0.479,0.437,0.407,0.383,0.378,0.369,0.351,0.364,0.355,0.352,0.363,0.365,0.322,0.301,0.308,0.305,0.293,0.313,0.368,0.41,0.405,0.379,0.333,0.28,0.249,0.259,0.184,0.205,0.198,0.174,0.147,0.135,0.112,0.0995,0.0881,0.0771,0.0742,0.0722,0.0697,0.0629,0.0514,0.0472,0.0465,0.0433,0.0406,0.0343,0.0271,0.0206,0.0172,0.0153,0.0151,0.0115,0.00807,0.00613,0.00518,0.00439,0.00357,0.00305,0.00272,0.00247,0.00189,0.00146,0.00132,0.00119,0.00103,0.00058,ITALY_A-CTR000.AT2,ITALY_A-CTR270.AT2,ITALY_A-CTR-UP.AT2,RSN289_ITALY_A-CTR000.AT2,RSN289_ITALY_A-CTR270.AT2,RSN289_ITALY_A-CTR-UP.AT2
292,68,935,6.9,60,-90,10.84,999,999,999,11.05,11.05,382,A,-999,C,99,99,-999,0.282,52.8,22,0.284,0.289,0.29,0.298,0.29,0.289,0.293,0.299,0.305,0.315,0.322,0.314,0.319,0.326,0.34,0.346,0.342,0.356,0.356,0.355,0.375,0.398,0.396,0.379,0.443,0.448,0.443,0.502,0.635,0.721,0.695,0.644,0.62,0.735,0.848,0.854,0.877,0.936,0.825,0.687,0.697,0.682,0.74,0.827,0.902,0.922,0.897,0.866,0.834,0.774,0.732,0.679,0.666,0.661,0.644,0.591,0.558,0.511,0.539,0.457,0.422,0.393,0.369,0.378,0.372,0.353,0.337,0.321,0.339,0.346,0.344,0.334,0.313,0.295,0.298,0.309,0.286,0.274,0.277,0.29,0.293,0.29,0.272,0.234,0.214,0.19,0.178,0.165,0.142,0.123,0.113,0.104,0.095,0.0869,0.0793,0.0639,0.0522,0.0414,0.0317,0.0259,0.0239,0.0215,0.0191,0.0167,0.0145,0.0113,0.0092,0.00761,0.00637,0.0054,0.00272,ITALY_A-STU000.AT2,ITALY_A-STU270.AT2,ITALY_A-STU-UP.AT2,RSN292_ITALY_A-STU000.AT2,RSN292_ITALY_A-STU270.AT2,RSN292_ITALY_A-STU-UP.AT2
313,72,702,6.6,44,-60,10.27,999,999,999,-10.27,-10.27,361.4,B,H,C,99,99,-999,0.256,25,5.72,0.257,0.257,0.257,0.257,0.258,0.258,0.259,0.26,0.26,0.268,0.273,0.276,0.277,0.279,0.291,0.3,0.309,0.296,0.29,0.292,0.294,0.284,0.289,0.302,0.327,0.318,0.298,0.342,0.366,0.403,0.418,0.396,0.424,0.438,0.463,0.594,0.652,0.654,0.639,0.725,0.731,0.775,0.729,0.646,0.582,0.499,0.465,0.46,0.479,0.539,0.626,0.631,0.71,0.696,0.646,0.578,0.561,0.529,0.476,0.447,0.443,0.432,0.404,0.437,0.421,0.374,0.303,0.272,0.235,0.197,0.196,0.192,0.163,0.174,0.168,0.157,0.151,0.163,0.157,0.123,0.105,0.101,0.0946,0.0787,0.064,0.0502,0.0455,0.0411,0.0304,0.0251,0.0218,0.0187,0.0164,0.0165,0.0154,0.0127,0.0102,0.00787,0.00636,0.00539,0.00454,0.00383,0.00327,0.00284,0.00251,0.00196,0.00157,0.00134,0.0012,0.00106,0.000604,CORINTH_COR--L.AT2,CORINTH_COR--T.AT2,CORINTH_COR-UP.AT2,RSN313_CORINTH_COR--L.AT2,RSN313_CORINTH_COR--T.AT2,RSN313_CORINTH_COR-UP.AT2
587,111,905,6.6,39,-110,16.09,999,999,999,-16.09,-16.09,551.3,H,H,B,99,99,-999,0.249,22.4,7.59,0.253,0.255,0.262,0.255,0.263,0.261,0.262,0.268,0.272,0.267,0.273,0.285,0.285,0.286,0.286,0.285,0.293,0.289,0.328,0.351,0.374,0.354,0.324,0.347,0.365,0.415,0.424,0.456,0.588,0.659,0.672,0.702,0.653,0.739,0.78,0.733,0.622,0.536,0.524,0.561,0.589,0.582,0.548,0.562,0.559,0.61,0.683,0.761,0.835,0.889,0.839,0.766,0.761,0.76,0.751,0.773,0.729,0.632,0.544,0.4,0.354,0.285,0.242,0.207,0.214,0.218,0.223,0.208,0.22,0.215,0.21,0.182,0.152,0.138,0.136,0.123,0.118,0.103,0.0757,0.068,0.0716,0.0777,0.0908,0.104,0.103,0.0992,0.0958,0.0883,0.0726,0.0596,0.0521,0.0468,0.0416,0.0371,0.0326,0.0238,0.0194,0.0153,0.0124,0.0101,0.0086,0.00746,0.00647,0.00575,0.00508,0.00385,0.00294,0.00232,0.00196,0.00166,0.000889,NEWZEAL_A-MAT083.AT2,NEWZEAL_A-MAT353.AT2,NEWZEAL_A-MAT-UP.AT2,RSN587_NEWZEAL_A-MAT083.AT2,RSN587_NEWZEAL_A-MAT353.AT2,RSN587_NEWZEAL_A-MAT-UP.AT2
719,116,216,6.54,90,180,17.03,999,999,999,-15.15,-15.15,208.71,A,Q,D,99,99,-999,0.126,12.8,5.49,0.128,0.13,0.131,0.132,0.137,0.138,0.141,0.14,0.143,0.154,0.156,0.157,0.158,0.159,0.164,0.168,0.183,0.198,0.239,0.262,0.277,0.282,0.302,0.346,0.383,0.383,0.383,0.338,0.292,0.276,0.28,0.275,0.297,0.283,0.263,0.271,0.261,0.236,0.238,0.201,0.221,0.249,0.268,0.249,0.24,0.236,0.265,0.267,0.265,0.23,0.222,0.23,0.233,0.233,0.226,0.219,0.229,0.172,0.173,0.158,0.147,0.136,0.145,0.143,0.137,0.131,0.161,0.184,0.16,0.123,0.12,0.128,0.106,0.0771,0.0677,0.0638,0.0607,0.0583,0.0613,0.0498,0.0489,0.0497,0.048,0.0465,0.0438,0.0433,0.0425,0.0425,0.0445,0.0447,0.0435,0.0424,0.0382,0.0325,0.0271,0.0206,0.0166,0.0143,0.0113,0.00903,0.007,0.00553,0.00472,0.00417,0.00364,0.00274,0.00208,0.00162,0.0013,0.00108,0.000564,SUPER.B_B-BRA225.AT2,SUPER.B_B-BRA315.AT2,SUPER.B_B-BRAXXX.AT2,RSN719_SUPER.B_B-BRA225.AT2,RSN719_SUPER.B_B-BRA315.AT2,RSN719_SUPER.B_B-BRAXXX.AT2
721,116,152,6.54,90,180,18.2,999,999,999,5.18,5.18,192.05,I,Q,D,99,99,-999,0.261,43.7,20.6,0.262,0.265,0.268,0.273,0.28,0.287,0.31,0.328,0.332,0.335,0.335,0.328,0.325,0.322,0.319,0.315,0.317,0.332,0.348,0.355,0.364,0.401,0.436,0.463,0.459,0.42,0.431,0.465,0.536,0.626,0.645,0.621,0.629,0.623,0.664,0.691,0.725,0.707,0.731,0.688,0.65,0.657,0.615,0.546,0.544,0.621,0.511,0.506,0.489,0.547,0.567,0.527,0.612,0.649,0.663,0.64,0.598,0.647,0.583,0.569,0.553,0.517,0.501,0.447,0.398,0.35,0.287,0.292,0.335,0.394,0.377,0.339,0.304,0.271,0.255,0.268,0.281,0.271,0.228,0.212,0.199,0.181,0.144,0.116,0.0956,0.088,0.0886,0.0896,0.0898,0.0853,0.0734,0.0765,0.0806,0.0815,0.0754,0.0862,0.0935,0.0859,0.073,0.0638,0.0538,0.0429,0.0347,0.0291,0.0236,0.0158,0.0103,0.00791,0.00588,0.00454,0.00217,SUPER.B_B-ICC000.AT2,SUPER.B_B-ICC090.AT2,SUPER.B_B-ICC-UP.AT2,RSN721_SUPER.B_B-ICC000.AT2,RSN721_SUPER.B_B-ICC090.AT2,RSN721_SUPER.B_B-ICC-UP.AT2
722,116,262,6.54,90,180,18.48,999,999,999,-18.48,-18.48,266.01,I,Q,D,99,99,-999,0.121,23.8,8.01,0.1219809,0.1218206,0.1215451,0.1223383,0.1238557,0.1243963,0.1244102,0.125138,0.123547,0.1274863,0.128094,0.1281271,0.1308152,0.132715,0.1342874,0.1371155,0.1375778,0.1621394,0.1674224,0.1701994,0.1559038,0.1717688,0.1655402,0.1736645,0.1687455,0.1738925,0.1832439,0.1728854,0.1841753,0.1951482,0.1968717,0.2082584,0.2130145,0.2216138,0.2195607,0.2397916,0.264762,0.2549641,0.2185678,0.2332223,0.2347173,0.2546695,0.2194581,0.2200295,0.254779,0.2616029,0.2576856,0.2656429,0.2774547,0.3119522,0.2779249,0.2843937,0.2595847,0.2766204,0.2948008,0.3282891,0.3391485,0.3019842,0.3237915,0.3240117,0.3242611,0.2709434,0.2624606,0.2673609,0.2644951,0.2184012,0.2137854,0.2233345,0.2534987,0.2515885,0.2272349,0.2092843,0.1884828,0.1812439,0.175691,0.1692748,0.1621332,0.1542654,0.1308643,0.106357,0.09496771,0.08483997,0.06813413,0.05568509,0.04664029,0.04004423,0.03722835,0.03482099,0.03312299,0.03044178,0.02690686,0.02340467,0.02167593,0.02006187,0.01855378,0.01523714,0.01254189,0.01039925,0.008711582,0.007382552,0.006326695,0.005479625,0.004791725,0.00422627,0.003756257,0.003026321,0.002492662,0.002090366,0.001779366,0.001533884,0.000836337,SUPER.B_B-KRN270.AT2,SUPER.B_B-KRN360.AT2,SUPER.B_B-KRNXXX.AT2,RSN722_SUPER.B_B-KRN270.AT2,RSN722_SUPER.B_B-KRN360.AT2,RSN722_SUPER.B_B-KRNXXX.AT2
724,116,208,6.54,90,180,22.25,999,999,999,22.25,22.25,316.64,A,Q,D,99,99,-999,0.184,15.9,3.96,0.186,0.184,0.185,0.185,0.187,0.187,0.186,0.191,0.192,0.192,0.193,0.195,0.197,0.199,0.203,0.203,0.2,0.192,0.2,0.205,0.212,0.214,0.224,0.224,0.228,0.25,0.249,0.286,0.274,0.31,0.308,0.305,0.372,0.389,0.429,0.389,0.379,0.398,0.396,0.293,0.327,0.378,0.414,0.465,0.513,0.521,0.526,0.521,0.552,0.596,0.575,0.58,0.565,0.54,0.507,0.451,0.415,0.344,0.324,0.243,0.245,0.225,0.214,0.178,0.157,0.144,0.135,0.15,0.178,0.195,0.201,0.195,0.161,0.135,0.118,0.0973,0.0809,0.0693,0.0537,0.0462,0.0482,0.0483,0.0479,0.0435,0.0388,0.0324,0.029,0.0259,0.0209,0.0168,0.0136,0.0115,0.0101,0.00909,0.00803,0.00631,0.00526,0.00441,0.0037,0.00313,0.00269,0.00234,0.00207,0.00184,0.00165,0.00136,0.00114,0.000966,0.000832,0.000723,0.000403,SUPER.B_B-PLS045.AT2,SUPER.B_B-PLS135.AT2,SUPER.B_B-PLSXXX.AT2,RSN724_SUPER.B_B-PLS045.AT2,RSN724_SUPER.B_B-PLS135.AT2,RSN724_SUPER.B_B-PLSXXX.AT2
725,116,261,6.54,90,180,11.16,999,999,999,-11.16,-11.16,316.64,I,Q,D,99,99,-999,0.339,33.9,10.7,0.343,0.349,0.349,0.342,0.373,0.377,0.379,0.391,0.388,0.395,0.4,0.425,0.432,0.447,0.478,0.572,0.56,0.521,0.562,0.537,0.499,0.465,0.468,0.443,0.454,0.469,0.463,0.538,0.63,0.813,0.787,0.71,0.785,0.723,0.751,0.779,0.718,0.681,0.72,0.7,0.651,0.643,0.635,0.663,0.738,0.716,0.78,0.809,0.811,0.873,0.952,0.904,1.06,1.12,1.13,1.01,0.83,0.62,0.565,0.527,0.514,0.45,0.352,0.359,0.39,0.326,0.346,0.336,0.348,0.275,0.267,0.226,0.178,0.154,0.145,0.15,0.16,0.165,0.17,0.162,0.156,0.148,0.133,0.113,0.108,0.0957,0.08,0.0742,0.0637,0.055,0.0491,0.0438,0.0391,0.035,0.034,0.03,0.0242,0.0222,0.0197,0.017,0.0142,0.012,0.0104,0.00916,0.00834,0.00705,0.00567,0.00448,0.00344,0.00267,0.00125,SUPER.B_B-POE270.AT2,SUPER.B_B-POE360.AT2,SUPER.B_B-POEXXX.AT2,RSN725_SUPER.B_B-POE270.AT2,RSN725_SUPER.B_B-POE360.AT2,RSN725_SUPER.B_B-POEXXX.AT2
726,116,218,6.54,90,180,25.88,999,999,999,-25.88,-25.88,191.14,A,Q,A,99,99,-999,0.119,13.4,3.08,0.121,0.121,0.122,0.124,0.128,0.129,0.132,0.138,0.139,0.144,0.146,0.146,0.146,0.146,0.148,0.149,0.154,0.165,0.163,0.163,0.17,0.174,0.17,0.183,0.182,0.185,0.187,0.212,0.252,0.247,0.259,0.275,0.323,0.333,0.356,0.365,0.408,0.38,0.347,0.4,0.42,0.398,0.32,0.291,0.277,0.247,0.249,0.249,0.247,0.233,0.235,0.222,0.214,0.208,0.2,0.181,0.178,0.183,0.189,0.203,0.212,0.218,0.24,0.22,0.181,0.176,0.178,0.179,0.167,0.144,0.12,0.108,0.101,0.0965,0.0902,0.0822,0.0803,0.0754,0.0681,0.0822,0.0719,0.0588,0.0468,0.039,0.0302,0.0223,0.0195,0.0174,0.0141,0.0125,0.0114,0.0101,0.00892,0.00801,0.00714,0.00566,0.00482,0.00394,0.00313,0.00265,0.00226,0.00195,0.00176,0.0016,0.00143,0.00112,0.000885,0.000732,0.000625,0.000541,0.000319,SUPER.B_B-WLF225.AT2,SUPER.B_B-WLF315.AT2,SUPER.B_B-WLFXXX.AT2,RSN726_SUPER.B_B-WLF225.AT2,RSN726_SUPER.B_B-WLF315.AT2,RSN726_SUPER.B_B-WLFXXX.AT2
728,116,264,6.54,90,180,13.03,999,999,999,-13.03,-13.03,193.67,A,H,D,99,99,-999,0.21,30.5,20.3,0.211,0.214,0.216,0.216,0.22,0.219,0.222,0.229,0.229,0.235,0.25,0.255,0.261,0.268,0.27,0.254,0.256,0.294,0.337,0.334,0.338,0.315,0.283,0.33,0.373,0.424,0.445,0.421,0.521,0.584,0.583,0.571,0.507,0.476,0.543,0.517,0.499,0.494,0.519,0.471,0.46,0.41,0.417,0.471,0.513,0.564,0.647,0.675,0.672,0.619,0.621,0.603,0.607,0.54,0.485,0.474,0.464,0.343,0.386,0.423,0.425,0.397,0.355,0.438,0.399,0.381,0.361,0.358,0.395,0.438,0.4,0.313,0.258,0.205,0.162,0.14,0.13,0.135,0.131,0.106,0.101,0.118,0.127,0.119,0.113,0.105,0.0989,0.0913,0.0782,0.0764,0.0659,0.0568,0.055,0.0546,0.0573,0.0567,0.0591,0.0542,0.0454,0.0409,0.0385,0.0331,0.0285,0.0249,0.021,0.0141,0.00969,0.00708,0.00542,0.00435,0.00235,SUPER.B_B-WSM090.AT2,SUPER.B_B-WSM180.AT2,SUPER.B_B-WSM-UP.AT2,RSN728_SUPER.B_B-WSM090.AT2,RSN728_SUPER.B_B-WSM180.AT2,RSN728_SUPER.B_B-WSM-UP.AT2
