Record Sequence Number,EQID,SSN,Earthquake Magnitude,Dip (deg),Rake Angle (deg),ClstD (km),Rjb (km),Repi (km),Rhyp (km),Rx,Source to Site Azimuth (deg),Preferred Vs30,GMX_C1,GMX_C2,GMX_C3,Dur,AI,minFreq,PGA (g),PGV (cm/sec),PGD (cm),T0.010S,T0.020S,T0.022S,T0.025S,T0.029S,T0.030S,T0.032S,T0.035S,T0.036S,T0.040S,T0.042S,T0.044S,T0.045S,T0.046S,T0.048S,T0.050S,T0.055S,T0.060S,T0.065S,T0.067S,T0.070S,T0.075S,T0.080S,T0.085S,T0.090S,T0.095S,T0.100S,T0.110S,T0.120S,T0.130S,T0.133S,T0.140S,T0.150S,T0.160S,T0.170S,T0.180S,T0.190S,T0.200S,T0.220S,T0.240S,T0.250S,T0.260S,T0.280S,T0.290S,T0.300S,T0.320S,T0.340S,T0.350S,T0.360S,T0.380S,T0.400S,T0.420S,T0.440S,T0.450S,T0.460S,T0.480S,T0.500S,T0.550S,T0.600S,T0.650S,T0.667S,T0.700S,T0.750S,T0.800S,T0.850S,T0.900S,T0.950S,T1.000S,T1.100S,T1.200S,T1.300S,T1.400S,T1.500S,T1.600S,T1.700S,T1.800S,T1.900S,T2.000S,T2.200S,T2.400S,T2.500S,T2.600S,T2.800S,T3.000S,T3.200S,T3.400S,T3.500S,T3.600S,T3.800S,T4.000S,T4.200S,T4.400S,T4.600S,T4.800S,T5.000S,T5.500S,T6.000S,T6.500S,T7.000S,T7.500S,T8.000S,T8.500S,T9.000S,T9.500S,T10.000S,T11.000S,T12.000S,T13.000S,T14.000S,T15.000S,T20.000S,FN1,FN2,FN3,File Name (Horizontal 1),File Name (Horizontal 2),File Name (Vertical)
1078,127,227,6.69,40,103,16.74,999,999,999,20.08,20.08,715.12,I,K,A,99,99,-999,0.258,16.4,5.98,0.259,0.27,0.281,0.29,0.28,0.28,0.285,0.307,0.309,0.322,0.343,0.365,0.361,0.356,0.378,0.374,0.421,0.39,0.433,0.429,0.45,0.485,0.534,0.578,0.562,0.596,0.615,0.557,0.587,0.648,0.659,0.674,0.795,0.88,0.903,1.04,1.02,0.919,0.91,0.798,0.824,0.856,0.864,0.71,0.678,0.617,0.64,0.656,0.627,0.693,0.658,0.534,0.496,0.453,0.401,0.417,0.41,0.393,0.4,0.314,0.316,0.306,0.256,0.224,0.243,0.218,0.212,0.217,0.214,0.17,0.136,0.133,0.127,0.125,0.12,0.118,0.122,0.112,0.0803,0.0659,0.058,0.0503,0.0377,0.0318,0.0285,0.0256,0.0245,0.0233,0.0215,0.0204,0.0195,0.0185,0.0171,0.0157,0.0151,0.0126,0.0112,0.00955,0.0085,0.00745,0.00655,0.00563,0.00488,0.00417,0.00359,0.00293,0.00241,0.00201,0.00169,0.00144,0.000743,NORTHR_SSU000.AT2,NORTHR_SSU090.AT2,NORTHR_SSUXXX.AT2,RSN1078_NORTHR_SSU000.AT2,RSN1078_NORTHR_SSU090.AT2,RSN1078_NORTHR_SSUXXX.AT2
1080,127,550,6.69,40,103,13.42,999,999,999,14.92,14.92,557.42,A,H,B,99,99,-999,0.644,47.5,5.45,0.655,0.687,0.701,0.72,0.743,0.749,0.758,0.767,0.772,0.785,0.817,0.848,0.845,0.836,0.825,0.821,0.877,0.817,0.96,0.978,0.977,1.06,1.02,0.903,0.984,1.02,0.936,0.964,0.986,1.15,1.21,1.18,1.13,1.17,1.06,1.01,0.995,1.06,1.22,1.1,1.15,1.26,1.37,1.33,1.38,1.51,1.85,1.97,2.09,2.16,2,1.81,1.57,1.59,1.48,1.52,1.6,1.57,1.51,1.41,1.34,1.21,1.01,0.915,0.85,0.795,0.755,0.715,0.564,0.409,0.377,0.329,0.296,0.26,0.209,0.171,0.128,0.0961,0.074,0.0636,0.058,0.053,0.0504,0.0438,0.0399,0.0347,0.0318,0.0301,0.0267,0.0247,0.0224,0.0202,0.0181,0.0161,0.0143,0.0118,0.00957,0.00777,0.00673,0.00584,0.00508,0.00444,0.0039,0.00345,0.00311,0.00254,0.00209,0.00175,0.00147,0.00126,0.00065,NORTHR_KAT000.AT2,NORTHR_KAT090.AT2,NORTHR_KAT-UP.AT2,RSN1080_NORTHR_KAT000.AT2,RSN1080_NORTHR_KAT090.AT2,RSN1080_NORTHR_KAT-UP.AT2
1081,127,64,6.69,40,103,19.05,999,999,999,19.48,19.48,621.93,H,J,A,99,99,-999,-999,-999,-999,-999,-999,-999,-999,-999,-999,-999,-999,-999,-999,-999,-999,-999,-999,-999,-999,-999,-999,-999,-999,-999,-999,-999,-999,-999,-999,-999,-999,-999,-999,-999,-999,-999,-999,-999,-999,-999,-999,-999,-999,-999,-999,-999,-999,-999,-999,-999,-999,-999,-999,-999,-999,-999,-999,-999,-999,-999,-999,-999,-999,-999,-999,-999,-999,-999,-999,-999,-999,-999,-999,-999,-999,-999,-999,-999,-999,-999,-999,-999,-999,-999,-999,-999,-999,-999,-999,-999,-999,-999,-999,-999,-999,-999,-999,-999,-999,-999,-999,-999,-999,-999,-999,-999,-999,-999,-999,-999,-999,-999,-999,-999,-999,-999,-999,RSN1081_-999,RSN1081_-999,RSN1081_-999
1082,127,515,6.69,40,103,10.05,999,999,999,7.03,7.03,320.93,B,H,D,99,99,-999,0.345,32.4,9.58,0.349,0.347,0.348,0.348,0.349,0.348,0.356,0.357,0.36,0.378,0.377,0.374,0.373,0.376,0.387,0.388,0.417,0.456,0.456,0.448,0.418,0.439,0.41,0.473,0.52,0.531,0.559,0.594,0.761,0.697,0.712,0.758,0.772,0.797,0.858,0.843,0.884,0.882,0.847,0.874,0.882,0.868,0.781,0.735,0.747,0.781,0.699,0.676,0.669,0.631,0.59,0.617,0.639,0.655,0.669,0.689,0.692,0.732,0.75,0.734,0.702,0.614,0.615,0.604,0.587,0.543,0.592,0.514,0.46,0.399,0.289,0.229,0.256,0.234,0.18,0.159,0.165,0.171,0.161,0.147,0.141,0.127,0.107,0.096,0.0909,0.0805,0.0703,0.0623,0.0494,0.0446,0.04,0.0374,0.0322,0.0273,0.0253,0.0236,0.0195,0.0172,0.0144,0.0106,0.00877,0.0078,0.00687,0.00594,0.00512,0.00432,0.00375,0.00307,0.00243,0.00191,0.00104,NORTHR_RO3000.AT2,NORTHR_RO3090.AT2,NORTHR_RO3-UP.AT2,RSN1082_NORTHR_RO3000.AT2,RSN1082_NORTHR_RO3090.AT2,RSN1082_NORTHR_RO3-UP.AT2
1083,127,553,6.69,40,103,13.35,999,999,999,-3.26,-3.26,402.16,A,H,C,99,99,-999,0.148,15.7,4.22,0.15,0.149,0.149,0.15,0.15,0.151,0.153,0.154,0.155,0.155,0.157,0.155,0.155,0.156,0.157,0.157,0.159,0.16,0.163,0.165,0.167,0.181,0.2,0.219,0.239,0.244,0.243,0.236,0.229,0.243,0.25,0.266,0.294,0.338,0.355,0.354,0.357,0.326,0.383,0.392,0.391,0.404,0.356,0.334,0.305,0.301,0.338,0.33,0.349,0.366,0.374,0.362,0.362,0.365,0.377,0.385,0.394,0.418,0.4,0.373,0.341,0.277,0.306,0.342,0.302,0.306,0.328,0.332,0.28,0.213,0.148,0.118,0.0991,0.0968,0.1,0.0957,0.0841,0.0896,0.0685,0.06,0.0532,0.0458,0.0328,0.0324,0.0329,0.036,0.036,0.0347,0.0343,0.0291,0.0253,0.0205,0.0172,0.0151,0.014,0.0115,0.0122,0.0108,0.00857,0.00673,0.00567,0.00444,0.00372,0.0031,0.00259,0.00191,0.0016,0.00142,0.00119,0.001,0.000561,NORTHR_GLE170.AT2,NORTHR_GLE260.AT2,NORTHR_GLE-UP.AT2,RSN1083_NORTHR_GLE170.AT2,RSN1083_NORTHR_GLE260.AT2,RSN1083_NORTHR_GLE-UP.AT2
1087,127,341,6.69,40,103,15.6,999,999,999,18.31,18.31,257.21,I,P,B,99,99,-999,1.64,93.6,31.1,1.67,1.68,1.73,1.72,1.68,1.67,1.69,1.74,1.77,1.84,1.93,2.01,2,2,2.02,2.05,2.17,2.16,2.29,2.2,2.11,2.33,2.66,2.5,2.39,2.46,2.83,2.71,2.33,2.51,2.5,2.93,2.94,2.88,3.14,3.15,2.95,2.59,2.72,2.48,2.4,2.38,2.56,2.74,3.15,3.9,3.87,3.52,3.12,3.39,3.35,2.89,2.86,2.82,2.81,2.72,2.47,2.24,2.45,1.83,1.77,1.85,1.79,1.38,1.04,0.924,0.771,0.599,0.579,0.551,0.48,0.474,0.472,0.431,0.361,0.324,0.34,0.332,0.34,0.259,0.215,0.174,0.124,0.109,0.103,0.106,0.106,0.103,0.0958,0.0927,0.0877,0.0813,0.0804,0.0779,0.0736,0.0588,0.0514,0.0478,0.0426,0.038,0.035,0.0313,0.0272,0.023,0.0197,0.0151,0.0122,0.0105,0.00895,0.00755,0.00368,NORTHR_TAR090.AT2,NORTHR_TAR360.AT2,NORTHR_TAR-UP.AT2,RSN1087_NORTHR_TAR090.AT2,RSN1087_NORTHR_TAR360.AT2,RSN1087_NORTHR_TAR-UP.AT2
1089,127,226,6.69,40,103,22.28,999,999,999,28.7,28.7,505.97,A,Q,A,99,99,-999,0.264,13.9,2.73,0.265,0.274,0.282,0.294,0.296,0.299,0.29,0.288,0.295,0.306,0.292,0.279,0.275,0.283,0.295,0.298,0.325,0.35,0.332,0.348,0.365,0.376,0.384,0.463,0.495,0.505,0.505,0.471,0.516,0.519,0.491,0.465,0.511,0.579,0.67,0.853,0.887,0.87,0.916,0.757,0.795,0.907,0.981,0.965,0.9,0.61,0.485,0.524,0.525,0.431,0.413,0.423,0.368,0.351,0.362,0.42,0.407,0.371,0.322,0.248,0.228,0.195,0.174,0.143,0.134,0.122,0.114,0.11,0.0838,0.0673,0.0564,0.0571,0.0479,0.0402,0.0356,0.0357,0.0392,0.0435,0.053,0.0483,0.046,0.0424,0.0355,0.0277,0.0221,0.0194,0.0179,0.0168,0.0145,0.0118,0.0103,0.00976,0.00886,0.00822,0.00774,0.0066,0.00561,0.00454,0.0039,0.00366,0.0034,0.0029,0.00257,0.00219,0.00191,0.00142,0.00108,0.000854,0.000698,0.000579,0.000316,NORTHR_TPF360.AT2,NORTHR_TPF270.AT2,NORTHR_TPF-UP.AT2,RSN1089_NORTHR_TPF360.AT2,RSN1089_NORTHR_TPF270.AT2,RSN1089_NORTHR_TPF-UP.AT2
1091,127,313,6.69,40,103,23.64,999,999,999,-23.1,-23.1,996.43,I,O,A,99,99,-999,0.154,13.7,2.87,0.156,0.156,0.16,0.172,0.167,0.163,0.158,0.158,0.158,0.161,0.162,0.162,0.163,0.165,0.168,0.169,0.195,0.221,0.272,0.29,0.283,0.278,0.308,0.302,0.342,0.33,0.376,0.367,0.352,0.399,0.393,0.383,0.385,0.365,0.361,0.383,0.44,0.422,0.363,0.387,0.399,0.385,0.305,0.29,0.305,0.34,0.373,0.417,0.459,0.606,0.597,0.492,0.462,0.427,0.382,0.32,0.334,0.299,0.328,0.33,0.309,0.241,0.182,0.17,0.176,0.179,0.171,0.187,0.161,0.123,0.11,0.108,0.0961,0.0777,0.0653,0.0616,0.0615,0.0578,0.0549,0.0492,0.0449,0.0403,0.0352,0.0282,0.0239,0.0213,0.02,0.0186,0.0159,0.0136,0.0118,0.0102,0.00888,0.00779,0.00687,0.00517,0.00416,0.00358,0.00294,0.00253,0.0022,0.00193,0.00171,0.00152,0.00136,0.00111,0.000912,0.000765,0.00065,0.000559,0.000302,NORTHR_VAS000.AT2,NORTHR_VAS090.AT2,NORTHR_VAS-UP.AT2,RSN1091_NORTHR_VAS000.AT2,RSN1091_NORTHR_VAS090.AT2,RSN1091_NORTHR_VAS-UP.AT2
1100,129,591,6.9,85,180,24.85,999,999,999,-24.85,-24.85,256,A,-999,D,99,99,-999,0.211,21.2,10.6,0.213,0.212,0.213,0.217,0.225,0.227,0.224,0.223,0.226,0.251,0.266,0.269,0.27,0.264,0.239,0.227,0.29,0.295,0.311,0.325,0.35,0.324,0.334,0.37,0.361,0.328,0.322,0.38,0.483,0.47,0.448,0.395,0.366,0.385,0.371,0.34,0.354,0.364,0.373,0.392,0.39,0.4,0.39,0.372,0.378,0.381,0.42,0.417,0.425,0.469,0.428,0.405,0.323,0.307,0.295,0.315,0.352,0.258,0.213,0.196,0.211,0.228,0.211,0.231,0.222,0.232,0.265,0.277,0.222,0.205,0.181,0.156,0.15,0.117,0.105,0.0973,0.0873,0.0894,0.0959,0.101,0.095,0.0837,0.0662,0.0705,0.0682,0.0755,0.078,0.0741,0.0815,0.0855,0.0832,0.0647,0.0499,0.0442,0.0387,0.0346,0.0271,0.0225,0.0166,0.0139,0.0125,0.0116,0.0102,0.00842,0.00666,0.00547,0.00403,0.00372,0.00335,0.00295,0.00142,KOBE_ABN000.AT2,KOBE_ABN090.AT2,KOBE_ABN-UP.AT2,RSN1100_KOBE_ABN000.AT2,RSN1100_KOBE_ABN090.AT2,RSN1100_KOBE_ABN-UP.AT2
1101,129,596,6.9,85,180,11.34,999,999,999,-11.34,-11.34,256,-999,-999,D,99,99,-999,0.311,45,27.4,0.312,0.314,0.319,0.334,0.361,0.358,0.356,0.357,0.381,0.387,0.39,0.38,0.377,0.388,0.41,0.403,0.432,0.395,0.411,0.406,0.388,0.386,0.397,0.431,0.44,0.414,0.437,0.499,0.492,0.477,0.472,0.469,0.492,0.521,0.501,0.483,0.458,0.417,0.415,0.409,0.444,0.46,0.508,0.537,0.598,0.611,0.642,0.651,0.635,0.645,0.7,0.725,0.938,1.05,1.12,1.11,0.994,0.85,0.673,0.683,0.707,0.785,0.894,0.998,1.02,0.914,0.805,0.846,0.634,0.439,0.4,0.365,0.354,0.424,0.469,0.407,0.365,0.328,0.297,0.236,0.208,0.195,0.169,0.153,0.135,0.114,0.112,0.0995,0.093,0.0937,0.0899,0.085,0.0843,0.0853,0.08,0.0823,0.0793,0.069,0.0523,0.0442,0.037,0.0313,0.0261,0.0213,0.0183,0.0136,0.0102,0.00812,0.00687,0.00587,0.00301,KOBE_AMA000.AT2,KOBE_AMA090.AT2,KOBE_AMA-UP.AT2,RSN1101_KOBE_AMA000.AT2,RSN1101_KOBE_AMA090.AT2,RSN1101_KOBE_AMA-UP.AT2
1104,129,719,6.9,85,180,17.85,999,999,999,-17.85,-17.85,256,A,-999,E,99,99,-999,0.185,34.2,14.6,0.186,0.186,0.186,0.186,0.187,0.187,0.189,0.19,0.19,0.197,0.196,0.192,0.192,0.192,0.191,0.194,0.202,0.205,0.199,0.196,0.196,0.198,0.201,0.199,0.197,0.194,0.204,0.216,0.233,0.237,0.232,0.219,0.23,0.218,0.22,0.236,0.247,0.254,0.268,0.314,0.337,0.368,0.376,0.381,0.382,0.376,0.406,0.406,0.394,0.397,0.425,0.415,0.399,0.419,0.449,0.485,0.477,0.486,0.438,0.398,0.403,0.45,0.557,0.699,0.754,0.726,0.751,0.709,0.605,0.457,0.394,0.326,0.33,0.324,0.297,0.268,0.239,0.219,0.209,0.151,0.129,0.12,0.122,0.106,0.111,0.107,0.107,0.107,0.0976,0.0907,0.0878,0.0812,0.0859,0.0815,0.0709,0.0611,0.0534,0.0496,0.0398,0.0329,0.0246,0.0199,0.0154,0.0127,0.0103,0.00782,0.00622,0.00493,0.00419,0.00358,0.00185,KOBE_FKS000.AT2,KOBE_FKS090.AT2,KOBE_FKS-UP.AT2,RSN1104_KOBE_FKS000.AT2,RSN1104_KOBE_FKS090.AT2,RSN1104_KOBE_FKS-UP.AT2
1107,129,838,6.9,85,180,22.5,999,999,999,-22.36,-22.36,312,A,-999,D,99,99,-999,0.277,24.8,7.21,0.282,0.28,0.281,0.283,0.286,0.287,0.285,0.289,0.295,0.293,0.313,0.322,0.325,0.325,0.326,0.322,0.308,0.348,0.392,0.39,0.398,0.426,0.398,0.406,0.439,0.445,0.41,0.487,0.621,0.85,0.867,0.816,0.848,1.03,1.02,0.859,0.749,0.739,0.692,0.718,0.687,0.673,0.744,0.743,0.683,0.712,0.777,0.752,0.757,0.691,0.594,0.562,0.562,0.596,0.624,0.615,0.573,0.434,0.442,0.352,0.343,0.323,0.27,0.244,0.22,0.23,0.26,0.334,0.347,0.236,0.21,0.207,0.239,0.298,0.331,0.318,0.287,0.237,0.151,0.105,0.0879,0.0755,0.0596,0.0478,0.039,0.0362,0.036,0.0372,0.0351,0.0346,0.0319,0.0278,0.0249,0.0226,0.0207,0.0178,0.0152,0.0128,0.0111,0.00998,0.00937,0.00837,0.00725,0.00617,0.00518,0.00387,0.00291,0.00238,0.00199,0.0017,0.000875,KOBE_KAK000.AT2,KOBE_KAK090.AT2,KOBE_KAK-UP.AT2,RSN1107_KOBE_KAK000.AT2,RSN1107_KOBE_KAK090.AT2,RSN1107_KOBE_KAK-UP.AT2
1110,129,909,6.9,85,180,24.78,999,999,999,-24.18,-24.18,256,A,-999,E,99,99,-999,0.168,26.8,9.86,0.168,0.169,0.169,0.169,0.17,0.169,0.169,0.171,0.172,0.173,0.175,0.175,0.176,0.176,0.173,0.173,0.177,0.182,0.19,0.198,0.199,0.193,0.22,0.232,0.224,0.223,0.256,0.288,0.306,0.295,0.291,0.318,0.297,0.241,0.239,0.229,0.217,0.251,0.3,0.292,0.265,0.271,0.269,0.275,0.269,0.299,0.326,0.35,0.354,0.361,0.409,0.369,0.346,0.345,0.358,0.371,0.424,0.659,0.638,0.491,0.513,0.544,0.511,0.625,0.657,0.585,0.517,0.494,0.477,0.355,0.252,0.227,0.178,0.175,0.153,0.142,0.136,0.134,0.179,0.145,0.125,0.104,0.0876,0.0717,0.0636,0.0616,0.0623,0.0619,0.0614,0.0626,0.0695,0.0636,0.0532,0.0516,0.0537,0.0385,0.0299,0.0235,0.0176,0.0157,0.014,0.0119,0.01,0.00872,0.00746,0.00533,0.00446,0.00378,0.00316,0.00262,0.00118,KOBE_MRG000.AT2,KOBE_MRG090.AT2,KOBE_MRG-UP.AT2,RSN1110_KOBE_MRG000.AT2,RSN1110_KOBE_MRG090.AT2,RSN1110_KOBE_MRG-UP.AT2
1113,129,920,6.9,85,180,21.35,999,999,999,-21.29,-21.29,256,-999,-999,E,99,99,-999,0.0783,16.8,9.96,0.0788,0.0793,0.0796,0.0802,0.0803,0.0801,0.0795,0.0792,0.0791,0.0794,0.0796,0.0796,0.0796,0.0797,0.0804,0.0808,0.0819,0.0842,0.0866,0.0899,0.0896,0.0887,0.0934,0.0972,0.104,0.102,0.102,0.109,0.127,0.128,0.129,0.14,0.15,0.14,0.147,0.135,0.134,0.122,0.126,0.16,0.184,0.19,0.187,0.181,0.181,0.182,0.177,0.182,0.183,0.182,0.186,0.175,0.187,0.184,0.18,0.19,0.184,0.173,0.204,0.148,0.141,0.14,0.157,0.185,0.206,0.197,0.189,0.192,0.226,0.196,0.152,0.131,0.117,0.121,0.135,0.128,0.124,0.106,0.0912,0.0797,0.0725,0.0662,0.0628,0.0698,0.0719,0.0699,0.0696,0.0683,0.0609,0.0569,0.0527,0.0484,0.0439,0.0402,0.0344,0.0244,0.0196,0.0158,0.0138,0.0123,0.0107,0.00964,0.00828,0.00731,0.00643,0.00509,0.00434,0.00371,0.00315,0.00268,0.00127,KOBE_OSA000.AT2,KOBE_OSA090.AT2,KOBE_OSA-UP.AT2,RSN1113_KOBE_OSA000.AT2,RSN1113_KOBE_OSA090.AT2,RSN1113_KOBE_OSA-UP.AT2
1116,129,932,6.9,85,180,19.15,999,999,999,-19.11,-19.11,256,A,-999,E,99,99,-999,0.229,27.1,10.5,0.23,0.229,0.23,0.23,0.23,0.231,0.231,0.231,0.231,0.232,0.232,0.233,0.233,0.234,0.234,0.235,0.235,0.234,0.235,0.236,0.234,0.239,0.24,0.252,0.248,0.281,0.303,0.344,0.391,0.44,0.436,0.467,0.475,0.478,0.42,0.444,0.368,0.373,0.436,0.424,0.41,0.425,0.414,0.427,0.449,0.468,0.53,0.532,0.522,0.496,0.541,0.543,0.502,0.529,0.546,0.576,0.616,0.607,0.651,0.79,0.783,0.716,0.548,0.474,0.441,0.386,0.305,0.26,0.335,0.38,0.332,0.265,0.233,0.204,0.172,0.152,0.149,0.143,0.127,0.107,0.0958,0.0887,0.0905,0.0777,0.0638,0.0576,0.0546,0.0513,0.0448,0.0398,0.036,0.0339,0.0303,0.026,0.0234,0.02,0.016,0.0131,0.0109,0.00958,0.00849,0.0073,0.00655,0.00589,0.0054,0.00451,0.00375,0.00311,0.0026,0.00219,0.00117,KOBE_SHI000.AT2,KOBE_SHI090.AT2,KOBE_SHI-UP.AT2,RSN1116_KOBE_SHI000.AT2,RSN1116_KOBE_SHI090.AT2,RSN1116_KOBE_SHI-UP.AT2
1148,136,600,7.51,80,180,13.49,999,999,999,12.41,12.41,523,B,-999,B,99,99,-999,0.175,31.1,27.2,0.175,0.18,0.184,0.187,0.183,0.181,0.177,0.185,0.188,0.209,0.207,0.206,0.204,0.203,0.203,0.196,0.196,0.242,0.25,0.242,0.251,0.245,0.213,0.199,0.194,0.227,0.25,0.315,0.336,0.4,0.416,0.453,0.51,0.559,0.61,0.524,0.56,0.538,0.396,0.332,0.317,0.366,0.334,0.289,0.245,0.212,0.212,0.222,0.237,0.221,0.209,0.2,0.193,0.186,0.185,0.179,0.177,0.173,0.148,0.155,0.162,0.168,0.167,0.17,0.179,0.156,0.119,0.12,0.106,0.115,0.0923,0.0937,0.0873,0.078,0.0769,0.075,0.0697,0.0647,0.0553,0.0581,0.0606,0.0606,0.057,0.0551,0.0565,0.0587,0.0602,0.0615,0.0643,0.0671,0.0712,0.0732,0.0735,0.0727,0.0715,0.0666,0.0616,0.0551,0.0493,0.0442,0.04,0.0362,0.0326,0.0292,0.026,0.0211,0.0169,0.0136,0.0116,0.00976,0.00429,KOCAELI_ARE000.AT2,KOCAELI_ARE090.AT2,KOCAELI_AREDWN.AT2,RSN1148_KOCAELI_ARE000.AT2,RSN1148_KOCAELI_ARE090.AT2,RSN1148_KOCAELI_AREDWN.AT2
1158,136,709,7.51,80,180,15.37,999,999,999,9.39,9.39,281.86,A,-999,D,99,99,-999,0.321,56.1,31.9,0.321,0.322,0.322,0.322,0.323,0.322,0.322,0.322,0.323,0.327,0.326,0.324,0.323,0.326,0.331,0.338,0.344,0.334,0.338,0.348,0.359,0.37,0.38,0.385,0.374,0.397,0.409,0.403,0.45,0.489,0.5,0.516,0.519,0.525,0.522,0.614,0.612,0.606,0.633,0.653,0.707,0.813,0.963,0.981,0.941,0.846,1.01,1.09,1.15,1.19,1.14,0.943,0.777,0.784,0.778,0.712,0.681,0.773,0.73,0.689,0.675,0.627,0.553,0.526,0.505,0.49,0.481,0.489,0.516,0.538,0.51,0.461,0.407,0.377,0.349,0.331,0.319,0.335,0.312,0.247,0.205,0.165,0.141,0.145,0.155,0.168,0.17,0.172,0.166,0.154,0.138,0.121,0.108,0.0985,0.0927,0.0878,0.0862,0.0815,0.072,0.0633,0.0546,0.0458,0.0376,0.0328,0.0293,0.0241,0.0195,0.0156,0.0126,0.0102,0.00422,KOCAELI_DZC180.AT2,KOCAELI_DZC270.AT2,KOCAELI_DZC-UP.AT2,RSN1158_KOCAELI_DZC180.AT2,RSN1158_KOCAELI_DZC270.AT2,RSN1158_KOCAELI_DZC-UP.AT2
1161,136,722,7.51,80,180,10.92,999,999,999,11.09,11.09,792,C,-999,A,99,99,-999,0.193,40.8,36.2,0.193,0.195,0.195,0.197,0.2,0.2,0.201,0.204,0.205,0.207,0.204,0.202,0.202,0.203,0.206,0.205,0.21,0.224,0.226,0.224,0.232,0.273,0.282,0.256,0.288,0.321,0.365,0.448,0.386,0.472,0.468,0.446,0.402,0.426,0.447,0.402,0.428,0.425,0.355,0.354,0.328,0.356,0.378,0.428,0.463,0.421,0.45,0.41,0.382,0.421,0.481,0.519,0.5,0.494,0.477,0.436,0.45,0.456,0.38,0.3,0.261,0.218,0.211,0.248,0.27,0.259,0.227,0.188,0.152,0.138,0.144,0.141,0.129,0.116,0.114,0.112,0.105,0.0991,0.0822,0.0753,0.0803,0.0848,0.094,0.102,0.112,0.118,0.12,0.12,0.118,0.117,0.115,0.113,0.111,0.107,0.101,0.0924,0.0818,0.0734,0.0646,0.0554,0.0467,0.0419,0.0376,0.0335,0.0297,0.0231,0.0178,0.0144,0.0122,0.0103,0.00508,KOCAELI_GBZ000.AT2,KOCAELI_GBZ270.AT2,KOCAELI_GBZ-UP.AT2,RSN1161_KOCAELI_GBZ000.AT2,RSN1161_KOCAELI_GBZ270.AT2,RSN1161_KOCAELI_GBZ-UP.AT2
1602,138,611,7.14,65,-178,12.04,999,999,999,0.64,0.64,293.57,A,-999,D,99,99,-999,0.776,62.9,19.7,0.787,0.79,0.811,0.796,0.843,0.84,0.816,0.835,0.837,0.872,0.902,0.93,0.946,0.961,0.96,0.947,0.952,0.963,0.961,0.964,1.01,0.958,0.932,0.929,0.945,0.911,0.888,0.925,1.01,0.958,0.945,0.94,0.943,0.917,1.02,1.1,1.23,1.39,1.38,1.37,1.55,1.68,1.68,1.66,1.73,1.81,1.77,1.71,1.64,1.52,1.53,1.6,1.59,1.57,1.55,1.47,1.49,1.46,1.34,1.04,0.992,1.01,0.991,1.03,1.1,1.11,1.06,0.966,0.761,0.605,0.454,0.398,0.337,0.3,0.274,0.302,0.308,0.289,0.211,0.163,0.159,0.159,0.143,0.142,0.123,0.0947,0.0904,0.0862,0.078,0.0723,0.0664,0.0648,0.062,0.0592,0.0559,0.0479,0.041,0.0332,0.0288,0.0269,0.0241,0.0213,0.018,0.0162,0.015,0.0123,0.00988,0.00783,0.00617,0.0049,0.00266,DUZCE_BOL000.AT2,DUZCE_BOL090.AT2,DUZCE_BOL-UP.AT2,RSN1602_DUZCE_BOL000.AT2,RSN1602_DUZCE_BOL090.AT2,RSN1602_DUZCE_BOL-UP.AT2
1613,138,144,7.14,65,-178,25.88,999,999,999,2.54,2.54,782,I,Q,B,99,99,-999,0.0414,8.23,8.87,0.0418,0.0416,0.0417,0.0419,0.0418,0.0421,0.0426,0.0421,0.0422,0.0435,0.0439,0.0439,0.044,0.0442,0.0455,0.0448,0.0454,0.0492,0.0538,0.0565,0.0596,0.0607,0.0697,0.0772,0.0771,0.0788,0.0769,0.0701,0.0865,0.104,0.105,0.116,0.119,0.158,0.187,0.198,0.182,0.153,0.126,0.117,0.109,0.106,0.0978,0.101,0.105,0.0975,0.0991,0.0936,0.0889,0.0844,0.0758,0.0677,0.0637,0.0576,0.0514,0.0476,0.0482,0.0464,0.0562,0.0553,0.0538,0.0525,0.0452,0.0482,0.0447,0.0438,0.0391,0.0367,0.0387,0.0356,0.0402,0.0419,0.0354,0.0352,0.0382,0.0396,0.0314,0.0275,0.0257,0.0208,0.019,0.0201,0.0201,0.0199,0.0206,0.021,0.0214,0.0223,0.0227,0.0222,0.0206,0.0183,0.0175,0.0159,0.0161,0.0167,0.02,0.0215,0.0221,0.0205,0.0189,0.0168,0.0146,0.0125,0.0109,0.00803,0.0062,0.00489,0.00385,0.003,0.00138,DUZCE_1060-N.AT2,DUZCE_1060-E.AT2,DUZCE_1060-V.AT2,RSN1613_DUZCE_1060-N.AT2,RSN1613_DUZCE_1060-E.AT2,RSN1613_DUZCE_1060-V.AT2
