Record Sequence Number,EQID,SSN,Earthquake Magnitude,Dip (deg),Rake Angle (deg),ClstD (km),Rjb (km),Repi (km),Rhyp (km),Rx,Source to Site Azimuth (deg),Preferred Vs30,GMX_C1,GMX_C2,GMX_C3,Dur,AI,minFreq,PGA (g),PGV (cm/sec),PGD (cm),T0.010s,T0.020s,T0.022s,T0.025s,T0.029s,T0.030s,T0.032s,T0.035s,T0.036s,T0.040s,T0.042s,T0.044s,T0.045s,T0.046s,T0.048s,T0.050s,T0.055s,T0.060s,T0.065s,T0.067s,T0.070s,T0.075s,T0.080s,T0.085s,T0.090s,T0.095s,T0.100s,T0.110s,T0.120s,T0.130s,T0.133s,T0.140s,T0.150s,T0.160s,T0.170s,T0.180s,T0.190s,T0.200s,T0.220s,T0.240s,T0.250s,T0.260s,T0.280s,T0.290s,T0.300s,T0.320s,T0.340s,T0.350s,T0.360s,T0.380s,T0.400s,T0.420s,T0.440s,T0.450s,T0.460s,T0.480s,T0.500s,T0.550s,T0.600s,T0.650s,T0.667s,T0.700s,T0.750s,T0.800s,T0.850s,T0.900s,T0.950s,T1.000s,T1.100s,T1.200s,T1.300s,T1.400s,T1.500s,T1.600s,T1.700s,T1.800s,T1.900s,T2.000s,T2.200s,T2.400s,T2.500s,T2.600s,T2.800s,T3.000s,T3.200s,T3.400s,T3.500s,T3.600s,T3.800s,T4.000s,T4.200s,T4.400s,T4.600s,T4.800s,T5.000s,T5.500s,T6.000s,T6.500s,T7.000s,T7.500s,T8.000s,T8.500s,T9.000s,T9.500s,T10.000s,T11.000s,T12.000s,T13.000s,T14.000s,T15.000s,T20.000s,File Name (Horizontal 1),File Name (Horizontal 2),File Name (Vertical)
3001971,3000272,3000482,7.56,14,100,52.4557151,47.0254961,88.1357332,90.4117041,47.94,-999,517,-999,-999,-999,99,99,-999,0.24004,8.2217,6.3575,0.2445941,0.2620876,0.2665466,0.2885206,0.3402494,0.3494169,0.3905374,0.4391448,0.4398176,0.5833526,0.6197222,0.6110908,0.5767109,0.5738609,0.5755438,0.6374919,0.7665948,0.7804676,0.7977315,0.826701,0.8806142,0.9502926,0.9273347,0.7914133,0.6808425,0.6862857,0.6868837,0.5270395,0.525299,0.6465815,0.728738,0.7530336,0.7012267,0.8068593,0.689321,0.5998969,0.6276762,0.5825668,0.4261009,0.2946612,0.2730546,0.283452,0.2487941,0.2317722,0.2245495,0.1953141,0.1961372,0.1847617,0.1772028,0.1776616,0.1718429,0.174257,0.170886,0.1833861,0.1865758,0.1741519,0.1558119,0.1053006,0.08941073,0.09712886,0.1023353,0.1083127,0.1125832,0.1160103,0.1130503,0.1016416,0.08499683,0.06586041,0.04580714,0.04542756,0.04192531,0.03199462,0.02523949,0.02602322,0.02642924,0.02459025,0.02333196,0.0234914,0.0277632,0.02811022,0.02764561,0.02581079,0.02102749,0.01825559,0.01744424,0.01733873,0.01700862,0.01641492,0.01518082,0.01354648,0.01209134,0.01095488,0.009898553,0.00965952,0.009443833,0.009025889,0.008805831,0.008011749,0.00683435,0.005878527,0.005753841,0.005268198,0.004986282,0.005110092,0.005170026,0.005090526,0.004754907,0.004222996,0.003587187,0.002980651,0.001166283,NGAsubRSN3001971_PAPNN90W.AT2,NGAsubRSN3001971_PAPNS00E.AT2,NGAsubRSN3001971_PAPNVERT.AT2
3001972,3000272,3000483,7.56,14,100,93.0982212,89.3735155,131.9330635,133.464235,59.63,-999,517,-999,-999,-999,99,99,-999,0.075406,6.6391,3.4819,0.07569265,0.07671238,0.07688247,0.07685249,0.07773511,0.07855809,0.08034395,0.08179456,0.08214773,0.08526571,0.08540991,0.08532319,0.0860147,0.08631791,0.08727101,0.08683394,0.08634709,0.08971889,0.09185725,0.09115731,0.09072446,0.09486232,0.0956569,0.09957489,0.1037196,0.1048782,0.1045687,0.117071,0.1319444,0.1511134,0.1536202,0.1497765,0.154993,0.1378111,0.1288858,0.151732,0.1633757,0.1572584,0.1821069,0.1862938,0.1968226,0.1763155,0.16187,0.1726838,0.1829797,0.1669367,0.1301922,0.1322363,0.1397869,0.1499041,0.1572201,0.154889,0.1601924,0.1616709,0.1632323,0.1768909,0.2107204,0.2325905,0.1851114,0.1816975,0.1882722,0.1960909,0.1826883,0.141363,0.107992,0.09628079,0.09793236,0.09536405,0.07919072,0.05313686,0.03634619,0.02640752,0.02110595,0.01859191,0.01788172,0.01914446,0.02040157,0.02032454,0.02213378,0.01991649,0.01825237,0.01606458,0.01365908,0.01301556,0.01203905,0.01080876,0.01043023,0.01080436,0.01108904,0.01030242,0.01005564,0.009804538,0.00951634,0.009393382,0.009116365,0.006652435,0.004988502,0.004358673,0.004974097,0.005446542,0.00560995,0.005770446,0.005403833,0.005129317,0.004784155,0.003823794,0.002868871,0.002155188,0.001559427,0.001163675,0.00044271,NGAsubRSN3001972_SUCHN90W.AT2,NGAsubRSN3001972_SUCHS00E.AT2,NGAsubRSN3001972_SUCHVERT.AT2
3001992,3000271,3000491,7.99,14,72,139.7450019,137.1987104,266.1466809,266.6431383,85.7,-999,519,-999,-999,-999,99,99,-999,0.081396,6.448,1.6715,0.08298188,0.08375743,0.08501501,0.08710869,0.08732136,0.08921789,0.0927192,0.09654506,0.09906144,0.1001094,0.1023472,0.1097711,0.1128998,0.114434,0.1197529,0.122247,0.1366725,0.154252,0.1521427,0.1519046,0.1655559,0.195075,0.218634,0.2406086,0.3058288,0.3370339,0.333362,0.342096,0.3524332,0.332492,0.3392443,0.2971249,0.2217987,0.2196142,0.2164045,0.1649332,0.1654294,0.1318786,0.09759296,0.08703475,0.08147765,0.08299483,0.08949976,0.09750319,0.09250025,0.1033616,0.09616715,0.09602305,0.09636757,0.09628241,0.0962491,0.09082174,0.08393404,0.08266119,0.0864282,0.08965594,0.08336169,0.08034548,0.06602294,0.0643317,0.06110675,0.06651905,0.06999474,0.06113597,0.07038738,0.07761359,0.07332458,0.06766251,0.06132132,0.08292411,0.07697199,0.07108452,0.0578396,0.04324922,0.03065788,0.02953069,0.02939052,0.02824415,0.02729676,0.0278357,0.02766079,0.02654704,0.02469374,0.02146688,0.01814338,0.01710684,0.01656747,0.0158367,0.0146202,0.01352245,0.01201073,0.01006499,0.007924249,0.006302238,0.005083502,0.003620553,0.003097567,0.002682798,0.002268642,0.001735955,0.001332212,0.001097844,0.000965012,0.000869162,0.000780737,0.000613709,0.000489366,0.000406243,0.000355405,0.000307579,0.000175048,NGAsubRSN3001992_PARS001.AT2,NGAsubRSN3001992_PARS002.AT2,NGAsubRSN3001992_PARS003.AT2
3001996,3000272,3000475,7.56,14,100,112.6381108,109.0594105,153.2368624,154.5571246,69.44,-999,429,-999,-999,-999,99,99,-999,0.075119,3.3307,0.41808,0.07523679,0.07937963,0.08027253,0.08223658,0.08015099,0.08319995,0.08550707,0.08658631,0.08346835,0.086288,0.09447966,0.1046361,0.1058565,0.1032664,0.103029,0.1035624,0.09881832,0.09463347,0.09801029,0.1000895,0.1018341,0.1002382,0.1087153,0.1117786,0.1234266,0.1385168,0.1578492,0.1934993,0.2049039,0.1973172,0.2050712,0.1966946,0.2074274,0.2205334,0.1977409,0.2326058,0.2531844,0.2336804,0.1793573,0.1641612,0.1731454,0.1703308,0.1529884,0.162821,0.1733964,0.1554338,0.1442362,0.1448234,0.1347732,0.1230761,0.09907648,0.08130953,0.0762319,0.07891127,0.08027621,0.08327229,0.08605955,0.09486233,0.09053363,0.06953649,0.06617398,0.05397631,0.04625193,0.04984587,0.04594811,0.04017703,0.04990607,0.05669411,0.05308311,0.03437814,0.02589283,0.02219817,0.01846583,0.01669888,0.01540431,0.01461078,0.0130996,0.01139939,0.008161301,0.006458986,0.006233166,0.005773157,0.00468932,0.003618395,0.002822337,0.002138305,0.001982238,0.001851742,0.001514972,0.001333459,0.001136967,0.001023457,0.000925826,0.000873925,0.000842009,0.000682735,0.000492425,0.000431241,0.000370429,0.000316921,0.000273462,0.000239629,0.000213098,0.000191746,0.000173807,0.000144653,0.000121754,0.000103394,8.87E-05,7.68E-05,4.23E-05,NGAsubRSN3001996_ATYC001.AT2,NGAsubRSN3001996_ATYC002.AT2,NGAsubRSN3001996_ATYC003.AT2
3001998,3000272,3000491,7.56,14,100,127.9608467,124.7854414,172.5169852,173.6907566,93.97,-999,519,-999,-999,-999,99,99,-999,0.35269,8.1083,0.37187,0.3913422,0.5186628,0.5464381,0.5872382,0.6058879,0.589738,0.5521172,0.5680036,0.5537474,0.5239471,0.5295735,0.5287296,0.5185611,0.4942648,0.4884321,0.5352587,0.6463028,0.6299428,0.5789247,0.5364544,0.5006719,0.5659325,0.6937019,0.7916655,0.8429729,0.8509705,0.8017792,0.7863906,0.9904562,0.8582376,0.8040004,0.865546,0.966017,0.918861,0.8688411,0.6951304,0.6113759,0.5412846,0.4214014,0.3145272,0.2999944,0.2698695,0.2525897,0.2547999,0.2394716,0.185761,0.215695,0.239656,0.2503932,0.2430042,0.2174459,0.2023973,0.2049449,0.2010856,0.1906421,0.1631239,0.1332253,0.1099005,0.09421322,0.07559008,0.07080844,0.05917848,0.04411889,0.03432059,0.03174688,0.03309688,0.03312561,0.03040559,0.02366136,0.0161991,0.01100625,0.01071146,0.009811496,0.008731944,0.007045325,0.00572709,0.005001079,0.004678465,0.003849922,0.00309457,0.002770596,0.002516087,0.002101063,0.001811635,0.00157975,0.001388373,0.001298898,0.001219009,0.001086314,0.000980907,0.000886004,0.000800035,0.000727862,0.000666629,0.000613202,0.000501891,0.000419811,0.000358556,0.000309295,0.00026832,0.000235239,0.000208144,0.000185683,0.000166666,0.000150583,0.000124453,0.000104407,8.88E-05,7.65E-05,6.67E-05,3.75E-05,NGAsubRSN3001998_PARS001.AT2,NGAsubRSN3001998_PARS002.AT2,NGAsubRSN3001998_PARS003.AT2
3001999,3000272,3000485,7.56,14,100,28.6984218,5.0025856,42.7595692,47.2731375,70.5,-999,517,-999,-999,-999,99,99,-999,0.069114,4.9793,1.2819,0.06980703,0.07071579,0.07056224,0.06938191,0.0717753,0.07192106,0.07202875,0.0769385,0.07891522,0.08364285,0.08123363,0.08161914,0.08000845,0.07773967,0.07686573,0.0795354,0.07928689,0.08490418,0.08243587,0.08236832,0.08058953,0.09610564,0.1013785,0.1013939,0.09237179,0.09114833,0.1089827,0.1478629,0.1259479,0.1342086,0.1391308,0.1298951,0.1450147,0.1455015,0.1701538,0.1802381,0.179818,0.2080991,0.1975202,0.1526428,0.1345576,0.1339202,0.1515609,0.1367163,0.1140893,0.102049,0.1051871,0.1035612,0.1030289,0.1204937,0.1457461,0.1663539,0.1755405,0.1760987,0.1741353,0.1637019,0.1484487,0.1142631,0.08659044,0.06813291,0.06596687,0.06456134,0.05598512,0.06189548,0.06807062,0.06371643,0.05917793,0.05513726,0.04651192,0.04212388,0.03587387,0.02589877,0.0233698,0.02110012,0.02179662,0.02094506,0.0169354,0.01585386,0.01467559,0.01496825,0.01434769,0.01358682,0.01254508,0.01187579,0.01161881,0.01089111,0.0103299,0.009726366,0.008392323,0.00736566,0.006707082,0.005982779,0.00533588,0.004726907,0.004142019,0.002939592,0.00244133,0.002018119,0.001670042,0.001390147,0.001167693,0.000990446,0.000849073,0.000735227,0.000642718,0.000504092,0.000406972,0.00033648,0.000283628,0.000242989,0.000131212,NGAsubRSN3001999_UNIO000.AT2,NGAsubRSN3001999_UNIO-UP.AT2,NGAsubRSN3001999_UNIO180.AT2
4000016,4000001,4000016,9.12,11.98161712,88,90.13914,76.7545079,184.6708718,185.4978663,250.54,-999,348.7,-999,-999,-999,99,99,-999,0.21709,27.973,52.657,0.2178424,0.2209212,0.2226175,0.2299129,0.2398524,0.2397245,0.2382769,0.2323553,0.2370549,0.2577016,0.2606031,0.2665006,0.2718628,0.2755035,0.2719802,0.2639632,0.2746716,0.2810883,0.3292024,0.3387832,0.3704466,0.3956444,0.4242102,0.4643593,0.5021279,0.4915204,0.4962051,0.5007347,0.6356476,0.6491012,0.6543372,0.6961362,0.5925282,0.565792,0.5566821,0.4931132,0.4638835,0.5038468,0.5506839,0.5900385,0.529727,0.5231238,0.4883408,0.5087282,0.5417541,0.5503834,0.5413053,0.5517956,0.5722738,0.5376936,0.5119747,0.4910949,0.4777704,0.4865319,0.4993225,0.4679661,0.4885485,0.4738348,0.4376195,0.4188852,0.3774925,0.3565053,0.363911,0.3395298,0.3597578,0.3455274,0.3748941,0.3271957,0.3649344,0.3780875,0.3724162,0.2917827,0.2433316,0.2192037,0.2500956,0.2793292,0.2468422,0.1982247,0.1755123,0.1632196,0.1581375,0.1680146,0.1519341,0.1398787,0.1143287,0.1039681,0.1093972,0.1111137,0.1078622,0.0913832,0.07610866,0.06659696,0.05627595,0.05142755,0.04170721,0.03091233,0.02901559,0.02519277,0.02019202,0.01666827,0.01602504,0.0140612,0.01435306,0.01578473,0.01335236,0.01215906,0.01156772,0.00928458,0.00697783,0.005752813,0.00499486,NGAsubRSN4000016_4B7-EW.AT2,NGAsubRSN4000016_4B7-NS.AT2,NGAsubRSN4000016_4B7-UD.AT2
4000025,4000001,4000025,9.12,11.98161712,88,60.0930733,37.1129005,172.1881776,173.0748278,213.04,-999,427.7,-999,-999,-999,99,99,-999,0.56949,28.356,20.682,0.5749685,0.6020905,0.6220508,0.7006457,0.6527552,0.6664984,0.6802032,0.6539108,0.6621997,0.7194431,0.7851936,0.859951,0.8814951,0.8957306,0.9265627,0.9465284,0.911518,0.8573985,0.9976727,1.066901,1.094932,1.231137,1.515764,1.616384,1.877973,2.113896,2.02819,2.169567,1.987091,1.835937,1.752308,1.520031,1.432949,1.379581,1.493711,1.498103,1.428071,1.375441,1.015567,0.941783,0.899529,0.898869,0.849963,0.9141424,0.9502426,1.066506,0.9513053,0.9109918,0.9142878,0.7532234,0.7051932,0.7533177,0.7376493,0.7224662,0.6989299,0.603847,0.6208751,0.6737496,0.5499967,0.4077826,0.3918863,0.3892766,0.4614208,0.3325862,0.3127214,0.298593,0.2812181,0.2458415,0.2575605,0.2457755,0.2734182,0.2972123,0.3104031,0.2739999,0.2116237,0.2090909,0.191477,0.1788702,0.1737527,0.1635188,0.1375865,0.1019896,0.08708166,0.0737628,0.06728807,0.05881132,0.05480664,0.05083893,0.04523304,0.03608529,0.03147293,0.03104302,0.03582224,0.03431999,0.03224647,0.02327934,0.02077601,0.01876986,0.01967983,0.01899252,0.01978383,0.01611659,0.01262367,0.01052978,0.009555546,0.009495005,0.01268403,0.01245665,0.008699445,0.006854148,0.004089134,NGAsubRSN4000025_4C0-EW.AT2,NGAsubRSN4000025_4C0-NS.AT2,NGAsubRSN4000025_4C0-UD.AT2
4000026,4000001,4000026,9.12,11.98161712,88,86.4667568,72.4064221,348.2445468,348.6837993,248.2,-999,216,-999,-999,-999,99,99,-999,0.2042,24.94,44.939,0.204622,0.2059933,0.2064437,0.2098969,0.215556,0.2171607,0.2137464,0.2144718,0.2148491,0.2293468,0.2272118,0.2261886,0.2230951,0.2221341,0.2261491,0.2315819,0.248987,0.258966,0.2863595,0.3019212,0.2988885,0.3600346,0.3917387,0.4677457,0.4925722,0.4411764,0.4010071,0.374626,0.3274271,0.338747,0.3532116,0.373873,0.3404674,0.354688,0.353443,0.3879864,0.3891179,0.4011581,0.4469851,0.4740665,0.5126704,0.490439,0.5376362,0.6026789,0.627417,0.5975965,0.5711452,0.568338,0.589375,0.6309879,0.5563608,0.4973402,0.5361314,0.5589117,0.5461218,0.6034858,0.7103841,0.7902808,0.5345204,0.4069771,0.388083,0.3680079,0.3198778,0.3029926,0.3346836,0.3029713,0.2643594,0.2336171,0.1960599,0.1835302,0.1916755,0.1794199,0.1700562,0.1418224,0.1194329,0.1058732,0.0930946,0.09568749,0.09436696,0.1119827,0.1057092,0.09333098,0.08408424,0.08148313,0.07290453,0.05686521,0.05542251,0.05436241,0.05695805,0.06386628,0.06753227,0.06905117,0.06758007,0.06713767,0.0631816,0.06054123,0.06362633,0.05059758,0.03786735,0.02684909,0.02218778,0.01733428,0.01417453,0.01252872,0.01103515,0.009678683,0.01115838,0.01042161,0.00861575,0.00812804,0.006847304,NGAsubRSN4000026_515-EW.AT2,NGAsubRSN4000026_515-NS.AT2,NGAsubRSN4000026_515-UD.AT2
4000087,4000001,4000087,9.12,11.98161712,88,120.3999784,110.7354718,237.5226342,238.1661799,283.79,-999,359.6,-999,-999,-999,99,99,-999,0.15062,16.139,34.142,0.1513895,0.1537936,0.1542609,0.1550888,0.1565125,0.1576807,0.157854,0.1601579,0.1606039,0.1628297,0.1637124,0.1646694,0.1659438,0.1664169,0.1666091,0.1669015,0.1763206,0.1781342,0.1861371,0.1929063,0.200588,0.2332812,0.2496243,0.2692333,0.293258,0.3202583,0.3673878,0.4293481,0.5688146,0.4600837,0.4619451,0.4474311,0.3881327,0.4338304,0.4373858,0.4357266,0.5335946,0.5510077,0.533686,0.3757775,0.344736,0.3039377,0.2994516,0.2883498,0.2613858,0.2249381,0.2196907,0.225859,0.2216184,0.235222,0.257475,0.2835047,0.2791349,0.2925248,0.3038198,0.3034971,0.3010942,0.2687928,0.2504424,0.2462967,0.2507399,0.2425222,0.206887,0.2029415,0.2356162,0.2179479,0.1792801,0.1515116,0.1643934,0.1471013,0.1122752,0.1143729,0.1058553,0.1023485,0.1004768,0.09193932,0.09617319,0.09382387,0.08877395,0.07663316,0.0822615,0.07587563,0.06631315,0.05617138,0.06125914,0.05358816,0.04897796,0.04431092,0.03673992,0.03757012,0.03586952,0.03612546,0.03185909,0.02608904,0.0206921,0.01722465,0.01692104,0.01554365,0.01340431,0.01378559,0.0114228,0.009846338,0.008622137,0.008320461,0.007270316,0.007598252,0.008673649,0.008239796,0.006695034,0.005589037,0.003194996,NGAsubRSN4000087_89D-EW.AT2,NGAsubRSN4000087_89D-NS.AT2,NGAsubRSN4000087_89D-UD.AT2
4000092,4000001,4000092,9.12,11.98161712,88,72.553322,55.0470205,156.0431517,157.0209944,229.89,-999,185.6,-999,-999,-999,99,99,-999,0.35168,55.496,146.84,0.352826,0.3615436,0.3661363,0.3721071,0.3889338,0.3954111,0.4169932,0.4296479,0.4371193,0.4510461,0.4607475,0.4859129,0.5047163,0.5077238,0.5083864,0.4969907,0.4611467,0.4518642,0.4790445,0.5200599,0.5271939,0.5269397,0.5478022,0.5376956,0.5820698,0.613168,0.7194952,0.8947616,1.09522,0.943336,0.9761099,0.8907594,0.8561894,0.9089878,0.8410336,0.8864582,0.9257421,0.9541426,0.7934025,0.7860448,0.7229825,0.7561536,0.8590672,0.8436897,0.7755288,0.7588606,0.8956062,0.9119177,0.885232,0.7682317,0.6972079,0.5475814,0.5099258,0.5316679,0.5511428,0.5999172,0.6550814,0.6150481,0.6544262,0.6875124,0.6761836,0.7571278,0.9539924,1.146255,0.9506102,0.9909437,1.085248,1.073609,0.8408757,0.6012904,0.63875,0.6121037,0.5475057,0.549373,0.47751,0.463731,0.364041,0.3425497,0.2754226,0.1980896,0.19556,0.1783505,0.136605,0.1303612,0.1034641,0.07886422,0.06563327,0.06156148,0.05925496,0.05436615,0.05178739,0.04748841,0.04112281,0.04203328,0.04120854,0.03138019,0.03291105,0.03225292,0.02733831,0.02689653,0.02630667,0.02460227,0.01824582,0.01554764,0.01532662,0.01793322,0.01682518,0.01443371,0.01240644,0.01254273,0.01258424,NGAsubRSN4000092_8A3-EW.AT2,NGAsubRSN4000092_8A3-NS.AT2,NGAsubRSN4000092_8A3-UD.AT2
4000101,4000001,4000101,9.12,11.98161712,88,159.5606702,152.4001227,269.2167478,269.7847008,328.2,-999,401.2,-999,-999,-999,99,99,-999,0.056926,11.651,33.661,0.0569569,0.0570446,0.05706536,0.05715557,0.05726577,0.05718169,0.057336,0.05755922,0.05754588,0.05750811,0.05766731,0.0576711,0.05774587,0.05786069,0.05808303,0.05807164,0.0589698,0.05872173,0.05999546,0.06018894,0.05977356,0.05962282,0.06126743,0.06220761,0.06284922,0.0633304,0.06240432,0.06610668,0.06974855,0.07861151,0.07665421,0.07823201,0.07935409,0.08191154,0.0883501,0.09632645,0.1080946,0.1027557,0.1055413,0.1187615,0.1287511,0.1496674,0.1512315,0.1631183,0.1817242,0.1904752,0.1713673,0.1678921,0.1748916,0.1816021,0.1832953,0.1898887,0.1917059,0.1877355,0.1755418,0.1549231,0.1451919,0.1275539,0.1095393,0.1170397,0.1150824,0.1201488,0.1253019,0.132608,0.129056,0.1286131,0.1458475,0.1498818,0.1354898,0.1215158,0.117707,0.09860626,0.08957783,0.08121521,0.08739915,0.08384236,0.0736644,0.05241015,0.0376028,0.03398972,0.03476341,0.03293274,0.02606716,0.02323086,0.02116544,0.01964627,0.01765207,0.01704723,0.01612612,0.01530569,0.01393593,0.01412697,0.01224324,0.01220496,0.01128623,0.01003542,0.008794394,0.009304252,0.008219585,0.006877217,0.007063948,0.007055119,0.00665754,0.00648355,0.006513808,0.007031656,0.007947166,0.007301767,0.005688394,0.005909507,0.002900529,NGAsubRSN4000101_8AD-EW.AT2,NGAsubRSN4000101_8AD-NS.AT2,NGAsubRSN4000101_8AD-UD.AT2
4000106,4000001,4000106,9.12,11.98161712,88,78.7275359,62.962011,246.9062687,247.5254189,239.96,-999,507.6,-999,-999,-999,99,99,-999,0.40062,34.022,36.557,0.4018039,0.4063904,0.4081556,0.4073243,0.4171593,0.4208007,0.4262821,0.4291274,0.4310348,0.4067699,0.4190198,0.4349677,0.4406673,0.450068,0.4600827,0.4503243,0.4787018,0.4579729,0.4716973,0.4894232,0.493351,0.4843189,0.539133,0.547587,0.5489239,0.5204211,0.4980627,0.5412712,0.6158809,0.5831597,0.5870264,0.6617798,0.8079609,0.8097118,0.836344,0.8787155,0.9639881,1.149495,1.050692,1.277368,1.299096,1.18009,1.116355,1.125276,1.175727,1.281153,1.254931,1.284856,1.30658,1.370539,1.385955,1.292769,1.257407,1.220996,1.15563,0.887651,0.8485245,0.824912,0.5021338,0.5239045,0.5036347,0.431554,0.3582405,0.3372528,0.3438276,0.3588117,0.3421824,0.3151617,0.2235343,0.1624664,0.1546317,0.1926415,0.1896768,0.1644547,0.1520162,0.1238159,0.1156349,0.1100617,0.08461653,0.0659327,0.05857625,0.05851936,0.05247878,0.0522458,0.0485318,0.04101271,0.03581395,0.03174398,0.03407158,0.03345229,0.02933421,0.02918354,0.02876146,0.0264686,0.02577547,0.017453,0.01429914,0.01349181,0.01240194,0.01102535,0.01046967,0.009267865,0.008138468,0.007708468,0.007491618,0.007161691,0.006705188,0.006089923,0.005386011,0.005033821,0.005653781,NGAsubRSN4000106_8B2-EW.AT2,NGAsubRSN4000106_8B2-NS.AT2,NGAsubRSN4000106_8B2-UD.AT2
