Record Sequence Number,EQID,SSN,Earthquake Magnitude,Dip (deg),Rake Angle (deg),ClstD (km),Rjb (km),Repi (km),Rhyp (km),Rx,Source to Site Azimuth (deg),Preferred Vs30,GMX_C1,GMX_C2,GMX_C3,Dur,AI,minFreq,PGA (g),PGV (cm/sec),PGD (cm),T0.010s,T0.020s,T0.022s,T0.025s,T0.029s,T0.030s,T0.032s,T0.035s,T0.036s,T0.040s,T0.042s,T0.044s,T0.045s,T0.046s,T0.048s,T0.050s,T0.055s,T0.060s,T0.065s,T0.067s,T0.070s,T0.075s,T0.080s,T0.085s,T0.090s,T0.095s,T0.100s,T0.110s,T0.120s,T0.130s,T0.133s,T0.140s,T0.150s,T0.160s,T0.170s,T0.180s,T0.190s,T0.200s,T0.220s,T0.240s,T0.250s,T0.260s,T0.280s,T0.290s,T0.300s,T0.320s,T0.340s,T0.350s,T0.360s,T0.380s,T0.400s,T0.420s,T0.440s,T0.450s,T0.460s,T0.480s,T0.500s,T0.550s,T0.600s,T0.650s,T0.667s,T0.700s,T0.750s,T0.800s,T0.850s,T0.900s,T0.950s,T1.000s,T1.100s,T1.200s,T1.300s,T1.400s,T1.500s,T1.600s,T1.700s,T1.800s,T1.900s,T2.000s,T2.200s,T2.400s,T2.500s,T2.600s,T2.800s,T3.000s,T3.200s,T3.400s,T3.500s,T3.600s,T3.800s,T4.000s,T4.200s,T4.400s,T4.600s,T4.800s,T5.000s,T5.500s,T6.000s,T6.500s,T7.000s,T7.500s,T8.000s,T8.500s,T9.000s,T9.500s,T10.000s,T11.000s,T12.000s,T13.000s,T14.000s,T15.000s,T20.000s,File Name (Horizontal 1),File Name (Horizontal 2),File Name (Vertical)
4000108,4000001,4000108,9.12,11.98161712,88,45.4367128,5.8912655,307.3948461,307.8923821,180.39,-999,261.7,-999,-999,-999,99,99,-999,0.44829,39.298,55.737,0.448837,0.4512825,0.4523181,0.4538244,0.4524205,0.4542008,0.4532226,0.4599474,0.4632614,0.4667888,0.472865,0.474272,0.4748258,0.4735357,0.4730434,0.4686274,0.483253,0.5156446,0.5291404,0.5381293,0.5225418,0.5439158,0.5733644,0.5594461,0.5694002,0.5619754,0.5750414,0.6319921,0.5906222,0.6120526,0.6165193,0.6461272,0.6474287,0.6870337,0.7531977,0.9694228,1.232816,1.325933,1.485079,1.605993,1.78784,2.052697,1.94,1.897017,1.955171,1.744361,1.458868,1.346112,1.332522,1.390781,1.412754,1.451761,1.50699,1.444336,1.330916,1.134188,1.108634,0.8201333,0.5944757,0.6006841,0.5212569,0.5130263,0.5570763,0.530654,0.5131089,0.4339712,0.3722306,0.3430081,0.2952416,0.2330616,0.2110254,0.2199419,0.2259466,0.2209347,0.1733834,0.1705868,0.167358,0.1839762,0.177375,0.1581478,0.1484768,0.1566104,0.1623183,0.1321433,0.1312303,0.1349706,0.1334384,0.1284473,0.1318561,0.1289226,0.1206026,0.1016398,0.08472431,0.08269563,0.08220438,0.07088223,0.05344883,0.04202844,0.03201439,0.02910902,0.0282106,0.02875898,0.02542797,0.02517384,0.02288811,0.01852254,0.01361991,0.01193645,0.01242117,0.01140568,0.009842164,NGAsubRSN4000108_8FD-EW.AT2,NGAsubRSN4000108_8FD-NS.AT2,NGAsubRSN4000108_8FD-UD.AT2
4000113,4000001,4000113,9.12,11.98161712,88,91.8510079,78.7578413,276.0788809,276.6327457,256.09,-999,411.3,-999,-999,-999,99,99,-999,0.24036,24.392,45.738,0.2415712,0.2454759,0.246868,0.2537732,0.2657693,0.2637368,0.2636966,0.2643835,0.2696645,0.2856054,0.2868501,0.2923055,0.3020295,0.3130039,0.3165402,0.3354771,0.3313905,0.350637,0.420082,0.4431191,0.4348199,0.4799346,0.5215449,0.526391,0.4674822,0.4479872,0.4636385,0.4389015,0.4205219,0.4833047,0.4845941,0.5120605,0.5131404,0.4512572,0.504931,0.5337967,0.5330721,0.5139697,0.5277903,0.5659003,0.6625439,0.70432,0.5432689,0.5196651,0.4705891,0.4690201,0.5516153,0.5396896,0.531762,0.5632061,0.540379,0.5647403,0.5648594,0.5214254,0.5757784,0.5720679,0.5725756,0.4773553,0.5009036,0.423227,0.4451746,0.4458797,0.4074607,0.3957294,0.3909802,0.3676919,0.312164,0.3114649,0.2202112,0.1995215,0.1694937,0.1544248,0.1449685,0.1350737,0.1432156,0.133343,0.1281888,0.1078115,0.06973594,0.06914692,0.07363167,0.07814714,0.06398738,0.05609878,0.04457477,0.04043928,0.03794463,0.03803564,0.03789645,0.03454563,0.0302832,0.02976079,0.02796871,0.02585539,0.02623632,0.02312201,0.01691868,0.0127626,0.009822941,0.008690581,0.009969775,0.009075264,0.008098991,0.008100407,0.00788137,0.006684408,0.006949933,0.007200454,0.006763272,0.005473274,0.006970349,NGAsubRSN4000113_904-EW.AT2,NGAsubRSN4000113_904-NS.AT2,NGAsubRSN4000113_904-UD.AT2
4000115,4000001,4000115,9.12,11.98161712,88,110.3037988,99.6650287,354.0387608,354.4708333,277.73,-999,208,-999,-999,-999,99,99,-999,0.15457,18.502,40.419,0.1551791,0.1574301,0.1581035,0.1591203,0.1712586,0.1719894,0.1715865,0.1705255,0.1743668,0.1755202,0.1784687,0.1833073,0.1849155,0.1883413,0.1896842,0.191166,0.1954407,0.2055362,0.2249126,0.2264168,0.2298534,0.2465006,0.238493,0.2604996,0.2809389,0.3551242,0.3816032,0.2708922,0.2806664,0.284751,0.2842458,0.2773925,0.3113307,0.3085209,0.3120874,0.2992428,0.380058,0.4039176,0.3678311,0.5080921,0.537925,0.533199,0.5204591,0.5780854,0.6061773,0.6257753,0.6610163,0.6737459,0.649852,0.4676734,0.4009107,0.3703653,0.3846744,0.3870395,0.3711018,0.3655707,0.3535243,0.346907,0.3168599,0.2809159,0.2850818,0.297879,0.2906128,0.2421269,0.1812295,0.2121304,0.2227978,0.2201286,0.1883604,0.1901367,0.1487742,0.1496939,0.1452355,0.1220446,0.1103605,0.1067284,0.101349,0.09199497,0.09819508,0.07701108,0.07532778,0.0709963,0.06793107,0.05586521,0.06359327,0.07088732,0.07246644,0.07539092,0.07291615,0.06094342,0.04834609,0.03994428,0.03168462,0.02781416,0.02675213,0.01989312,0.0193914,0.01874436,0.01474773,0.01204476,0.01052494,0.009602237,0.009155563,0.008764344,0.007501037,0.006906509,0.00703009,0.008640901,0.009043968,0.007736926,0.006700371,NGAsubRSN4000115_906-EW.AT2,NGAsubRSN4000115_906-NS.AT2,NGAsubRSN4000115_906-UD.AT2
4000124,4000001,4000124,9.12,11.98161712,88,196.6637603,190.9000381,366.8645688,367.2815532,368.4,-999,355.9,-999,-999,-999,99,99,-999,0.070028,14.077,75.685,0.07003607,0.07006066,0.07006756,0.07007916,0.07009742,0.07010227,0.0701124,0.07012933,0.07013533,0.07016183,0.07017747,0.07019702,0.070213,0.07022841,0.07024761,0.07025824,0.07025528,0.07039688,0.07058083,0.07054625,0.0705066,0.07047716,0.07079179,0.07085112,0.07070056,0.07086502,0.07076985,0.07101797,0.07133535,0.07185206,0.07179879,0.07209851,0.07237606,0.0721005,0.07181088,0.07136133,0.0727592,0.07291146,0.07301295,0.07533718,0.07801012,0.0791728,0.07997393,0.07970608,0.08030459,0.0811636,0.08289095,0.08423819,0.08555111,0.08917286,0.09243248,0.09342398,0.1010957,0.1009558,0.1001287,0.1029743,0.1042672,0.1069708,0.1046189,0.113941,0.1172486,0.1267465,0.1369591,0.1517009,0.1873432,0.2274122,0.2221068,0.2812202,0.2774388,0.3723515,0.3710585,0.2529763,0.1654028,0.1263176,0.1072153,0.07839148,0.06772488,0.05269923,0.04293247,0.0286784,0.02582635,0.0246656,0.02468447,0.02447535,0.02260187,0.02133216,0.02023305,0.01810589,0.01575158,0.01398805,0.01225349,0.0112495,0.01032093,0.008953109,0.008507704,0.007655434,0.008528096,0.006800031,0.007422296,0.00699831,0.006174591,0.006186299,0.005473475,0.005433489,0.004707297,0.003535986,0.004637096,0.005269753,0.004293812,0.004070497,0.002835357,NGAsubRSN4000124_90F-EW.AT2,NGAsubRSN4000124_90F-NS.AT2,NGAsubRSN4000124_90F-UD.AT2
4000155,4000001,4000155,9.12,11.98161712,88,67.7904633,48.597704,219.3147676,220.0115788,220.98,-999,760.8,-999,-999,-999,99,99,-999,0.090926,8.0325,20.582,0.0915217,0.09343564,0.09406956,0.09515337,0.09680631,0.09731119,0.0984337,0.1003648,0.1010081,0.1041754,0.1062496,0.1085083,0.1094872,0.1103757,0.1131306,0.1197005,0.1313472,0.1300396,0.1472141,0.152697,0.1515592,0.1724877,0.1923058,0.2583705,0.3252908,0.3512883,0.3621224,0.3194115,0.2979777,0.2398221,0.2134379,0.2002563,0.1972355,0.2471543,0.2747995,0.2726679,0.235305,0.2539657,0.2535502,0.1987962,0.1777674,0.1690554,0.1637572,0.1545592,0.1549761,0.167128,0.1671802,0.159991,0.1548394,0.1598995,0.1511876,0.1375204,0.1268211,0.1230657,0.116045,0.1125715,0.09483867,0.07255123,0.0908184,0.0920749,0.08804926,0.08231362,0.063729,0.05912337,0.06112429,0.05926881,0.06183441,0.05260326,0.04528215,0.04012984,0.03454593,0.031427,0.02976003,0.02911675,0.02917345,0.02699343,0.02419376,0.02398823,0.02478587,0.02601633,0.02690859,0.02794765,0.02833165,0.02322665,0.02095747,0.02028536,0.02108223,0.0209171,0.01858043,0.0184082,0.01741602,0.01501416,0.01405988,0.01405024,0.01423222,0.0114257,0.00882169,0.007733299,0.006243142,0.005628701,0.005787414,0.006397306,0.007142998,0.006419022,0.007332532,0.008970414,0.008160666,0.007053762,0.006034204,0.005538729,0.004701351,NGAsubRSN4000155_CA4-EW.AT2,NGAsubRSN4000155_CA4-NS.AT2,NGAsubRSN4000155_CA4-UD.AT2
4000156,4000001,4000156,9.12,11.98161712,88,90.5954612,77.2898927,201.4085482,202.1670864,250.53,-999,760.8,-999,-999,-999,99,99,-999,0.43414,21.105,32.812,0.4352819,0.4384505,0.4390282,0.4408177,0.4436617,0.4444576,0.446149,0.4482675,0.4487801,0.450552,0.4561152,0.4628147,0.4663315,0.4704385,0.4787373,0.4930106,0.5236527,0.5331782,0.5751887,0.6068922,0.6521475,0.7789543,0.8486779,0.9149983,0.8905348,0.8910968,0.8900259,0.9611053,1.013699,0.8959739,0.882889,0.9054475,0.8973733,1.032156,1.113209,1.064488,1.056131,1.014423,1.1492,1.325032,1.661129,1.853286,1.998973,2.041066,1.988935,1.887855,1.435919,1.190473,0.9747491,0.8111337,0.7152537,0.6856641,0.6978489,0.6660089,0.6356649,0.5682863,0.5098639,0.3656633,0.2778118,0.2463249,0.2247547,0.196621,0.1583614,0.1530134,0.1446752,0.1250853,0.09991441,0.09239053,0.07763845,0.06950829,0.06009666,0.05948861,0.05507673,0.05384469,0.04421644,0.03513955,0.03179581,0.0259257,0.02654734,0.02287628,0.02398553,0.02553512,0.02652026,0.02298317,0.02348443,0.02068305,0.02024822,0.01988171,0.01766031,0.01654384,0.01617713,0.01809189,0.01812777,0.01652682,0.01493087,0.0124811,0.009850594,0.009428744,0.008335477,0.008303875,0.008315116,0.008342215,0.007043831,0.006219597,0.005961801,0.008422647,0.008073356,0.005887157,0.005685006,0.005262915,0.003311317,NGAsubRSN4000156_CA5-EW.AT2,NGAsubRSN4000156_CA5-NS.AT2,NGAsubRSN4000156_CA5-UD.AT2
4000158,4000001,4000158,9.12,11.98161712,88,180.8045787,174.5178662,276.5810507,277.1339119,349.57,-999,633.7,-999,-999,-999,99,99,-999,0.038125,8.9675,30.841,0.03815272,0.03823556,0.03825903,0.03829877,0.03836033,0.03837734,0.03841339,0.0384725,0.0384934,0.03858312,0.03864022,0.03873632,0.03878603,0.03881677,0.03886685,0.03892222,0.03899622,0.03932313,0.03927015,0.03909548,0.03917588,0.04019728,0.04096229,0.04149031,0.04080606,0.0416152,0.04241457,0.04530917,0.04798017,0.05383892,0.05416039,0.05314002,0.06551472,0.07165682,0.06899109,0.06864653,0.06678172,0.07945702,0.1230255,0.131625,0.1173543,0.1282258,0.1396441,0.1338558,0.1272586,0.1314014,0.1267859,0.1460904,0.1501809,0.1274233,0.1070669,0.09900814,0.1094462,0.1099014,0.1087523,0.1092063,0.09321393,0.09591436,0.09042053,0.09028458,0.08375829,0.07364488,0.07543251,0.07217129,0.08185291,0.0809458,0.0743876,0.061627,0.06507812,0.07836641,0.06832171,0.04871344,0.04141467,0.03358991,0.02898892,0.02747072,0.02292156,0.02052459,0.02067278,0.01542545,0.01480187,0.01458638,0.01309155,0.01277152,0.01212855,0.01219187,0.01092887,0.01023757,0.01060813,0.01008651,0.009553514,0.0102144,0.009509128,0.008988546,0.008416738,0.007513404,0.008002253,0.006542264,0.006447326,0.007487127,0.006572583,0.005752752,0.005558084,0.005028983,0.005083581,0.005423055,0.004652651,0.004411218,0.006025041,0.007080725,0.004738709,NGAsubRSN4000158_CA9-EW.AT2,NGAsubRSN4000158_CA9-NS.AT2,NGAsubRSN4000158_CA9-UD.AT2
4000161,4000001,4000161,9.12,11.98161712,88,75.7860757,59.242883,180.2994239,181.1463766,234.92,-999,397.5,-999,-999,-999,99,99,-999,0.30944,20.405,39.74,0.310763,0.3146046,0.315845,0.3175548,0.3210422,0.3218551,0.3236438,0.3267522,0.3280338,0.3334656,0.3361998,0.3396683,0.342275,0.3438673,0.3445455,0.3489059,0.3868079,0.4310756,0.5459332,0.6099854,0.7053943,0.760097,0.7999507,0.8430913,0.8653614,0.8860378,0.9384411,0.9638779,0.9256918,0.7991839,0.8066439,0.7296228,0.6579041,0.7541503,0.713421,0.7309037,0.716074,0.6458868,0.6657691,0.914111,0.9701648,1.035645,0.9867154,0.9962187,1.005773,0.8976297,0.7958904,0.7529142,0.7063915,0.6230613,0.624005,0.5722609,0.4787279,0.4302585,0.4038267,0.3626357,0.3122143,0.2800394,0.2717759,0.2534009,0.2502711,0.2293747,0.2101815,0.2048366,0.1785563,0.1702394,0.1628468,0.1526554,0.1321782,0.1124648,0.09553579,0.09415518,0.08160827,0.06360521,0.06385106,0.06556524,0.06388134,0.06860709,0.0614019,0.0659942,0.0651625,0.06590776,0.05695985,0.0467429,0.04232278,0.03810772,0.03559311,0.03380977,0.03065048,0.02757606,0.02579404,0.02264452,0.02046214,0.02006194,0.0188795,0.01527661,0.0135983,0.01248382,0.01003334,0.008573275,0.008247076,0.007420208,0.007710359,0.008182142,0.00815898,0.009592367,0.01205537,0.01135557,0.008393832,0.006715873,0.005222354,NGAsubRSN4000161_CAD-EW.AT2,NGAsubRSN4000161_CAD-NS.AT2,NGAsubRSN4000161_CAD-UD.AT2
4000163,4000001,4000163,9.12,11.98161712,88,226.258236,221.2667605,367.3429052,367.7593472,398.17,-999,332,-999,-999,-999,99,99,-999,0.033463,11.697,25.076,0.03348363,0.03354603,0.03356272,0.03359091,0.03363438,0.03364637,0.03367159,0.0337126,0.03372713,0.03379007,0.03382509,0.03386515,0.03388815,0.03391216,0.03394742,0.03394954,0.0336887,0.03428144,0.03447045,0.03475349,0.03480886,0.03399758,0.03518634,0.03681393,0.03804126,0.036847,0.03608837,0.03989857,0.04328923,0.04673534,0.04813627,0.04804321,0.04529585,0.04056129,0.04538335,0.04782293,0.05337713,0.05902539,0.0582526,0.06803341,0.08008977,0.08224574,0.07043391,0.07347117,0.07715938,0.08199222,0.08452383,0.09336086,0.09995127,0.096395,0.07786278,0.08007206,0.07916982,0.0798168,0.08194923,0.07343016,0.07314792,0.06149459,0.05401564,0.05767506,0.06053783,0.05375402,0.05498902,0.05930762,0.05648901,0.0543812,0.05321141,0.04517983,0.04555623,0.04890428,0.04596022,0.043617,0.04885272,0.04673035,0.0471895,0.05405232,0.05118348,0.05127112,0.04391145,0.04123903,0.04159522,0.04115227,0.03465132,0.03270058,0.0363625,0.04496435,0.04590758,0.04800852,0.04880386,0.04733833,0.04835174,0.0509839,0.04511648,0.03544586,0.03135505,0.033319,0.02312399,0.02335667,0.0221632,0.01785378,0.01190637,0.01199578,0.01138963,0.01055421,0.009605306,0.009828603,0.01206339,0.01204243,0.007565937,0.007196065,0.00496724,NGAsubRSN4000163_CB5-EW.AT2,NGAsubRSN4000163_CB5-NS.AT2,NGAsubRSN4000163_CB5-UD.AT2
4000183,4000001,4000183,9.12,11.98161712,88,104.1006975,92.7531409,275.4654904,276.020586,264.66,-999,633.7,-999,-999,-999,99,99,-999,0.072552,6.4395,27.476,0.07274429,0.07341391,0.07358783,0.07391458,0.07445975,0.07459764,0.07493903,0.07545662,0.07565909,0.07673088,0.07807609,0.08012282,0.08253243,0.08448403,0.08601376,0.08601009,0.09202177,0.09416391,0.09519563,0.09767248,0.0964424,0.09896705,0.1047579,0.1087793,0.1232892,0.1407913,0.1576922,0.1658204,0.1818476,0.2018961,0.2082793,0.2288855,0.2091352,0.1872281,0.2030822,0.2635912,0.2737131,0.3259924,0.3149523,0.2214621,0.1799582,0.1758217,0.1673298,0.1793833,0.166794,0.1531988,0.1236957,0.1131084,0.1078074,0.1092096,0.1032991,0.09589818,0.09091278,0.09147219,0.09002589,0.08822855,0.08890425,0.07812122,0.07335883,0.06876863,0.07147352,0.07072952,0.05479191,0.05189525,0.04965146,0.04641266,0.04048899,0.04050168,0.03524845,0.04738618,0.03822025,0.03714105,0.03521664,0.0290148,0.02753953,0.02657273,0.02387614,0.02565109,0.02334638,0.01895247,0.01895943,0.01801397,0.01829168,0.01944276,0.01565827,0.01410555,0.01383576,0.01429459,0.01212991,0.0104762,0.009986247,0.008224761,0.008510724,0.009610194,0.01016066,0.009341649,0.007406502,0.006235446,0.006081462,0.005610461,0.004617616,0.004617204,0.004568219,0.00500551,0.005723548,0.005328405,0.005029956,0.004418038,0.003760632,0.004249236,0.005448466,NGAsubRSN4000183_D17-EW.AT2,NGAsubRSN4000183_D17-NS.AT2,NGAsubRSN4000183_D17-UD.AT2
4000192,4000001,4000192,9.12,11.98161712,88,56.3228268,30.6341434,210.8614705,211.5861225,207.37,-999,788.7,-999,-999,-999,99,99,-999,0.49741,33.104,50.578,0.4983953,0.5014547,0.5023152,0.5040224,0.5067831,0.5079142,0.5101966,0.514053,0.5154842,0.5209652,0.5242139,0.5273628,0.5285639,0.5295623,0.5334532,0.5439574,0.5531391,0.5906273,0.5979764,0.6049057,0.6166384,0.6184584,0.6329177,0.6454708,0.6919846,0.7284757,0.785857,0.8368737,0.9584574,0.9204646,0.9197744,0.9358547,1.069025,0.9552587,0.920453,0.9271547,0.9212792,0.9190186,1.076319,1.131588,1.189025,1.212863,1.269099,1.300641,1.343003,1.580527,1.751965,1.843382,1.960507,1.880481,1.917144,2.037568,1.856952,1.799578,1.789208,1.525829,1.362804,1.022732,0.5821717,0.4526539,0.392588,0.3413056,0.3016869,0.2904867,0.272874,0.2530106,0.2349576,0.2420222,0.1835966,0.1906,0.1697561,0.1674128,0.1538869,0.1472999,0.1345744,0.1269333,0.1224289,0.1117607,0.1061115,0.08806808,0.08334646,0.07287688,0.0700214,0.07920898,0.07432556,0.0642216,0.05694533,0.05220306,0.03900783,0.03348988,0.02854373,0.02569121,0.02475716,0.02318692,0.02256814,0.02708904,0.02319381,0.01787316,0.01905073,0.01523514,0.01216045,0.01072688,0.01021889,0.008884302,0.00891727,0.007151203,0.006800162,0.006339488,0.005665015,0.004963574,0.00655271,NGAsubRSN4000192_D2E-EW.AT2,NGAsubRSN4000192_D2E-NS.AT2,NGAsubRSN4000192_D2E-UD.AT2
4000193,4000001,4000193,9.12,11.98161712,88,60.7410042,38.1531062,184.1499905,184.9793138,211.06,-999,788.7,-999,-999,-999,99,99,-999,0.19997,13.688,78.291,0.2006192,0.2030687,0.2039407,0.2058817,0.2089448,0.2089993,0.20813,0.2152626,0.2162652,0.2311046,0.2345992,0.2418938,0.2480678,0.2536311,0.2694316,0.3004469,0.3457392,0.324085,0.3574145,0.3739996,0.4024957,0.4490763,0.4946858,0.5281498,0.5814476,0.5653934,0.6061856,0.6427323,0.7587907,0.7927521,0.7423201,0.641411,0.6441901,0.5043093,0.6633067,0.6541291,0.6092952,0.4675361,0.4423335,0.4538515,0.47169,0.4998721,0.4196979,0.372229,0.3768142,0.299917,0.260242,0.2599728,0.2427538,0.2337701,0.2091691,0.1956472,0.2003136,0.1941822,0.1853798,0.1898983,0.21257,0.2857883,0.219546,0.1783856,0.1611262,0.1601571,0.1659411,0.1591241,0.1321049,0.1211723,0.1195619,0.09685387,0.06887782,0.06853024,0.06147725,0.06666842,0.05727676,0.04878648,0.04863977,0.04874831,0.04556971,0.03921416,0.03183316,0.02684349,0.0248355,0.0234767,0.023026,0.02586766,0.02451278,0.02095883,0.01957697,0.01870328,0.01839752,0.0169958,0.01729818,0.0188432,0.01876801,0.01781752,0.01684762,0.01297085,0.01254493,0.01257601,0.009993953,0.008603509,0.0101502,0.01119995,0.009311091,0.009089212,0.008723509,0.01103399,0.01220175,0.01127519,0.01022527,0.009122586,0.005838125,NGAsubRSN4000193_D30-EW.AT2,NGAsubRSN4000193_D30-NS.AT2,NGAsubRSN4000193_D30-UD.AT2
4000224,4000001,4000224,9.12,11.98161712,88,80.144941,64.7255861,169.1198176,170.0224698,239.81,-999,364.2,-999,-999,-999,99,99,-999,0.35313,55.866,171.14,0.3533615,0.3541861,0.3544634,0.3573419,0.3591007,0.3598932,0.3670404,0.3720528,0.3754951,0.378088,0.3796065,0.3809971,0.3802807,0.377264,0.3737935,0.3820148,0.3978414,0.4037551,0.4150656,0.4198007,0.4268811,0.4307944,0.429875,0.4418636,0.4654189,0.4856275,0.5129966,0.6067733,0.7344442,0.6931718,0.7028776,0.763204,0.7411625,0.8171972,0.7902427,0.7714628,0.763445,0.8801023,1.097607,1.046607,1.051524,1.088414,1.220599,1.274397,1.432752,1.475206,1.316344,1.292968,1.224667,0.9698734,0.8724145,0.8761532,0.7671866,0.7511258,0.7878335,0.9219195,0.9306147,0.8452129,0.8287887,0.7691379,0.7013533,0.7057278,0.8027433,0.6782944,0.5589429,0.5874994,0.5990639,0.567137,0.4684058,0.4038466,0.3687149,0.2792468,0.2183574,0.2337131,0.2299387,0.2162463,0.1742586,0.1599616,0.147746,0.1464685,0.1548048,0.1562843,0.1661132,0.1572679,0.1297195,0.1068677,0.1025162,0.0942816,0.07916681,0.07132978,0.06967473,0.06266183,0.05824358,0.05564412,0.05005312,0.03728728,0.03456717,0.03111638,0.03199916,0.02983724,0.02487683,0.02385208,0.02084826,0.01869063,0.01775629,0.01747066,0.01460278,0.01132047,0.01004948,0.01116876,0.00918195,NGAsubRSN4000224_E06-EW.AT2,NGAsubRSN4000224_E06-NS.AT2,NGAsubRSN4000224_E06-UD.AT2
