Record Sequence Number,EQID,SSN,Earthquake Magnitude,Dip (deg),Rake Angle (deg),ClstD (km),Rjb (km),Repi (km),Rhyp (km),Rx,Source to Site Azimuth (deg),Preferred Vs30,GMX_C1,GMX_C2,GMX_C3,Dur,AI,minFreq,PGA (g),PGV (cm/sec),PGD (cm),T0.010s,T0.020s,T0.022s,T0.025s,T0.029s,T0.030s,T0.032s,T0.035s,T0.036s,T0.040s,T0.042s,T0.044s,T0.045s,T0.046s,T0.048s,T0.050s,T0.055s,T0.060s,T0.065s,T0.067s,T0.070s,T0.075s,T0.080s,T0.085s,T0.090s,T0.095s,T0.100s,T0.110s,T0.120s,T0.130s,T0.133s,T0.140s,T0.150s,T0.160s,T0.170s,T0.180s,T0.190s,T0.200s,T0.220s,T0.240s,T0.250s,T0.260s,T0.280s,T0.290s,T0.300s,T0.320s,T0.340s,T0.350s,T0.360s,T0.380s,T0.400s,T0.420s,T0.440s,T0.450s,T0.460s,T0.480s,T0.500s,T0.550s,T0.600s,T0.650s,T0.667s,T0.700s,T0.750s,T0.800s,T0.850s,T0.900s,T0.950s,T1.000s,T1.100s,T1.200s,T1.300s,T1.400s,T1.500s,T1.600s,T1.700s,T1.800s,T1.900s,T2.000s,T2.200s,T2.400s,T2.500s,T2.600s,T2.800s,T3.000s,T3.200s,T3.400s,T3.500s,T3.600s,T3.800s,T4.000s,T4.200s,T4.400s,T4.600s,T4.800s,T5.000s,T5.500s,T6.000s,T6.500s,T7.000s,T7.500s,T8.000s,T8.500s,T9.000s,T9.500s,T10.000s,T11.000s,T12.000s,T13.000s,T14.000s,T15.000s,T20.000s,File Name (Horizontal 1),File Name (Horizontal 2),File Name (Vertical)
3001283,3000001,3000356,6.6,82,-84,85.9346174,63.2643634,72.8849585,94.40454,53.62,-999,517,-999,-999,-999,99,99,-999,0.097886,7.8337,1.2665,0.0985651,0.09989363,0.1001341,0.1003227,0.09888133,0.09921172,0.1009897,0.104282,0.1041395,0.1063599,0.1057615,0.1038638,0.1039131,0.1038578,0.1040385,0.1046824,0.1128309,0.1130565,0.1161015,0.1148338,0.1141329,0.1165451,0.1243722,0.1273207,0.1343953,0.1444287,0.1492458,0.169759,0.1674204,0.1832939,0.1822991,0.1751495,0.1711323,0.1607309,0.1660586,0.1729862,0.1729093,0.1723852,0.1689048,0.1975027,0.218742,0.214203,0.1905829,0.1900867,0.2098456,0.2325994,0.2663094,0.2801114,0.2955482,0.3012004,0.2967998,0.2701412,0.2662251,0.2713521,0.2824038,0.3295882,0.3146235,0.3217806,0.3210416,0.2388136,0.2034625,0.1599069,0.1369648,0.1261487,0.09583814,0.09925789,0.1153543,0.125659,0.08861491,0.0550926,0.05911451,0.05865384,0.04681859,0.03529803,0.02974162,0.02568142,0.0251384,0.02421207,0.01976795,0.01896327,0.01683298,0.01564258,0.01506828,0.01446122,0.01354904,0.01160978,0.01029185,0.008970345,0.006913561,0.005274649,0.004180797,0.003557014,0.003185952,0.002929518,0.002705756,0.002101852,0.001722913,0.001478355,0.001281854,0.001080596,0.000897648,0.00074338,0.000641289,0.000590688,0.000534641,0.0004565,0.000387783,0.000326011,0.000275922,0.000236131,0.000128049,NGAsubRSN3001283_1--L.AT2,NGAsubRSN3001283_1--T.AT2,NGAsubRSN3001283_1--V.AT2
3001286,3000001,3000359,6.6,82,-84,61.448109,26.5143413,38.5476029,71.3156202,6.18,-999,519,-999,-999,-999,99,99,-999,0.049634,3.5587,0.80223,0.04973101,0.05002422,0.05010034,0.05026874,0.05044387,0.05049694,0.05068482,0.05105146,0.0511905,0.05148358,0.05170416,0.05192174,0.05192272,0.05201703,0.05218396,0.05221355,0.05357841,0.05443656,0.057355,0.05812902,0.06211585,0.06431746,0.06389128,0.07084978,0.08024017,0.08206718,0.08431708,0.1038719,0.106131,0.1162798,0.1221383,0.1212019,0.1582565,0.1586415,0.1548352,0.1455318,0.1545863,0.1415951,0.123346,0.1435349,0.1483703,0.1470985,0.1287877,0.1330024,0.1341315,0.1257845,0.1133322,0.113602,0.1233567,0.1221469,0.1227956,0.1303681,0.1288822,0.1359717,0.1460958,0.1595785,0.1580057,0.1315167,0.08137851,0.06113194,0.05987046,0.05659502,0.04889553,0.04536503,0.04599744,0.03666129,0.03406537,0.03640151,0.02867408,0.02388372,0.02212445,0.02177956,0.0255494,0.02525273,0.03019104,0.02904975,0.0232963,0.01878198,0.01726184,0.01514036,0.01412485,0.01267741,0.009568902,0.007942969,0.006650987,0.005525899,0.005179025,0.004858862,0.004113797,0.003641264,0.003429993,0.002866581,0.002464122,0.002184587,0.001839545,0.001356325,0.001110528,0.000869661,0.000746677,0.000663665,0.00056708,0.000488739,0.000436828,0.000394263,0.000352122,0.000281142,0.00023649,0.000203618,0.000173463,0.000147379,8.38E-05,NGAsubRSN3001286_1.AT2,NGAsubRSN3001286_2.AT2,NGAsubRSN3001286_3.AT2
3001293,3000143,3000366,7.32,23,-94,144.6247762,139.9613554,172.8000972,177.5514393,-70.81,-999,429,-999,-999,-999,99,99,-999,0.050524,3.9795,1.2642,0.0506255,0.05088434,0.05092376,0.05126818,0.0521565,0.0521797,0.05255463,0.05307923,0.05313046,0.05466665,0.05589901,0.0557606,0.05622209,0.05596542,0.05352422,0.05448447,0.05606691,0.05825478,0.05878735,0.06023705,0.06103511,0.06854999,0.07278965,0.07686704,0.08026565,0.09166721,0.08918162,0.09028908,0.09456977,0.09520078,0.09346922,0.09343174,0.1212841,0.1388103,0.1395204,0.1711652,0.1700899,0.1459968,0.1286304,0.1302196,0.136605,0.136013,0.1287186,0.1194613,0.1065749,0.1102172,0.1200714,0.127518,0.1293847,0.1079683,0.1067015,0.1002967,0.1082867,0.1080046,0.1022344,0.09039018,0.08543196,0.09787618,0.08179365,0.06644365,0.06200023,0.06335329,0.05651505,0.05953174,0.05800028,0.05137499,0.04659262,0.04064412,0.03497084,0.03325656,0.03168825,0.035024,0.0359912,0.03877728,0.03621544,0.03009738,0.02936816,0.02673632,0.02523409,0.02111022,0.01775624,0.01489567,0.01302656,0.01138097,0.01001675,0.009369476,0.008750905,0.007982202,0.007149538,0.006359944,0.005576779,0.004819981,0.004100518,0.003411973,0.002786877,0.002342775,0.002008718,0.001594634,0.001349099,0.001144473,0.000969218,0.000833959,0.000729417,0.000641075,0.000561357,0.000418538,0.000333501,0.00029551,0.000259929,0.000229162,0.000152876,NGAsubRSN3001293_643001.AT2,NGAsubRSN3001293_643002.AT2,NGAsubRSN3001293_643003.AT2
3001294,3000143,3000367,7.32,23,-94,119.5781204,113.8937311,124.6471665,131.154703,-113.89,-999,517,-999,-999,-999,99,99,-999,0.07417,4.5427,1.7257,0.07466284,0.07629609,0.07725714,0.07618345,0.07631467,0.07702269,0.07940444,0.08069357,0.08091424,0.08187559,0.08293878,0.08222586,0.0825542,0.08303427,0.08382583,0.08417219,0.08576181,0.09879141,0.1031895,0.1082669,0.1175046,0.1248299,0.1298432,0.1351288,0.1522749,0.1515003,0.1583648,0.1601044,0.1583979,0.1851695,0.1952236,0.1897963,0.1749535,0.1849501,0.2055306,0.188078,0.1840434,0.2106865,0.191002,0.181555,0.2008532,0.207954,0.193004,0.1966716,0.1806759,0.1736547,0.2092772,0.2163927,0.2232904,0.202369,0.1874602,0.1782016,0.1739662,0.1868485,0.2001808,0.1935503,0.1508635,0.1185954,0.07977279,0.08480237,0.08808282,0.08383048,0.06819455,0.05238612,0.05076595,0.05077558,0.05569389,0.05269708,0.03844439,0.02480271,0.02375617,0.02814764,0.03249415,0.03683434,0.03160066,0.02358625,0.01711384,0.01469187,0.0112176,0.01039439,0.01006133,0.009630429,0.009596596,0.01066722,0.01106608,0.01165958,0.0115855,0.01143921,0.0103385,0.008324172,0.007442338,0.006565227,0.006116166,0.005670752,0.005160928,0.004163845,0.003680069,0.003042884,0.002511062,0.002116837,0.001908971,0.001665596,0.001394485,0.001151158,0.001017372,0.000775082,0.000609074,0.000521915,0.000458287,0.000478002,0.000367314,NGAsubRSN3001294_644001.AT2,NGAsubRSN3001294_644002.AT2,NGAsubRSN3001294_644003.AT2
3001296,3000143,3000369,7.32,23,-94,125.451833,120.0458975,149.8485193,155.303634,-89.84,-999,517,-999,-999,-999,99,99,-999,0.059387,4.3783,1.5402,0.05957921,0.06040587,0.06032826,0.06072839,0.0625433,0.06269981,0.06213101,0.06170428,0.0621053,0.06330827,0.06546529,0.06772704,0.068077,0.067555,0.06697366,0.06768646,0.07145527,0.08473575,0.08089899,0.08169037,0.09003651,0.1148363,0.1167701,0.1268791,0.1285993,0.1280634,0.1193942,0.1617841,0.1652549,0.1827939,0.1807762,0.163295,0.1467885,0.129212,0.1455858,0.1719475,0.1614993,0.1542885,0.160715,0.161354,0.1492184,0.1590058,0.1616571,0.1536732,0.1444469,0.1258978,0.1116342,0.1039483,0.1042957,0.09683853,0.09742586,0.09789418,0.09852204,0.0975209,0.1031888,0.1018241,0.09891963,0.08465402,0.0796995,0.09154,0.08959159,0.07315373,0.06667425,0.05666191,0.05568558,0.0591908,0.05011206,0.05268152,0.06304263,0.04488705,0.03303528,0.03203108,0.0319194,0.02964869,0.02826721,0.02727278,0.02719666,0.02845141,0.03392982,0.03092131,0.02812583,0.02499611,0.01950668,0.01648824,0.01379588,0.01193424,0.01095682,0.01002603,0.00834395,0.007149431,0.006240824,0.005730105,0.005158972,0.004533458,0.004146403,0.003508134,0.002825575,0.002254137,0.001800758,0.001502282,0.001423083,0.001271126,0.001044463,0.000908488,0.00087099,0.000783797,0.000578357,0.000466304,0.000394028,0.000335231,0.000225826,NGAsubRSN3001296_646001.AT2,NGAsubRSN3001296_646002.AT2,NGAsubRSN3001296_646003.AT2
3001302,3000143,3000375,7.32,23,-94,135.0872883,130.0823991,163.0267409,168.0546288,-63.86,-999,2100,-999,-999,-999,99,99,-999,0.02024,2.045,0.65999,0.02035919,0.02124233,0.02154813,0.02235694,0.02256022,0.02269965,0.02333253,0.02424474,0.02414114,0.02457553,0.02541032,0.02543749,0.0261804,0.02660726,0.02633618,0.02581332,0.02847395,0.03300222,0.03239294,0.0325795,0.03428576,0.03438867,0.03838116,0.04098013,0.04250003,0.04120362,0.04313883,0.04842328,0.05467072,0.05577748,0.05504772,0.05914934,0.06079675,0.05819898,0.05775622,0.06043988,0.06380282,0.06370121,0.05729874,0.05275915,0.0495245,0.05749535,0.06394673,0.06916076,0.07080127,0.06516913,0.06395692,0.06707788,0.06419937,0.05750889,0.05000024,0.05146971,0.05381068,0.05117137,0.04640109,0.037456,0.03478783,0.03011035,0.02573777,0.0270428,0.02808459,0.02726107,0.02985256,0.02867142,0.02685126,0.02351967,0.01904961,0.01583811,0.01439154,0.01045062,0.009608517,0.01024768,0.01194295,0.01365082,0.01429572,0.01364022,0.01323876,0.01249241,0.01099864,0.009723578,0.008804346,0.007934451,0.00655419,0.005517352,0.004894323,0.004254254,0.003884486,0.003517909,0.003138834,0.002877571,0.002683149,0.002459918,0.002198345,0.001908199,0.001635582,0.001444011,0.001115285,0.00087522,0.000714166,0.000604945,0.000523596,0.000462929,0.000415889,0.000372953,0.000335986,0.000262065,0.000216895,0.00017933,0.000154958,0.000133245,0.000125577,NGAsubRSN3001302_2061001.AT2,NGAsubRSN3001302_2061002.AT2,NGAsubRSN3001302_2061003.AT2
3001303,3000143,3000376,7.32,23,-94,118.7778413,113.0532206,130.8600376,137.0729347,-112.14,-999,429,-999,-999,-999,99,99,-999,0.084198,9.6995,3.4263,0.09245209,0.1279096,0.1336694,0.1434924,0.1431624,0.1356932,0.134024,0.116414,0.1169261,0.1212232,0.1090507,0.1023196,0.09561979,0.08952233,0.0900956,0.09446294,0.1001646,0.09527192,0.1021001,0.103941,0.1008409,0.1119927,0.1250895,0.1334298,0.13978,0.139379,0.1393289,0.132668,0.1379901,0.1328737,0.1256402,0.1377984,0.1495216,0.1451158,0.1581903,0.1570947,0.1602468,0.1675926,0.1666479,0.2387656,0.2333031,0.2267844,0.192762,0.1939771,0.1915735,0.2152865,0.1865373,0.1780137,0.1804474,0.1837074,0.1478288,0.1468862,0.1444284,0.1426401,0.144787,0.1468569,0.1547044,0.1703145,0.1433423,0.1701835,0.1709322,0.1618246,0.1429255,0.1438173,0.157649,0.1346103,0.1213778,0.1101538,0.1242572,0.1348831,0.1150227,0.1140525,0.07703317,0.06557599,0.07246114,0.0729764,0.06682164,0.06214708,0.05159331,0.05857269,0.0481942,0.0405035,0.03575245,0.03449837,0.02576142,0.02041877,0.01882568,0.01756431,0.01572882,0.01385797,0.01224791,0.01175198,0.01062639,0.01024998,0.009164354,0.006641346,0.005311348,0.004415312,0.003739076,0.003176949,0.002706836,0.002328441,0.002033127,0.001799294,0.001609739,0.001316526,0.001099194,0.000924023,0.000781117,0.00070463,0.000452019,NGAsubRSN3001303_2062001.AT2,NGAsubRSN3001303_2062002.AT2,NGAsubRSN3001303_2062003.AT2
3001306,3000143,3000379,7.32,23,-94,147.2242984,142.6458872,175.6841747,180.3595554,-67.51,-999,568,-999,-999,-999,99,99,-999,0.049444,3.6473,1.0665,0.04949193,0.04993149,0.05000454,0.04983691,0.04988931,0.05001367,0.05052342,0.05101097,0.05104803,0.05058439,0.05015762,0.05013082,0.05008007,0.05049203,0.05168201,0.05241004,0.05272176,0.05744127,0.05576389,0.05346425,0.05120373,0.05520543,0.06107733,0.06697337,0.07091925,0.07371365,0.06868897,0.07287769,0.07802766,0.07921862,0.07964119,0.08407447,0.09527365,0.09447581,0.1215743,0.1272497,0.1142339,0.111173,0.108887,0.1073806,0.1054364,0.1083742,0.1035002,0.09792877,0.09602538,0.1024525,0.09214674,0.101878,0.1141335,0.1088276,0.1093098,0.1117162,0.08682422,0.08631525,0.09202113,0.09960799,0.0997048,0.09135214,0.07704979,0.06780795,0.06689549,0.07651907,0.09216464,0.09999865,0.0891943,0.07243332,0.06534772,0.06718608,0.05470094,0.04292487,0.03888397,0.02792139,0.02101544,0.01808584,0.01896315,0.01759554,0.01459949,0.01514171,0.01478405,0.01368083,0.0118343,0.01021523,0.009069622,0.008184764,0.007532202,0.006285507,0.006041242,0.005598011,0.00478568,0.004250873,0.003659284,0.002987089,0.002933324,0.002642043,0.002381732,0.001865513,0.001446257,0.001200079,0.001027851,0.00081907,0.000732125,0.000641206,0.000569493,0.000495321,0.000501964,0.000420752,0.000318374,0.000289427,0.000241013,0.000222485,0.000157612,NGAsubRSN3001306_3115001.AT2,NGAsubRSN3001306_3115002.AT2,NGAsubRSN3001306_3115003.AT2
3001307,3000143,3000380,7.32,23,-94,177.8814597,174.1110818,207.538905,211.5113167,-43.48,-999,568,-999,-999,-999,99,99,-999,0.038888,2.4653,0.49651,0.03921545,0.04027056,0.04106212,0.04089481,0.04224125,0.04197275,0.04359016,0.04547596,0.04504145,0.04733602,0.04844392,0.05126539,0.05272309,0.05438314,0.05534663,0.0560265,0.06157687,0.07157462,0.08309051,0.08993168,0.1006379,0.117701,0.1309679,0.1359696,0.138813,0.1446217,0.1328815,0.1180643,0.1308535,0.1242279,0.1195596,0.1137361,0.1013726,0.09669954,0.1006458,0.08490387,0.07858335,0.07607014,0.07210784,0.07690915,0.07807175,0.07286537,0.06979785,0.07024325,0.0797101,0.09249904,0.09301792,0.08549605,0.08605218,0.09256203,0.09756256,0.08885736,0.08172224,0.07850713,0.07508146,0.07620125,0.07014929,0.06568784,0.06475309,0.06263416,0.06655703,0.07267394,0.07243579,0.06537001,0.05466581,0.04442153,0.03588714,0.02897026,0.01853994,0.01418525,0.01292059,0.01231132,0.01213064,0.009427682,0.008682906,0.008638765,0.008365304,0.00746098,0.006293801,0.005803758,0.004932158,0.004159126,0.004384954,0.004017702,0.003459665,0.003189774,0.002750681,0.002495624,0.001988979,0.001837251,0.001736028,0.001650499,0.001498064,0.001312018,0.001216674,0.00106194,0.00100492,0.000841234,0.00066119,0.000511766,0.000412816,0.00035392,0.000310476,0.000290098,0.000244956,0.0002187,0.000197519,0.000153764,0.000131108,0.000106202,8.51E-05,NGAsubRSN3001307_3116001.AT2,NGAsubRSN3001307_3116002.AT2,NGAsubRSN3001307_3116003.AT2
3001311,3000143,3000384,7.32,23,-94,113.6468264,107.6496923,140.4001864,146.2082499,-56.42,-999,281,-999,-999,-999,99,99,-999,0.083548,7.3569,2.1364,0.08361628,0.08383466,0.08397081,0.08390328,0.08403793,0.08401664,0.08413453,0.08484694,0.08501448,0.08553986,0.08629517,0.08679979,0.08644452,0.08577907,0.08588081,0.08797034,0.08886011,0.08832417,0.08697487,0.08858655,0.09298512,0.1001028,0.09816688,0.1021951,0.1104026,0.1104838,0.1160456,0.1219806,0.1248095,0.1268966,0.1290243,0.1423723,0.1759004,0.1712531,0.1579796,0.1552879,0.1679486,0.1777231,0.1677249,0.1724285,0.1862373,0.200794,0.2236018,0.2350732,0.2411119,0.2312328,0.2404197,0.2643888,0.2907701,0.3248687,0.3240252,0.2959494,0.2517853,0.227837,0.204123,0.163956,0.1394716,0.1266505,0.128548,0.1445261,0.1454839,0.1400153,0.1261038,0.1025763,0.08075254,0.06476457,0.0525202,0.04522169,0.04198662,0.04310146,0.04893396,0.05331906,0.05116749,0.04705271,0.03795383,0.03398074,0.03232932,0.02996044,0.02420059,0.02016659,0.01871367,0.01774061,0.01680654,0.016728,0.01637324,0.01522323,0.01395071,0.01284817,0.01121847,0.01072339,0.008074123,0.007118178,0.006314681,0.005740869,0.00542708,0.004196717,0.003220661,0.002997818,0.002522817,0.001885782,0.001582744,0.001428682,0.00138526,0.001147085,0.001087961,0.000892232,0.000683834,0.000541606,0.000455687,0.000394344,0.000264675,NGAsubRSN3001311_3295001.AT2,NGAsubRSN3001311_3295002.AT2,NGAsubRSN3001311_3295003.AT2
3001313,3000143,3000386,7.32,23,-94,169.6374674,165.6795866,198.760839,202.9051776,-23.7,-999,382,-999,-999,-999,99,99,-999,0.055576,3.9045,1.222,0.05567181,0.05605514,0.05616748,0.05664181,0.05707402,0.05700324,0.05696332,0.0566793,0.05670911,0.057664,0.05883786,0.06088195,0.06124228,0.06094271,0.06079721,0.06063887,0.06587861,0.06504161,0.06883565,0.07245409,0.07361237,0.08299778,0.08122569,0.09120167,0.08688927,0.09707543,0.0900007,0.1112731,0.1161133,0.1223603,0.1369949,0.1499371,0.1629904,0.1565727,0.1543201,0.1552844,0.15675,0.1837951,0.2390276,0.1914543,0.1751444,0.1698883,0.1352772,0.1330997,0.1369046,0.1685496,0.1643005,0.1459616,0.1366294,0.1264434,0.1240534,0.09407874,0.08296749,0.08278482,0.08319288,0.08683411,0.08889209,0.08051518,0.07532584,0.07554236,0.06854766,0.06421227,0.06558646,0.06487683,0.06317476,0.06210265,0.06633227,0.0621958,0.03940801,0.0308197,0.03368659,0.0291218,0.02563435,0.02672032,0.02724043,0.027183,0.02711088,0.02584356,0.0199347,0.01521226,0.0140648,0.01189714,0.00967791,0.008202569,0.007643294,0.006645821,0.005788323,0.005620144,0.005183371,0.004999975,0.004587477,0.003984357,0.003281181,0.002882148,0.002459365,0.002003612,0.001547731,0.001317197,0.001114512,0.000955878,0.000839347,0.000748869,0.000639649,0.000554757,0.000489174,0.000423789,0.000355103,0.000293861,0.000248735,0.000218149,0.000162012,NGAsubRSN3001313_3687001.AT2,NGAsubRSN3001313_3687002.AT2,NGAsubRSN3001313_3687003.AT2
3001314,3000143,3000387,7.32,23,-94,144.772506,140.1140021,173.0925118,177.8360414,-67.81,-999,586,-999,-999,-999,99,99,-999,0.040056,3.3076,1.0455,0.04018833,0.04061187,0.04074631,0.04126715,0.04130053,0.04142632,0.04147945,0.04160266,0.04199483,0.04274078,0.04316991,0.04332102,0.0436508,0.04431015,0.04479077,0.04594231,0.04609658,0.0474415,0.05020652,0.05161536,0.05406602,0.05945573,0.05634707,0.05616162,0.06005865,0.06953754,0.07132991,0.07741169,0.08332805,0.09597238,0.09554535,0.09165628,0.09610534,0.1173585,0.1415987,0.1369188,0.1225445,0.1082798,0.1118431,0.1422887,0.1411446,0.1309758,0.1265196,0.1338237,0.1305234,0.1238363,0.1130012,0.1153341,0.1060875,0.1063366,0.1110943,0.1191805,0.1085877,0.1142189,0.11623,0.1264354,0.1155966,0.09836788,0.06943975,0.05926416,0.05507066,0.04965029,0.04610517,0.04622594,0.04566684,0.03645889,0.03375625,0.03527484,0.02717973,0.02439644,0.02330173,0.02212621,0.02590843,0.02632201,0.03232749,0.03101572,0.02531694,0.01994083,0.01812176,0.01540413,0.01451786,0.01301484,0.009855826,0.008495308,0.007063561,0.006017401,0.005665572,0.005465838,0.004874053,0.003992127,0.0034941,0.003173793,0.002908882,0.002611804,0.002404443,0.0017707,0.001710022,0.001433241,0.001108055,0.000865318,0.000694302,0.000638091,0.000556019,0.000451285,0.000434664,0.000409126,0.00031714,0.000268918,0.000220533,0.000208863,0.0001634,NGAsubRSN3001314_6357001.AT2,NGAsubRSN3001314_6357002.AT2,NGAsubRSN3001314_6357003.AT2
3001482,3000184,3000390,7.15,82,-106,252.4430546,250.8665049,272.9189223,275.1540262,-5.47,-999,429,-999,-999,-999,99,99,-999,0.010287,0.45535,0.26828,0.0104608,0.01134714,0.01256402,0.01467071,0.01632003,0.01703661,0.01619402,0.01747354,0.01808804,0.01947827,0.0207505,0.02036485,0.02149899,0.02310164,0.02549136,0.02408339,0.0307282,0.02466753,0.02256155,0.02399059,0.02304955,0.02405207,0.02583299,0.02461687,0.02688348,0.03272349,0.03937264,0.03780748,0.03200462,0.03319519,0.03341241,0.033864,0.02802731,0.02456545,0.02205152,0.01871801,0.01790718,0.01766401,0.01949921,0.01702761,0.01563056,0.01502221,0.01641503,0.01739001,0.01744308,0.01596275,0.01360008,0.01193448,0.01045659,0.0101481,0.0101359,0.01209902,0.01355709,0.01397018,0.01399491,0.01197387,0.01020962,0.01079443,0.008139092,0.007063826,0.006682383,0.006666233,0.00724879,0.00662098,0.006617855,0.006464068,0.006447612,0.005614371,0.003919563,0.003723336,0.003142877,0.003384215,0.003317263,0.002931108,0.002752432,0.002969461,0.002550056,0.002619579,0.001835182,0.002032585,0.002067356,0.002269982,0.002262107,0.001647252,0.001319812,0.001157641,0.001043965,0.001000805,0.00087591,0.000855372,0.000934954,0.001002945,0.001073362,0.00095822,0.000811879,0.000741718,0.000570064,0.000604266,0.000628125,0.000703127,0.0006164,0.000457578,0.000395157,0.000403256,0.000359978,0.000210311,0.000144702,0.000129723,0.00010201,9.27E-05,4.95E-05,NGAsubRSN3001482_ATYCN00W.AT2,NGAsubRSN3001482_ATYCN90W.AT2,NGAsubRSN3001482_ATYC--V.AT2
