Record Sequence Number,EQID,SSN,Earthquake Magnitude,Dip (deg),Rake Angle (deg),ClstD (km),Rjb (km),Repi (km),Rhyp (km),Rx,Source to Site Azimuth (deg),Preferred Vs30,GMX_C1,GMX_C2,GMX_C3,Dur,AI,minFreq,PGA (g),PGV (cm/sec),PGD (cm),T0.010s,T0.020s,T0.022s,T0.025s,T0.029s,T0.030s,T0.032s,T0.035s,T0.036s,T0.040s,T0.042s,T0.044s,T0.045s,T0.046s,T0.048s,T0.050s,T0.055s,T0.060s,T0.065s,T0.067s,T0.070s,T0.075s,T0.080s,T0.085s,T0.090s,T0.095s,T0.100s,T0.110s,T0.120s,T0.130s,T0.133s,T0.140s,T0.150s,T0.160s,T0.170s,T0.180s,T0.190s,T0.200s,T0.220s,T0.240s,T0.250s,T0.260s,T0.280s,T0.290s,T0.300s,T0.320s,T0.340s,T0.350s,T0.360s,T0.380s,T0.400s,T0.420s,T0.440s,T0.450s,T0.460s,T0.480s,T0.500s,T0.550s,T0.600s,T0.650s,T0.667s,T0.700s,T0.750s,T0.800s,T0.850s,T0.900s,T0.950s,T1.000s,T1.100s,T1.200s,T1.300s,T1.400s,T1.500s,T1.600s,T1.700s,T1.800s,T1.900s,T2.000s,T2.200s,T2.400s,T2.500s,T2.600s,T2.800s,T3.000s,T3.200s,T3.400s,T3.500s,T3.600s,T3.800s,T4.000s,T4.200s,T4.400s,T4.600s,T4.800s,T5.000s,T5.500s,T6.000s,T6.500s,T7.000s,T7.500s,T8.000s,T8.500s,T9.000s,T9.500s,T10.000s,T11.000s,T12.000s,T13.000s,T14.000s,T15.000s,T20.000s,File Name (Horizontal 1),File Name (Horizontal 2),File Name (Vertical)
4022902,4000068,4000478,8.29,20,90,141.2106418,128.9727311,219.1277913,220.5504342,222.94,-999,537.5,-999,-999,-999,99,99,-999,0.11905,9.9058,51.537,0.1196958,0.1215339,0.1219504,0.1225939,0.124428,0.1248118,0.1244455,0.1237186,0.1247123,0.1297352,0.1328712,0.1353785,0.1372858,0.1396143,0.1424999,0.1451456,0.1621573,0.1777415,0.1983439,0.2117655,0.2258898,0.2647891,0.318027,0.3318586,0.3532592,0.3563285,0.3723897,0.411308,0.4992774,0.4647946,0.4474334,0.3949419,0.3992798,0.3254984,0.2822817,0.2595704,0.2075679,0.1950923,0.1974985,0.2218824,0.2044863,0.1849823,0.1628532,0.1597382,0.152891,0.138287,0.1401415,0.1356255,0.1224715,0.1109455,0.1097725,0.1163122,0.111719,0.1066716,0.1047573,0.1172638,0.1283486,0.1437167,0.1078752,0.09099436,0.0837744,0.07153905,0.06299549,0.06864669,0.06703616,0.06351992,0.06219663,0.06174342,0.06126788,0.06288647,0.06380306,0.05717145,0.05874965,0.05072258,0.03962492,0.0366638,0.04020942,0.03846814,0.03061553,0.03432977,0.03291092,0.02933454,0.02176142,0.0199797,0.0183905,0.01723366,0.01648053,0.01551396,0.01436156,0.01459504,0.01478443,0.01576977,0.01539545,0.01448625,0.01449435,0.01421646,0.01484137,0.01327005,0.01157138,0.01104352,0.01042006,0.009297534,0.008292325,0.007635986,0.006617316,0.005549788,0.004589997,0.003630428,0.003351115,0.002832462,0.001785833,NGAsubRSN4022902_KKWH14EW2.AT2,NGAsubRSN4022902_KKWH14NS2.AT2,NGAsubRSN4022902_KKWH14UD2.AT2
4022907,4000068,4000490,8.29,20,90,65.8202784,32.028566,148.4455773,150.5376847,115.86,-999,219.1,-999,-999,-999,99,99,-999,0.39482,44.261,45.339,0.3949687,0.3956726,0.3959437,0.3961996,0.3965766,0.3975154,0.3966998,0.3992371,0.403624,0.429976,0.4338284,0.4331773,0.433814,0.4337192,0.4324726,0.4301217,0.4135807,0.4475611,0.4721143,0.4734692,0.4719142,0.4707482,0.4799285,0.4659154,0.4703035,0.4594719,0.450127,0.4585829,0.5177898,0.5651997,0.5832506,0.6766933,0.7307656,0.6963521,0.745317,0.9047119,1.056621,1.097988,1.162462,1.209562,1.295733,1.23163,1.267077,1.190687,1.171499,1.181566,1.08539,1.191826,1.177335,1.004818,0.9203162,1.050687,1.197192,1.266644,1.239555,1.127382,1.095312,1.51816,1.315954,1.007427,0.9285711,0.9137365,0.8190755,0.7313283,0.563778,0.5222708,0.508066,0.4597881,0.4429354,0.530139,0.4146187,0.3456151,0.2867186,0.2807273,0.2696446,0.2249921,0.2228999,0.2137393,0.1517363,0.1403055,0.1457061,0.1429707,0.1635868,0.1749576,0.1540194,0.1347378,0.1251102,0.1165313,0.09949414,0.08705928,0.08066684,0.07642411,0.08005339,0.07979342,0.0763678,0.06989105,0.05441848,0.04607825,0.0383742,0.03575912,0.03144044,0.02555986,0.02235179,0.02032103,0.01671781,0.01367342,0.01016509,0.008738831,0.007532982,0.006404445,0.004850024,NGAsubRSN4022907_KSRH02EW2.AT2,NGAsubRSN4022907_KSRH02NS2.AT2,NGAsubRSN4022907_KSRH02UD2.AT2
4022909,4000068,4000492,8.29,20,90,84.9665545,65.190738,166.9430497,168.8060631,95.36,-999,189.2,-999,-999,-999,99,99,-999,0.27331,29.4,33.198,0.2738328,0.2754367,0.2757061,0.2763002,0.2775074,0.2774576,0.2764254,0.2853154,0.288419,0.2967162,0.3046269,0.3154855,0.3175266,0.3155347,0.3162735,0.3269967,0.3390863,0.3520679,0.365165,0.3645589,0.3767256,0.397282,0.4172364,0.4127494,0.5190546,0.6587337,0.7322159,0.8234587,0.8852311,0.7878827,0.8382353,0.836111,0.8471213,0.6937135,0.5806195,0.62461,0.6496657,0.5438542,0.5385854,0.507917,0.5167154,0.484148,0.5443048,0.5258923,0.5690523,0.5005589,0.5407696,0.5768932,0.6643188,0.7814785,0.6683446,0.6597329,0.6748649,0.6911997,0.7184652,0.6711974,0.5773187,0.4869415,0.3164159,0.288164,0.2761128,0.2405958,0.2599556,0.2202926,0.235002,0.245698,0.2358301,0.2584691,0.2658334,0.2287033,0.2169893,0.2147179,0.2403312,0.2747644,0.2382014,0.2386784,0.232098,0.2243428,0.1384803,0.1273268,0.1200796,0.1211048,0.1305901,0.1264809,0.1144806,0.1232102,0.1215818,0.1168606,0.1031893,0.0820796,0.0699443,0.06361178,0.0599084,0.05730011,0.05221673,0.04178107,0.03997725,0.03536935,0.03267075,0.0247306,0.02177446,0.01857656,0.01531878,0.01249195,0.01046862,0.008203473,0.006666204,0.005421492,0.005471819,0.00523035,0.00312757,NGAsubRSN4022909_KSRH04EW2.AT2,NGAsubRSN4022909_KSRH04NS2.AT2,NGAsubRSN4022909_KSRH04UD2.AT2
4022913,4000068,4000497,8.29,20,90,60.5240894,19.0551323,134.3256122,136.6340923,112.2,-999,230.2,-999,-999,-999,99,99,-999,0.41237,67.653,48.336,0.4127835,0.4140832,0.4144924,0.4152673,0.4162572,0.4165008,0.4165046,0.4178925,0.4190703,0.4163627,0.4191365,0.4226715,0.4229634,0.4226272,0.4227507,0.4239064,0.428292,0.4359495,0.4450224,0.447889,0.4492162,0.4367069,0.4345701,0.4443083,0.456312,0.4629216,0.4594788,0.4753467,0.4837632,0.4857405,0.4867793,0.4756472,0.495888,0.5256994,0.5498884,0.6179417,0.6103926,0.6879491,0.8183843,0.8321799,0.8544375,0.8401608,0.9439881,0.9533108,0.9644114,1.156306,1.299605,1.445538,1.585523,1.681741,1.590688,1.431721,1.493436,1.499264,1.488075,1.347042,1.382435,1.327527,1.318925,1.128078,1.035284,0.9195892,0.7399479,0.706193,0.6895027,0.7288544,0.6836745,0.6982054,0.6720773,0.5608563,0.4234974,0.4267895,0.371924,0.3259486,0.2676599,0.2197502,0.2113093,0.2042747,0.174548,0.1557807,0.1576217,0.1549577,0.1787533,0.2187955,0.2302474,0.2306061,0.217832,0.2012139,0.1731654,0.1555774,0.1409416,0.1302077,0.1172678,0.1068509,0.09842231,0.07473402,0.05686658,0.04957093,0.04602004,0.0431744,0.0403421,0.03673671,0.032278,0.02743031,0.02354693,0.01854583,0.01437754,0.01158514,0.009460746,0.007979815,0.006590534,NGAsubRSN4022913_KSRH09EW2.AT2,NGAsubRSN4022913_KSRH09NS2.AT2,NGAsubRSN4022913_KSRH09UD2.AT2
4022977,4000068,4000618,8.29,20,90,151.6823046,140.3603987,234.5518526,235.8814886,234.3,-999,240.5,-999,-999,-999,99,99,-999,0.12537,22.239,39.802,0.1254929,0.1258208,0.1259202,0.1260341,0.1262359,0.1262734,0.1264233,0.1271153,0.1272888,0.1279788,0.1281026,0.1281191,0.1281232,0.1281592,0.1283741,0.1287351,0.1292603,0.1296724,0.13023,0.1305657,0.1303016,0.131387,0.1343369,0.1391446,0.1456329,0.1469733,0.1553,0.1561463,0.1794549,0.1991486,0.2041214,0.2228255,0.2396157,0.2821695,0.260415,0.2827908,0.2789892,0.2407346,0.2383844,0.2333258,0.2330233,0.2428287,0.2857033,0.3026881,0.3399433,0.3353899,0.4087196,0.4532676,0.4384476,0.4034229,0.4452404,0.4783237,0.4697255,0.4374762,0.4075092,0.3731991,0.3746846,0.3292417,0.3300989,0.3095812,0.3187883,0.3253024,0.2622891,0.2430836,0.2341834,0.2226066,0.2228737,0.1973054,0.139974,0.1800648,0.1975782,0.1799735,0.1507699,0.1353309,0.1564168,0.164717,0.1466239,0.1161564,0.09076025,0.09319104,0.106277,0.1115244,0.1135514,0.09475011,0.07391171,0.06785358,0.06601723,0.06474338,0.06246947,0.05957343,0.05698745,0.05815275,0.05945884,0.05683667,0.05379077,0.04762186,0.04189892,0.03794615,0.03331017,0.02866894,0.02417748,0.02048884,0.01756746,0.01528116,0.01311092,0.01064365,0.009369583,0.008127384,0.00632186,0.005009267,0.002317347,NGAsubRSN4022977_SRCH09EW2.AT2,NGAsubRSN4022977_SRCH09NS2.AT2,NGAsubRSN4022977_SRCH09UD2.AT2
4022988,4000068,4000647,8.29,20,90,96.9131217,78.0107246,190.5435862,192.177947,168.92,-999,444.9,-999,-999,-999,99,99,-999,0.14047,19.854,19.326,0.1408562,0.1420034,0.1421753,0.1429601,0.1441229,0.1444233,0.144296,0.1464276,0.1472186,0.1481974,0.1490234,0.1518052,0.1536307,0.1555087,0.1564419,0.1565346,0.1686754,0.1742262,0.1793754,0.1868592,0.1956195,0.2347911,0.2413633,0.2330269,0.2753563,0.3193512,0.3312465,0.2909156,0.3036785,0.4009519,0.4428655,0.4399966,0.4012926,0.418408,0.4348369,0.3960756,0.3531254,0.3444118,0.3427775,0.3419424,0.390189,0.3770217,0.3380237,0.3380028,0.2963823,0.2816833,0.3032618,0.2987224,0.2711754,0.2489007,0.2357641,0.2094196,0.1897983,0.1819725,0.1864145,0.1893655,0.1728531,0.1710361,0.2005103,0.1898287,0.169065,0.1612126,0.1838278,0.1652289,0.1862593,0.1877471,0.1612232,0.1218785,0.1245676,0.1531028,0.184666,0.1846496,0.1740068,0.1726976,0.167062,0.1691311,0.1779653,0.1707967,0.1485621,0.1265125,0.1126509,0.09615272,0.07110101,0.06156699,0.0528082,0.04869655,0.04686735,0.04529461,0.04417836,0.04154674,0.03697352,0.03123054,0.02588819,0.0228194,0.02040391,0.01483491,0.01268535,0.01112286,0.01050179,0.009522662,0.008756518,0.007709162,0.006836368,0.005951719,0.005134199,0.004357015,0.003701354,0.003814495,0.00402215,0.004423621,0.003485343,NGAsubRSN4022988_TKCH01EW2.AT2,NGAsubRSN4022988_TKCH01NS2.AT2,NGAsubRSN4022988_TKCH01UD2.AT2
4022989,4000068,4000648,8.29,20,90,85.5043593,63.281241,178.8114128,180.5520048,150.37,-999,440.7,-999,-999,-999,99,99,-999,0.16824,20.375,21.698,0.1688257,0.1705393,0.1710467,0.1719906,0.1724899,0.1729921,0.1748524,0.1765577,0.1776873,0.1814588,0.1809356,0.1833788,0.1839919,0.183439,0.1822046,0.1867339,0.1880825,0.1929316,0.2043849,0.2051217,0.2184076,0.2331384,0.2656967,0.2909659,0.3470055,0.3674386,0.3542187,0.3245725,0.3770618,0.4902122,0.5414935,0.5412462,0.4629717,0.5299889,0.5300704,0.4276735,0.448887,0.4120743,0.4192616,0.4353983,0.378074,0.3270881,0.2640603,0.2681323,0.2799693,0.2238217,0.2138612,0.195613,0.172593,0.1633625,0.1810588,0.1863355,0.1692606,0.1532755,0.1444617,0.1391522,0.1232824,0.1340575,0.1651601,0.1412819,0.1468578,0.1738972,0.1634647,0.1529801,0.1708046,0.1974995,0.1586215,0.1337275,0.1210399,0.1166773,0.1136941,0.1144916,0.1181983,0.1199407,0.1127828,0.1054849,0.1000188,0.1033846,0.1058332,0.09561298,0.09278835,0.09273052,0.09006131,0.08175289,0.07060099,0.06267109,0.0595674,0.0564217,0.04996707,0.0433463,0.03807791,0.03397148,0.03205711,0.03000738,0.02817407,0.02598662,0.0224612,0.01960452,0.01815819,0.01615389,0.01373521,0.0117602,0.01003872,0.008649505,0.007606727,0.00613256,0.005265509,0.005361253,0.005581618,0.005398889,0.003707978,NGAsubRSN4022989_TKCH02EW2.AT2,NGAsubRSN4022989_TKCH02NS2.AT2,NGAsubRSN4022989_TKCH02UD2.AT2
4022990,4000068,4000649,8.29,20,90,91.7013893,71.4329391,174.0805835,175.8680035,165.4,-999,372.4,-999,-999,-999,99,99,-999,0.15054,15.923,24.178,0.1515092,0.1543946,0.1552366,0.1563977,0.1583919,0.1592814,0.1595194,0.1639773,0.1637697,0.1682766,0.1705319,0.1718739,0.1742745,0.1766671,0.1789099,0.1809051,0.2029988,0.232115,0.242624,0.262121,0.2863594,0.2598129,0.2598007,0.2916731,0.3171494,0.2923468,0.297157,0.3255107,0.4118141,0.4268178,0.4197362,0.4093613,0.4025472,0.4791866,0.4894351,0.4302643,0.4359143,0.3814989,0.3660391,0.3474406,0.3370833,0.3306016,0.3389944,0.3338144,0.2991843,0.2506642,0.289935,0.2977653,0.2857727,0.2658803,0.2809344,0.2582224,0.2165492,0.2065214,0.2133619,0.2045946,0.1986393,0.2010038,0.1679411,0.1375344,0.1457934,0.1692077,0.1574397,0.1547953,0.1833274,0.1752019,0.1371915,0.111288,0.101381,0.0943904,0.08148436,0.08580927,0.07194299,0.07520255,0.07424205,0.06956898,0.06917986,0.06738374,0.07397347,0.06167829,0.06690949,0.07441746,0.07857779,0.06236701,0.05406993,0.06407797,0.0648057,0.06438537,0.06084069,0.05714935,0.05444523,0.05207244,0.04848943,0.04367972,0.03802034,0.02923309,0.02495928,0.0216034,0.01952519,0.01967703,0.01969054,0.01655491,0.01561864,0.01337634,0.01112492,0.008031239,0.006793275,0.006235648,0.006924728,0.007026414,0.00465106,NGAsubRSN4022990_TKCH03EW2.AT2,NGAsubRSN4022990_TKCH03NS2.AT2,NGAsubRSN4022990_TKCH03UD2.AT2
4024986,4000078,4000518,7.22,25,76,100.8609289,90.0389155,106.4655785,113.5693223,102.36,-999,849.8,-999,-999,-999,99,99,-999,0.26926,8.1837,6.1562,0.2711021,0.274793,0.2764151,0.281831,0.2991199,0.3043541,0.3017895,0.3121718,0.3155222,0.3152752,0.3234157,0.3511126,0.3625065,0.3708866,0.3678675,0.3804324,0.4197389,0.4471736,0.5255039,0.5753022,0.6626583,0.7882672,1.066214,1.132182,1.033942,1.012322,0.9738399,1.019152,0.9533748,0.6271912,0.5500219,0.5164912,0.4961374,0.435647,0.4520963,0.4654398,0.4824944,0.4720579,0.4205479,0.3419647,0.3089895,0.2894379,0.3139964,0.2947816,0.2854513,0.2715231,0.2271327,0.2260653,0.2196166,0.1838765,0.1761582,0.1663325,0.1341457,0.1304275,0.1282592,0.1195154,0.1143366,0.09768328,0.08353123,0.07674711,0.07799079,0.07048564,0.065751,0.05166045,0.0460464,0.04041487,0.03863677,0.03788451,0.03124463,0.03109366,0.02696508,0.02702583,0.02827447,0.0248321,0.02224027,0.02184314,0.01846786,0.01593333,0.01262353,0.009803043,0.009156344,0.008845011,0.007946242,0.006940428,0.005783138,0.004791646,0.004426609,0.004166027,0.004155467,0.004073509,0.004063226,0.004251023,0.004217805,0.004011904,0.003688906,0.003288097,0.003009092,0.0025037,0.002028147,0.001833849,0.001581906,0.001264096,0.001019988,0.000894096,0.000785762,0.000593665,0.000479499,0.00040111,0.000355631,0.000331074,0.000263278,NGAsubRSN4024986_MYGH04W2.AT2,NGAsubRSN4024986_MYGH04S2.AT2,NGAsubRSN4024986_MYGH04D2.AT2
4024992,4000078,4001275,7.22,25,76,86.803827,73.9525775,87.9872259,96.461513,91.99,-999,859.2,-999,-999,-999,99,99,-999,0.38717,13.34,4.5503,0.3896802,0.4000024,0.4056531,0.4055087,0.4116496,0.4164051,0.4274734,0.436565,0.4545483,0.4820004,0.5007195,0.5134803,0.5082638,0.5134563,0.5614801,0.6110389,0.6414102,0.6265025,0.7017066,0.7482294,0.7689329,0.766418,0.8559923,1.048463,1.178546,1.368721,1.575694,1.41186,1.539587,1.189484,1.1675,1.180367,1.30516,1.277406,1.063454,0.8685217,0.7880568,0.696584,0.5890226,0.5178058,0.4899397,0.4965177,0.5957334,0.5607473,0.5273744,0.5272036,0.5459743,0.5243763,0.4746083,0.4181684,0.3842265,0.3484037,0.3280789,0.3260655,0.3237957,0.312888,0.2921583,0.2612535,0.2044638,0.1700931,0.1617676,0.1527941,0.154395,0.1492892,0.1267517,0.1207881,0.08488309,0.07100742,0.07013211,0.09271403,0.07451011,0.04966111,0.05431945,0.04599632,0.03573992,0.02834649,0.02272357,0.02142983,0.01805118,0.0138638,0.01323252,0.01246299,0.01171055,0.009667932,0.008908071,0.008303273,0.008286205,0.008371598,0.008512096,0.008190316,0.007550012,0.006662752,0.005771543,0.005210716,0.004865657,0.00454147,0.004058256,0.003520494,0.002934795,0.002231186,0.001682069,0.001450573,0.001238772,0.001072862,0.000954992,0.000803442,0.000679275,0.000615283,0.000555841,0.000518305,0.000315089,NGAsubRSN4024992_MYGH11W2.AT2,NGAsubRSN4024992_MYGH11S2.AT2,NGAsubRSN4024992_MYGH11D2.AT2
4028438,4000068,4000728,8.29,20,90,182.7023976,173.4176637,245.7960638,247.065194,121.63,-999,293.4,-999,-999,-999,99,99,-999,0.063898,10.466,9.2324,0.06398328,0.06428169,0.064396,0.06436445,0.06466026,0.06479594,0.06504378,0.0648526,0.06441034,0.06588659,0.06668977,0.0676192,0.06793825,0.06873204,0.0708338,0.07230949,0.07352496,0.07171845,0.07210907,0.07285199,0.07466714,0.07685096,0.07797974,0.0807046,0.08642325,0.09188581,0.09255364,0.08932944,0.09971841,0.1097018,0.1168174,0.1213577,0.1169704,0.1152363,0.1337794,0.1308904,0.1484585,0.1453755,0.17419,0.2040304,0.2081862,0.1929033,0.1850447,0.1653975,0.1578974,0.1603849,0.1661074,0.1514213,0.1356228,0.1441948,0.1276822,0.1398486,0.1341583,0.1301928,0.1349383,0.1566675,0.1649213,0.14983,0.1569205,0.1735578,0.1813747,0.1429037,0.1176562,0.1447153,0.1517307,0.1408985,0.1114105,0.09291355,0.0876312,0.09537533,0.08897442,0.07927907,0.07888018,0.08436055,0.07978055,0.07395303,0.06470288,0.05692545,0.05036451,0.05569011,0.06345898,0.07144507,0.07495911,0.06523287,0.05180282,0.04162744,0.03481005,0.03158987,0.02830178,0.03168014,0.03178667,0.03069331,0.03180463,0.03305452,0.03099237,0.02262453,0.01937605,0.0146147,0.01168645,0.01114066,0.008685772,0.007881722,0.006082306,0.004904315,0.004229515,0.003665329,0.00358272,0.002843504,0.002246494,0.001887081,0.001869976,NGAsubRSN4028438_AOM005-EW.AT2,NGAsubRSN4028438_AOM005-NS.AT2,NGAsubRSN4028438_AOM005-UD.AT2
4028441,4000068,4000731,8.29,20,90,191.7693856,183.4134963,247.7485632,249.0077422,100.96,-999,373.6,-999,-999,-999,99,99,-999,0.052485,6.9314,7.8921,0.05263542,0.05317212,0.05336459,0.05356266,0.05391888,0.05404682,0.05405616,0.05480115,0.05514381,0.05707378,0.05858375,0.05933606,0.05884878,0.05923268,0.05999063,0.06220501,0.06804815,0.07544871,0.08261578,0.08786892,0.09311882,0.1032574,0.1007475,0.1007495,0.09640986,0.09688224,0.100263,0.09472212,0.1023243,0.1113826,0.1207205,0.1299536,0.1196478,0.1134594,0.1211643,0.1229041,0.1352092,0.1326957,0.1286309,0.1235745,0.104274,0.105997,0.1248744,0.1298506,0.1253844,0.1090011,0.1008074,0.09749412,0.1045621,0.1068827,0.1076678,0.09878381,0.09167247,0.09165178,0.08898332,0.08755852,0.0803964,0.08047497,0.08915842,0.09695165,0.09106448,0.08699086,0.07037672,0.06852993,0.07510514,0.06686111,0.06094823,0.05942892,0.04727615,0.0537552,0.05893806,0.06827048,0.05892042,0.04635037,0.04254021,0.04005129,0.03440888,0.02785531,0.02566439,0.02732947,0.02658033,0.0318191,0.03924899,0.03469091,0.04079603,0.0364201,0.03349323,0.03070467,0.02435928,0.02113585,0.01874105,0.01988848,0.02053012,0.02013339,0.01738446,0.01572767,0.01433624,0.01307081,0.01194532,0.009118292,0.006977822,0.006153032,0.005353929,0.004211253,0.003685538,0.00306888,0.002393945,0.002205135,0.001943286,0.00142072,0.001493336,NGAsubRSN4028441_AOM008-EW.AT2,NGAsubRSN4028441_AOM008-NS.AT2,NGAsubRSN4028441_AOM008-UD.AT2
4028544,4000068,4000869,8.29,20,90,180.0828649,170.6556716,275.6271917,276.7595597,142.84,-999,301.5,-999,-999,-999,99,99,-999,0.10809,8.9004,6.2523,0.10826,0.1087446,0.1089478,0.1092674,0.1101042,0.1103074,0.1101329,0.1105005,0.1107861,0.1116475,0.1124136,0.1134803,0.1140763,0.1145481,0.1155246,0.1165248,0.1191377,0.1202441,0.1182696,0.1186664,0.1195556,0.120219,0.1217143,0.1241399,0.1288711,0.1347369,0.1394017,0.1452126,0.1389846,0.1564234,0.1624551,0.1671521,0.1806347,0.1972736,0.2375296,0.2562605,0.2603297,0.3390704,0.3603134,0.4210182,0.4262159,0.440281,0.5547333,0.5761535,0.5257092,0.5344112,0.3724907,0.3065274,0.2680379,0.2201079,0.165721,0.1337756,0.1173039,0.1226591,0.1330986,0.1337433,0.1197551,0.105336,0.1055562,0.0822405,0.07672458,0.0802704,0.06694847,0.05284858,0.05025443,0.05823024,0.05310246,0.05199397,0.04037053,0.03967975,0.04856298,0.0583837,0.0526201,0.04921831,0.04247136,0.04100339,0.03424681,0.03014404,0.03034022,0.03425369,0.03254685,0.03317923,0.03441162,0.03772549,0.03916742,0.03462055,0.02885043,0.02376562,0.01768557,0.01504933,0.01519951,0.01450816,0.0124334,0.01164291,0.01019882,0.007481827,0.007257618,0.006549387,0.005821025,0.005528735,0.004546748,0.003955805,0.003420062,0.003327361,0.00354593,0.002779347,0.003102408,0.002883763,0.00244215,0.002063715,0.001135727,NGAsubRSN4028544_HKD063-EW.AT2,NGAsubRSN4028544_HKD063-NS.AT2,NGAsubRSN4028544_HKD063-UD.AT2
