Record Sequence Number,EQID,SSN,Earthquake Magnitude,Dip (deg),Rake Angle (deg),ClstD (km),Rjb (km),Repi (km),Rhyp (km),Rx,Source to Site Azimuth (deg),Preferred Vs30,GMX_C1,GMX_C2,GMX_C3,Dur,AI,minFreq,PGA (g),PGV (cm/sec),PGD (cm),T0.010s,T0.020s,T0.022s,T0.025s,T0.029s,T0.030s,T0.032s,T0.035s,T0.036s,T0.040s,T0.042s,T0.044s,T0.045s,T0.046s,T0.048s,T0.050s,T0.055s,T0.060s,T0.065s,T0.067s,T0.070s,T0.075s,T0.080s,T0.085s,T0.090s,T0.095s,T0.100s,T0.110s,T0.120s,T0.130s,T0.133s,T0.140s,T0.150s,T0.160s,T0.170s,T0.180s,T0.190s,T0.200s,T0.220s,T0.240s,T0.250s,T0.260s,T0.280s,T0.290s,T0.300s,T0.320s,T0.340s,T0.350s,T0.360s,T0.380s,T0.400s,T0.420s,T0.440s,T0.450s,T0.460s,T0.480s,T0.500s,T0.550s,T0.600s,T0.650s,T0.667s,T0.700s,T0.750s,T0.800s,T0.850s,T0.900s,T0.950s,T1.000s,T1.100s,T1.200s,T1.300s,T1.400s,T1.500s,T1.600s,T1.700s,T1.800s,T1.900s,T2.000s,T2.200s,T2.400s,T2.500s,T2.600s,T2.800s,T3.000s,T3.200s,T3.400s,T3.500s,T3.600s,T3.800s,T4.000s,T4.200s,T4.400s,T4.600s,T4.800s,T5.000s,T5.500s,T6.000s,T6.500s,T7.000s,T7.500s,T8.000s,T8.500s,T9.000s,T9.500s,T10.000s,T11.000s,T12.000s,T13.000s,T14.000s,T15.000s,T20.000s,File Name (Horizontal 1),File Name (Horizontal 2),File Name (Vertical)
2000034,2000004,2000095,6.8,70,-91,80.3859486,61.4005142,72.6600695,90.0391898,42.85,-999,228,-999,-999,-999,99,99,-999,0.096895,10.227,2.9523,0.09698591,0.09731717,0.09748636,0.09828093,0.09880854,0.09868766,0.09797601,0.09823303,0.09862144,0.09931079,0.0991529,0.099605,0.09963039,0.09936287,0.09918077,0.09991973,0.09842734,0.1003025,0.09946005,0.1036337,0.1080678,0.1066255,0.111693,0.1156169,0.1127005,0.1222965,0.1215407,0.148762,0.1393308,0.1569934,0.1546208,0.1699544,0.2093383,0.2559305,0.2608567,0.2800454,0.2786648,0.264677,0.2934859,0.2804219,0.291528,0.2957346,0.2408972,0.2366765,0.2329637,0.2164044,0.177225,0.1735134,0.1707086,0.192641,0.2276065,0.2480246,0.238818,0.2141009,0.2133974,0.2023342,0.2000423,0.2366126,0.2594018,0.2097221,0.2089878,0.2034931,0.1449719,0.1309586,0.1311373,0.1371025,0.1418652,0.1471669,0.1539647,0.1320828,0.1076117,0.08617629,0.07523137,0.06597353,0.06698431,0.07264999,0.07264591,0.06673125,0.04477766,0.0296318,0.02619714,0.02206405,0.01655721,0.0126254,0.01086971,0.01039545,0.009732158,0.009502281,0.008746153,0.009049638,0.009311175,0.007926397,0.007857515,0.007132347,0.007435478,0.006280822,0.005522934,0.003775382,0.00335141,0.003346386,0.00351525,0.003444392,0.003206538,0.002702989,0.002493486,0.001722653,0.001226304,0.001031694,0.000846492,0.000746586,0.000420722,NGAsubRSN2000034_BRKSENN.AT2,NGAsubRSN2000034_BRKSENE.AT2,NGAsubRSN2000034_BRKSENZ.AT2
2000036,2000004,2000097,6.8,70,-91,88.7112818,70.1526963,80.615712,96.5736145,60.7,-999,506,-999,-999,-999,99,99,-999,0.058437,5.5746,2.3944,0.05851999,0.05877659,0.05882957,0.0594254,0.06003028,0.05995547,0.06020761,0.06120137,0.06161098,0.06297831,0.06278276,0.06373291,0.06417049,0.06406097,0.06422363,0.06677052,0.07318947,0.07467752,0.07716629,0.08115829,0.0830317,0.08467668,0.09008294,0.1013359,0.1050894,0.1056287,0.1207389,0.1502527,0.1385954,0.1313719,0.1419361,0.1511091,0.1622901,0.1767622,0.1788122,0.2057312,0.1910518,0.1831887,0.1912592,0.2120414,0.1850302,0.1533195,0.1362321,0.1233984,0.118506,0.1297647,0.1271572,0.1279674,0.1328156,0.1526821,0.1601126,0.1446996,0.1328019,0.1327545,0.137969,0.1498586,0.146141,0.1091383,0.1142153,0.09837779,0.09311861,0.08333869,0.06894871,0.05792654,0.05434889,0.06364245,0.06682439,0.06185215,0.05014387,0.04231619,0.03638208,0.03448174,0.04214005,0.0356523,0.03725096,0.04393372,0.04246484,0.03638175,0.02815592,0.01680026,0.01583166,0.01465432,0.01330366,0.01031943,0.009650907,0.008775774,0.008111716,0.007677035,0.007975995,0.007184651,0.006750634,0.006382292,0.006273136,0.005835581,0.005856488,0.00608519,0.005524774,0.005023601,0.004692667,0.004132135,0.00328442,0.002620783,0.002187547,0.001796511,0.001481604,0.00131639,0.001127775,0.000858316,0.000672263,0.000580693,0.000295625,NGAsubRSN2000036_EARNENN.AT2,NGAsubRSN2000036_EARNENE.AT2,NGAsubRSN2000036_EARNENZ.AT2
2000037,2000004,2000098,6.8,70,-91,84.4365506,63.7510641,71.4486924,89.0645027,68.84,-999,438,-999,-999,-999,99,99,-999,0.055212,3.6991,1.2781,0.05545119,0.05630673,0.05673784,0.05810268,0.05832146,0.05841214,0.05837572,0.06108685,0.06099206,0.06158352,0.06608107,0.07543518,0.07889268,0.07840309,0.07595763,0.07737069,0.0936498,0.1079032,0.1398578,0.1401612,0.1191259,0.1142665,0.1234833,0.1507838,0.1740683,0.1875049,0.1699622,0.1578106,0.1629841,0.1674528,0.1672381,0.1630175,0.1475396,0.1342376,0.1479786,0.1519775,0.1424559,0.124949,0.1046318,0.101062,0.1098426,0.1162102,0.1081229,0.09606607,0.09308496,0.09436503,0.0916844,0.08697729,0.09302422,0.1090203,0.1216575,0.1169999,0.1203553,0.1177381,0.1187763,0.1388454,0.1413392,0.1039748,0.09007116,0.08238565,0.07737049,0.07795038,0.07283679,0.07129969,0.06306475,0.05828574,0.05182663,0.04992564,0.04575467,0.04701112,0.0396826,0.02900183,0.02238164,0.02443944,0.02590238,0.02379432,0.02038183,0.01845323,0.01472421,0.01011645,0.009899583,0.008831228,0.007453878,0.006601694,0.005886401,0.004838225,0.004405388,0.00395163,0.003107964,0.00283042,0.00275612,0.002785802,0.002741962,0.002879347,0.002994633,0.002959515,0.00290804,0.002592864,0.002195481,0.001753169,0.001485334,0.001324386,0.001175521,0.001106065,0.001031345,0.000880803,0.000735515,0.000596716,0.000471419,0.000400519,0.000229221,NGAsubRSN2000037_ELWENN.AT2,NGAsubRSN2000037_ELWENE.AT2,NGAsubRSN2000037_ELWENZ.AT2
2000041,2000004,2000102,6.8,70,-91,64.0054724,39.4433294,50.5662121,73.3792327,32.34,-999,348,-999,-999,-999,99,99,-999,0.092498,7.6518,3.0126,0.09261226,0.09294604,0.09314364,0.09337009,0.09341528,0.09324668,0.09361568,0.09363643,0.0935496,0.09445708,0.09432632,0.09375608,0.09415121,0.09471293,0.09696715,0.09807277,0.09805517,0.09577404,0.1009759,0.1021055,0.09807885,0.09985403,0.1067321,0.1148832,0.1115324,0.1157712,0.1183544,0.1344241,0.1653493,0.1984215,0.2181072,0.2450233,0.2485939,0.2463003,0.2591136,0.2653136,0.2866074,0.2819778,0.2264319,0.2237935,0.2224863,0.240174,0.247254,0.2460742,0.2728062,0.2778463,0.2640981,0.2367364,0.2144666,0.1805862,0.1837615,0.2175555,0.2225341,0.2101841,0.1979809,0.1684553,0.1792461,0.1998284,0.2346801,0.2028331,0.1790298,0.1396255,0.1006555,0.09361223,0.0940624,0.0858978,0.08452927,0.08985227,0.08889977,0.103594,0.09761894,0.08527295,0.07680956,0.06628587,0.05679698,0.04663093,0.04254652,0.03651127,0.02905008,0.02227847,0.0206033,0.02062896,0.01540653,0.01361863,0.01230445,0.009415524,0.008730984,0.008112362,0.00729898,0.006831293,0.006216665,0.005663408,0.005241891,0.005135279,0.005044488,0.004191006,0.003702129,0.003535018,0.003363389,0.003002893,0.002735561,0.002565813,0.002457798,0.002139313,0.002014076,0.001530504,0.001205742,0.001020427,0.000868837,0.000728446,0.000420404,NGAsubRSN2000041_HOLYENN.AT2,NGAsubRSN2000041_HOLYENE.AT2,NGAsubRSN2000041_HOLYENZ.AT2
2000042,2000004,2000103,6.8,70,-91,172.0827332,165.784469,179.4919762,187.2029367,-44.98,-999,233,-999,-999,-999,99,99,-999,0.013942,2.1166,0.65742,0.01396844,0.01402563,0.01404882,0.01409413,0.01412908,0.01414425,0.01418199,0.01422118,0.01423609,0.01430209,0.01436084,0.01440584,0.01443116,0.0144417,0.01447972,0.01455484,0.01478396,0.0149326,0.01494201,0.01478756,0.01530457,0.01577527,0.01602796,0.01613114,0.01661616,0.01718246,0.01780722,0.02031298,0.02227995,0.02509318,0.02467303,0.02213073,0.02327966,0.02804358,0.03182529,0.03581367,0.03648542,0.03368833,0.02816277,0.03270594,0.03806793,0.04463591,0.03376016,0.02926875,0.02931899,0.02710598,0.03161153,0.03110829,0.02880241,0.02724689,0.03019334,0.03485313,0.03819044,0.03747629,0.03940003,0.03921671,0.03398676,0.0289969,0.02655427,0.02578007,0.02535546,0.02478596,0.02982868,0.03668499,0.03399838,0.02960997,0.02477312,0.01965932,0.02006601,0.02226278,0.02157898,0.02040949,0.02302541,0.02387515,0.02497939,0.0256456,0.02656346,0.02806537,0.0216212,0.01844201,0.01507197,0.0125614,0.01056803,0.008188243,0.006996122,0.005474333,0.005100336,0.004726777,0.003795818,0.003168869,0.002535189,0.002090966,0.00179122,0.001759231,0.001696129,0.001586315,0.001223846,0.000864637,0.000716152,0.000595434,0.000564677,0.000488316,0.000410743,0.000391906,0.000355298,0.000256466,0.000213076,0.000166983,0.000137545,0.000127355,6.69E-05,NGAsubRSN2000042_KEELENN.AT2,NGAsubRSN2000042_KEELENE.AT2,NGAsubRSN2000042_KEELENZ.AT2
2000049,2000004,2000110,6.8,70,-91,87.6044822,69.2470418,80.0567846,96.1075374,55.9,-999,420,-999,-999,-999,99,99,-999,0.064716,5.7704,2.3416,0.06486588,0.06554046,0.06586679,0.06704281,0.06563023,0.06589039,0.06621481,0.06637039,0.06701718,0.06719819,0.06765268,0.06832288,0.06900349,0.06950569,0.07008728,0.07088091,0.07218844,0.0708277,0.07068443,0.07368609,0.07629405,0.07979699,0.08603477,0.0864724,0.08961608,0.09088589,0.09310663,0.1112552,0.1261229,0.1616849,0.1641041,0.1501395,0.1618335,0.2116212,0.2417347,0.2529681,0.2467922,0.2178276,0.1693727,0.1522593,0.1390617,0.1495105,0.1693706,0.1646197,0.1667631,0.161688,0.1499082,0.1446582,0.1423336,0.1491996,0.1484804,0.1365192,0.1125665,0.1053755,0.0949007,0.1026944,0.1041973,0.09189295,0.07753529,0.0720912,0.06750906,0.06696092,0.06560155,0.05992342,0.06068468,0.05408507,0.05556635,0.0575989,0.06581792,0.05437859,0.04347575,0.04310216,0.04946395,0.05108158,0.04429099,0.03844634,0.03404913,0.03649012,0.02612385,0.0168786,0.01436809,0.01318669,0.01056654,0.008382696,0.007886644,0.007287502,0.006904935,0.006985855,0.00716137,0.006561702,0.006894456,0.006609705,0.006751534,0.006338152,0.006090237,0.005896443,0.005273197,0.004767633,0.003764168,0.003478842,0.003250746,0.002711137,0.002193362,0.001819078,0.001539401,0.001483482,0.001092079,0.000883205,0.00071268,0.000596224,0.000319585,NGAsubRSN2000049_LEOTENN.AT2,NGAsubRSN2000049_LEOTENE.AT2,NGAsubRSN2000049_LEOTENZ.AT2
2000052,2000004,2000113,6.8,70,-91,47.3545477,3.5169528,9.9176731,54.0918684,10.7,-999,521,-999,-999,-999,99,99,-999,0.061304,5.0806,1.8926,0.06200579,0.06757598,0.06934133,0.09050272,0.1130111,0.1071422,0.1225682,0.1145902,0.1198559,0.1491085,0.1371618,0.1415163,0.141289,0.1312986,0.1326325,0.1277192,0.1349321,0.1315326,0.1389107,0.1563689,0.1659105,0.1500772,0.1453573,0.1332221,0.1453495,0.1397504,0.1639009,0.235488,0.2516491,0.2298361,0.2103703,0.2001498,0.1698561,0.1262177,0.1366452,0.1330097,0.1235895,0.1272259,0.1198889,0.1088028,0.109688,0.1003684,0.09582642,0.1008352,0.1072957,0.1091102,0.1091962,0.09664323,0.08926298,0.08245255,0.07797911,0.07321552,0.06729086,0.06485424,0.06430805,0.06616121,0.06209171,0.06736578,0.07166598,0.07037307,0.0753868,0.06858105,0.05473955,0.05808149,0.06205172,0.06520892,0.05572692,0.05494998,0.0538288,0.04767682,0.04664731,0.04405871,0.04570143,0.04496367,0.04049625,0.0426516,0.04016275,0.03760337,0.0356764,0.03134224,0.02723711,0.02219943,0.01615299,0.01124729,0.009380891,0.008675732,0.008070726,0.007783202,0.007115101,0.006879895,0.006647227,0.006285222,0.00598511,0.005283727,0.004777765,0.003802996,0.003042146,0.003193999,0.002795813,0.002539336,0.002263388,0.002079273,0.001738997,0.001522996,0.001397974,0.001031065,0.000792118,0.000655344,0.000528881,0.000430565,0.000209223,NGAsubRSN2000052_MURRENN.AT2,NGAsubRSN2000052_MURRENE.AT2,NGAsubRSN2000052_MURRENZ.AT2
2000053,2000004,2000114,6.8,70,-91,76.426361,55.9499597,66.9659049,85.5102474,44.15,-999,275,-999,-999,-999,99,99,-999,0.079837,10.305,4.1285,0.07988516,0.08004273,0.08010382,0.08023763,0.08034234,0.08046658,0.08065441,0.08060019,0.08075051,0.08088978,0.08117719,0.08118322,0.08109076,0.08098215,0.0814186,0.08188392,0.08425889,0.086398,0.08710022,0.08827846,0.08793988,0.09009768,0.08937185,0.08879278,0.08913165,0.09745838,0.1040038,0.1032184,0.1112916,0.1140224,0.1181289,0.1223091,0.1241484,0.1261646,0.1356971,0.1425323,0.1647514,0.1880628,0.2097328,0.1672823,0.1737567,0.1802381,0.1709486,0.1523474,0.1443498,0.1448577,0.165185,0.1772513,0.185826,0.1816775,0.1823817,0.1766435,0.177274,0.1863858,0.2006608,0.1921283,0.1827662,0.2195381,0.2008,0.1529651,0.1421647,0.1347506,0.1268613,0.1172133,0.1123482,0.1236807,0.1456882,0.1660963,0.1794891,0.1441979,0.1040459,0.09482676,0.08188978,0.08252028,0.06432987,0.05789419,0.04858118,0.04248093,0.03566733,0.02692363,0.02323851,0.01960082,0.01555116,0.01357139,0.01277539,0.01354643,0.01308732,0.01261971,0.01156869,0.01196125,0.01203696,0.01040631,0.009391012,0.009522852,0.00924513,0.007637443,0.008117937,0.009327319,0.00788521,0.006051663,0.004958138,0.004221309,0.003594958,0.003117234,0.003056991,0.002838419,0.002226856,0.001840021,0.001459229,0.00105454,0.000579154,NGAsubRSN2000053_NOWSENN.AT2,NGAsubRSN2000053_NOWSENE.AT2,NGAsubRSN2000053_NOWSENZ.AT2
2000054,2000004,2000115,6.8,70,-91,55.4491124,23.5849002,29.944792,61.02672,30.77,-999,375,-999,-999,-999,99,99,-999,0.19458,13.117,2.5085,0.1953856,0.1994413,0.2062061,0.2163848,0.211628,0.2159194,0.2149478,0.2190758,0.2175245,0.2093062,0.2070488,0.2201842,0.2250636,0.2262274,0.2298676,0.2328791,0.2484858,0.2573917,0.2459762,0.2563302,0.2745375,0.2933284,0.3285766,0.3538761,0.3913117,0.4548286,0.5036374,0.5257846,0.5816766,0.5629303,0.5798774,0.6301363,0.7154208,0.7591863,0.7125437,0.653222,0.6381673,0.5550829,0.4514078,0.4278346,0.4090696,0.3440124,0.3093051,0.3092975,0.3035192,0.2719611,0.3053289,0.3172611,0.3103127,0.272181,0.25388,0.2414664,0.2254145,0.2267492,0.2276422,0.2154142,0.2195124,0.2028057,0.1979493,0.2018745,0.1969601,0.1888465,0.1904532,0.1964362,0.2138214,0.2263828,0.2302617,0.2600615,0.2551192,0.197221,0.1309354,0.08398885,0.07296959,0.06338637,0.05801956,0.05842093,0.05378416,0.0500737,0.04213116,0.03287932,0.02874795,0.02601028,0.02294405,0.02076778,0.01687259,0.01238501,0.01151135,0.01067238,0.009077173,0.007885026,0.007463534,0.007127842,0.006398243,0.006512096,0.006312273,0.004972236,0.00401515,0.003444492,0.00292453,0.002444301,0.002105624,0.001821663,0.001546284,0.001382115,0.00120875,0.000960304,0.000813758,0.000685233,0.000578374,0.000492548,0.000261945,NGAsubRSN2000054_PCEPENN.AT2,NGAsubRSN2000054_PCEPENE.AT2,NGAsubRSN2000054_PCEPENZ.AT2
2000055,2000004,2000116,6.8,70,-91,49.8393361,12.7217458,25.9369269,59.163284,17.11,-999,437,-999,-999,-999,99,99,-999,0.12876,11.789,2.4573,0.1295318,0.1323457,0.1322216,0.1333084,0.1355179,0.1362315,0.1411793,0.1400426,0.1404263,0.1481586,0.1529263,0.1617999,0.1655338,0.1673124,0.1723546,0.1797269,0.1939653,0.2379154,0.3282821,0.3429787,0.3451088,0.3675446,0.3883604,0.3518516,0.3281984,0.329789,0.3237635,0.370295,0.3878192,0.3847406,0.3846705,0.3594159,0.3365264,0.3745201,0.4071884,0.3904591,0.382443,0.3395905,0.3008863,0.306383,0.3151045,0.3257256,0.3197446,0.3028208,0.3014084,0.2763896,0.3080037,0.3084862,0.3143418,0.3298973,0.2793634,0.2178203,0.1805366,0.1801975,0.177683,0.161239,0.1727672,0.2011541,0.1263461,0.1408821,0.155453,0.169004,0.1764436,0.1547588,0.1315529,0.1119489,0.1049438,0.111274,0.1075877,0.07828642,0.05523235,0.05114788,0.04917525,0.05214837,0.06145255,0.06892709,0.07506415,0.07553484,0.07298868,0.06673212,0.06184614,0.05807486,0.04432173,0.03228541,0.02477826,0.01950599,0.01742183,0.01573793,0.01282796,0.01043604,0.008522756,0.007127887,0.006346012,0.005776404,0.005299693,0.004338075,0.003583225,0.003006287,0.002583361,0.002264696,0.001997705,0.001762013,0.001550446,0.001357015,0.001223516,0.001042437,0.000957578,0.000876305,0.0007925,0.000710447,0.000397595,NGAsubRSN2000055_PCFRENN.AT2,NGAsubRSN2000055_PCFRENE.AT2,NGAsubRSN2000055_PCFRENZ.AT2
2000062,2000004,2000123,6.8,70,-91,159.3814469,152.5597218,166.3116096,174.605617,-24.57,-999,333,-999,-999,-999,99,99,-999,0.018959,1.2602,0.39332,0.01900613,0.01915538,0.01919748,0.01927722,0.01942327,0.01946123,0.01956544,0.01966501,0.01972191,0.02028199,0.0203634,0.02066798,0.02095611,0.02129848,0.02189704,0.02195787,0.02302961,0.02361724,0.02297264,0.02163037,0.02223219,0.02372734,0.0257184,0.02433962,0.02535571,0.02656482,0.02927062,0.02870842,0.03943432,0.04474109,0.04592116,0.04596335,0.04286995,0.04986835,0.04533197,0.04567965,0.04704999,0.05719107,0.05437797,0.05319866,0.05046476,0.05149596,0.05543805,0.05958452,0.06176829,0.07044894,0.07475752,0.07564138,0.07570911,0.0669737,0.05899232,0.0573282,0.05175587,0.0490694,0.04993435,0.04968124,0.04470276,0.03800771,0.02759884,0.02418205,0.02162292,0.01774823,0.0159815,0.01472659,0.01241749,0.01416992,0.0154206,0.01360805,0.009358986,0.008599852,0.009167029,0.009098562,0.00799754,0.007095107,0.007503004,0.007521029,0.007384627,0.007166458,0.006492692,0.006822526,0.006655538,0.00657919,0.006637744,0.00692656,0.00668989,0.006322892,0.005450895,0.004542858,0.003345799,0.002391718,0.001665191,0.001494872,0.001360992,0.001208681,0.001133395,0.000828083,0.000697599,0.00056746,0.000438639,0.000351652,0.000283871,0.000269271,0.000247285,0.000215003,0.000181957,0.000134866,0.000121794,0.0001008,8.73E-05,7.57E-05,4.10E-05,NGAsubRSN2000062_ROSSENN.AT2,NGAsubRSN2000062_ROSSENE.AT2,NGAsubRSN2000062_ROSSENZ.AT2
2000063,2000004,2000124,6.8,70,-91,80.2013928,65.6070615,68.8138819,86.9650524,-65.61,-999,455,-999,-999,-999,99,99,-999,0.06749,5.7204,1.8397,0.06765949,0.06817426,0.06832504,0.06857818,0.06897385,0.06907433,0.06929206,0.06968106,0.06982201,0.07043825,0.07075046,0.07107721,0.0712586,0.07146818,0.07193292,0.07175363,0.07247576,0.0726288,0.07623744,0.07756291,0.08028523,0.083043,0.08449855,0.08624893,0.09007072,0.09764767,0.1073795,0.1331236,0.1464107,0.1241733,0.1251457,0.1247305,0.1395172,0.1449953,0.1661474,0.2100704,0.225949,0.2070926,0.2185468,0.2995902,0.2990562,0.2695016,0.2508505,0.2360363,0.2240767,0.1999958,0.2204912,0.2283114,0.218008,0.195594,0.1920843,0.1938103,0.1564936,0.1492597,0.1479945,0.1532351,0.1390507,0.1302027,0.1208574,0.1151778,0.1160142,0.1201462,0.1361258,0.1273045,0.1104165,0.1030339,0.08465847,0.07138117,0.06784339,0.05432795,0.05667735,0.06424243,0.05286136,0.03932398,0.03445731,0.04440879,0.0424317,0.0333914,0.02637884,0.01782127,0.01591239,0.0155492,0.01531205,0.0148284,0.0116203,0.009178572,0.008261426,0.007744022,0.007696473,0.007089191,0.006534345,0.005628301,0.005478906,0.00521671,0.005067096,0.003909536,0.002986394,0.002237772,0.001892935,0.001635492,0.001614355,0.001643002,0.00156228,0.001427144,0.001295725,0.001074445,0.000818127,0.000708914,0.000626452,0.000549356,0.000309035,NGAsubRSN2000063_RWWSNN.AT2,NGAsubRSN2000063_RWWSNE.AT2,NGAsubRSN2000063_RWWSNZ.AT2
2000065,2000004,2000126,6.8,70,-91,68.3181154,44.5656841,54.9631197,76.4755812,42.11,-999,453,-999,-999,-999,99,99,-999,0.25623,16.53,2.7355,0.2566583,0.2581911,0.2588094,0.259201,0.2589401,0.2587381,0.2606957,0.2616901,0.2615343,0.2633813,0.2619885,0.2612961,0.262795,0.2647544,0.2686559,0.2729944,0.2766531,0.2710476,0.2774955,0.278992,0.2785294,0.2736512,0.2742711,0.2775159,0.2768463,0.2795635,0.3018717,0.3172446,0.3553186,0.3632196,0.3502648,0.3252117,0.4056058,0.4182847,0.3899234,0.3816665,0.4320749,0.4930456,0.6036038,0.5717054,0.615849,0.702382,1.028684,1.155537,1.215093,1.090619,0.8897706,0.840923,0.8440526,0.7790608,0.7307208,0.6554481,0.624734,0.582763,0.53456,0.4749947,0.4729815,0.4951097,0.3907727,0.3558479,0.3313995,0.2653449,0.2289223,0.2057742,0.1864402,0.1616027,0.1394217,0.1222143,0.1240922,0.1218695,0.09405909,0.07524467,0.06931561,0.07907055,0.08275191,0.07483031,0.06677713,0.05856908,0.03874869,0.02791343,0.02433602,0.02113032,0.01656202,0.01386109,0.01203448,0.01064981,0.0100532,0.009507083,0.008570516,0.007785418,0.007280244,0.006961408,0.006633329,0.006294707,0.005937216,0.004942074,0.004387223,0.003933013,0.003209016,0.002658333,0.002474121,0.002293608,0.002111436,0.002006907,0.001848479,0.001512068,0.001248315,0.001038798,0.00087642,0.000767798,0.000450602,NGAsubRSN2000065_SP2ENN.AT2,NGAsubRSN2000065_SP2ENE.AT2,NGAsubRSN2000065_SP2ENZ.AT2
