Record Sequence Number,EQID,SSN,Earthquake Magnitude,Dip (deg),Rake Angle (deg),ClstD (km),Rjb (km),Repi (km),Rhyp (km),Rx,Source to Site Azimuth (deg),Preferred Vs30,GMX_C1,GMX_C2,GMX_C3,Dur,AI,minFreq,PGA (g),PGV (cm/sec),PGD (cm),T0.010s,T0.020s,T0.022s,T0.025s,T0.029s,T0.030s,T0.032s,T0.035s,T0.036s,T0.040s,T0.042s,T0.044s,T0.045s,T0.046s,T0.048s,T0.050s,T0.055s,T0.060s,T0.065s,T0.067s,T0.070s,T0.075s,T0.080s,T0.085s,T0.090s,T0.095s,T0.100s,T0.110s,T0.120s,T0.130s,T0.133s,T0.140s,T0.150s,T0.160s,T0.170s,T0.180s,T0.190s,T0.200s,T0.220s,T0.240s,T0.250s,T0.260s,T0.280s,T0.290s,T0.300s,T0.320s,T0.340s,T0.350s,T0.360s,T0.380s,T0.400s,T0.420s,T0.440s,T0.450s,T0.460s,T0.480s,T0.500s,T0.550s,T0.600s,T0.650s,T0.667s,T0.700s,T0.750s,T0.800s,T0.850s,T0.900s,T0.950s,T1.000s,T1.100s,T1.200s,T1.300s,T1.400s,T1.500s,T1.600s,T1.700s,T1.800s,T1.900s,T2.000s,T2.200s,T2.400s,T2.500s,T2.600s,T2.800s,T3.000s,T3.200s,T3.400s,T3.500s,T3.600s,T3.800s,T4.000s,T4.200s,T4.400s,T4.600s,T4.800s,T5.000s,T5.500s,T6.000s,T6.500s,T7.000s,T7.500s,T8.000s,T8.500s,T9.000s,T9.500s,T10.000s,T11.000s,T12.000s,T13.000s,T14.000s,T15.000s,T20.000s,File Name (Horizontal 1),File Name (Horizontal 2),File Name (Vertical)
3000098,3000038,3000048,6.51,80,122,130.2338708,107.5389995,110.771707,136.0564995,-102.81,-999,568,-999,-999,-999,99,99,-999,0.12547,4.4272,0.9927,0.1287262,0.13214,0.1323938,0.1304131,0.1391685,0.1383656,0.135666,0.1398353,0.1386769,0.1391699,0.1426557,0.1451351,0.1456357,0.1475508,0.155787,0.1679704,0.1730139,0.1848321,0.1800431,0.1782721,0.1736042,0.1816649,0.1922887,0.2250898,0.2581125,0.2645507,0.278706,0.3453175,0.4480182,0.447098,0.430158,0.4652565,0.504316,0.5231684,0.5416822,0.5999151,0.6466342,0.6080872,0.3962833,0.2259945,0.1791339,0.172006,0.1802509,0.1683834,0.1425589,0.1043704,0.08153892,0.07140982,0.06556705,0.06738146,0.06527431,0.07437669,0.07437449,0.07108485,0.06908921,0.0671557,0.05957481,0.04343687,0.03287407,0.03425875,0.03364589,0.03721995,0.04099996,0.04552985,0.0436157,0.03626955,0.0350496,0.03222221,0.0257412,0.02865522,0.02706687,0.0228932,0.01825863,0.01456373,0.01225929,0.01176412,0.009580301,0.009464256,0.007682392,0.007365181,0.006722351,0.006189244,0.005592395,0.004554344,0.003957129,0.003532158,0.003440454,0.003325605,0.003423502,0.003638375,0.003430553,0.003121958,0.002950226,0.002927897,0.003055329,0.002911623,0.002914038,0.002393036,0.001956626,0.001571739,0.001275614,0.001116216,0.000933837,0.000767497,0.000631676,0.000448052,0.000345427,0.000284674,0.000244115,0.000213372,0.000117536,NGAsubRSN3000098_3567E-W.AT2,NGAsubRSN3000098_3567N-S.AT2,NGAsubRSN3000098_3567--V.AT2
3000099,3000038,3000022,6.51,80,122,114.9990304,84.080029,89.355975,119.2706597,86.42,-999,519,-999,-999,-999,99,99,-999,0.020017,2.6728,1.2645,0.0208286,0.02123546,0.02169842,0.02105257,0.02141291,0.02129205,0.02175245,0.02209753,0.02244348,0.02337393,0.02369115,0.02551059,0.02604603,0.02662271,0.02838068,0.02826817,0.03212639,0.03411487,0.03681662,0.04019007,0.04516663,0.05009458,0.05837653,0.06510481,0.06141492,0.05877972,0.05914172,0.06376291,0.0554944,0.06333291,0.06549767,0.05539937,0.04339557,0.03659334,0.03583718,0.03125609,0.02885789,0.0272784,0.03269127,0.03236495,0.03538642,0.03541042,0.03344247,0.03132335,0.02981101,0.03419434,0.03586224,0.03353972,0.03095251,0.03075745,0.03583071,0.04529496,0.05055049,0.0503658,0.04902335,0.04397181,0.03889124,0.02770924,0.02242919,0.01939538,0.01789398,0.0154288,0.01485237,0.01514295,0.0165408,0.02037575,0.0249893,0.02655609,0.02294469,0.02076068,0.01749281,0.02176434,0.02524295,0.02165367,0.02012089,0.01801956,0.01648815,0.0149201,0.0112394,0.009740294,0.009177588,0.008334098,0.007259266,0.00655442,0.006177463,0.006526763,0.006334165,0.006257893,0.006155304,0.005853144,0.005291003,0.005067119,0.00475859,0.00430208,0.004052705,0.003856387,0.003646026,0.003265044,0.002815484,0.002233386,0.001711824,0.001350746,0.001125062,0.000965773,0.000832413,0.000633766,0.000500981,0.000408981,0.000341649,0.000290221,0.000147187,NGAsubRSN3000099_3568E-W.AT2,NGAsubRSN3000099_3568N-S.AT2,NGAsubRSN3000099_3568--V.AT2
3000100,3000038,3000036,6.51,80,122,113.5014158,86.5236772,90.9880179,120.4982133,-76.07,-999,429,-999,-999,-999,99,99,-999,0.062187,5.5874,1.7892,0.06364776,0.06522473,0.06322905,0.06655641,0.06552272,0.06583066,0.07181704,0.0768114,0.07902303,0.08568667,0.08661853,0.08613019,0.08544713,0.08452667,0.08349188,0.08197445,0.08147967,0.07850509,0.08268704,0.08552539,0.08866253,0.09481107,0.1092464,0.1212433,0.1445714,0.1567843,0.1661806,0.1495792,0.1930579,0.1811272,0.1602632,0.1516601,0.161166,0.1557276,0.1636081,0.149044,0.1550358,0.1430473,0.1457506,0.1617969,0.1788098,0.1911067,0.1661213,0.1662191,0.1525039,0.1519869,0.133748,0.1171873,0.1098813,0.09742156,0.09898125,0.1009456,0.1060037,0.1106313,0.1117131,0.1002871,0.09751669,0.1062515,0.1049962,0.1008061,0.1020018,0.1182744,0.1300244,0.1160697,0.0920344,0.06785331,0.0672359,0.07530378,0.08682885,0.08117405,0.07839127,0.07447613,0.05116821,0.03759099,0.03476393,0.02859325,0.02133173,0.01811954,0.01506322,0.01390783,0.01291006,0.0113013,0.009450846,0.008296279,0.009609488,0.01031905,0.009947603,0.009080045,0.007250397,0.005603212,0.004766624,0.004431481,0.004560549,0.004363103,0.004226079,0.00421365,0.003584489,0.00255969,0.002595947,0.002366532,0.002131715,0.001712865,0.001476382,0.00127373,0.001117088,0.000883377,0.000700552,0.00061375,0.000531131,0.000441715,0.000240097,NGAsubRSN3000100_3570E-W.AT2,NGAsubRSN3000100_3570N-S.AT2,NGAsubRSN3000100_3570--V.AT2
3000101,3000038,3000039,6.51,80,122,96.1316586,57.5001266,61.6143254,100.1864517,61.99,-999,519,-999,-999,-999,99,99,-999,0.037909,4.0929,1.1208,0.03904792,0.03878881,0.03935254,0.0391597,0.03967853,0.03992326,0.04035486,0.04014282,0.04076464,0.04110299,0.04088109,0.04181699,0.04260305,0.04327401,0.04376295,0.04377369,0.04615388,0.04680843,0.04910562,0.04820257,0.04891794,0.05420326,0.05538763,0.06226163,0.06540798,0.06795018,0.06767338,0.07286816,0.06978195,0.07340001,0.07387565,0.07812431,0.085493,0.1050122,0.1128701,0.1166409,0.1080206,0.1060171,0.1116784,0.09787405,0.1009636,0.0937352,0.07269487,0.07321554,0.07454637,0.07038964,0.06682155,0.06780875,0.06232673,0.05317637,0.05321614,0.05489829,0.05484063,0.05546975,0.05778198,0.06282859,0.06313679,0.06334238,0.05843337,0.06055921,0.0615274,0.06938183,0.08896425,0.09889272,0.09689271,0.08784238,0.07753853,0.06770814,0.05852132,0.04721089,0.04447425,0.04004307,0.03638025,0.03289379,0.03071866,0.02838589,0.02500193,0.0226921,0.02091289,0.0165669,0.01413062,0.01250753,0.01131491,0.01065277,0.008393642,0.006480557,0.006027957,0.005690352,0.005181886,0.004617336,0.004207295,0.003714907,0.003637522,0.00354382,0.003251323,0.002466111,0.002054456,0.001595521,0.001423104,0.001231059,0.001044,0.000870356,0.000715777,0.000586534,0.000517967,0.000423784,0.000349253,0.00029734,0.000253112,0.000216362,0.000114939,NGAsubRSN3000101_2857E-W.AT2,NGAsubRSN3000101_2857N-S.AT2,NGAsubRSN3000101_2857--V.AT2
3000102,3000038,3000018,6.51,80,122,98.1745773,60.6224221,65.4065698,102.5622707,65.11,-999,517,-999,-999,-999,99,99,-999,0.020239,2.6433,0.61858,0.02049848,0.02467624,0.02455678,0.02337655,0.02355128,0.02302596,0.02233151,0.02372858,0.02379436,0.02315773,0.02294274,0.02244247,0.02213451,0.02205952,0.0228158,0.0230749,0.0233396,0.02435895,0.02470754,0.0240442,0.02418534,0.02654669,0.02713859,0.02845352,0.02712716,0.02818368,0.02921088,0.03033284,0.03705239,0.04003073,0.04104785,0.04551364,0.04789815,0.04180346,0.04629922,0.04483017,0.04533643,0.04813429,0.04803299,0.05866067,0.06016725,0.05684472,0.05401224,0.05512901,0.05260058,0.04480812,0.04690401,0.05168671,0.05436891,0.05246534,0.05219141,0.04613217,0.03857844,0.03781736,0.03802258,0.03905027,0.03752583,0.03203417,0.03326834,0.03501447,0.03500355,0.03390211,0.03140656,0.03067139,0.03140074,0.03433904,0.03366448,0.03442307,0.03232859,0.04102574,0.04541923,0.0423554,0.03857431,0.03468771,0.02897775,0.02389838,0.02134168,0.01860717,0.01283968,0.009706333,0.008091228,0.007104877,0.005939827,0.004821494,0.004537839,0.004250677,0.003837348,0.003725302,0.003607776,0.003334265,0.00313313,0.002890435,0.002542683,0.00223924,0.002131101,0.001876016,0.001416984,0.000965309,0.000769381,0.000654158,0.000561233,0.000498591,0.000440006,0.000388574,0.000343668,0.000270851,0.000216811,0.000175812,0.000145222,0.00012173,6.53E-05,NGAsubRSN3000102_2893E-W.AT2,NGAsubRSN3000102_2893N-S.AT2,NGAsubRSN3000102_2893--V.AT2
3000103,3000038,3000019,6.51,80,122,93.0686733,52.6352808,56.6854821,97.2329362,57.15,-999,586,-999,-999,-999,99,99,-999,0.096558,10.45,2.4227,0.09711945,0.09849004,0.09925468,0.09783229,0.09771752,0.09851726,0.09964179,0.1001245,0.0998859,0.10031,0.1004809,0.101898,0.1021962,0.1017875,0.1005961,0.1004482,0.1011096,0.1009545,0.1027582,0.102064,0.1016443,0.1043305,0.1094266,0.1091466,0.1137134,0.1339976,0.1409386,0.1320204,0.1343589,0.168357,0.1849319,0.1975231,0.2035103,0.2013194,0.1847412,0.1942608,0.2141229,0.2052153,0.2004452,0.2254072,0.2282972,0.2364374,0.2443076,0.2566817,0.2721358,0.3074352,0.3313338,0.3329562,0.3458931,0.3295597,0.2539391,0.2184577,0.1900499,0.1956306,0.1969867,0.2156225,0.1948909,0.1855031,0.1462057,0.1475742,0.1576812,0.1625562,0.1765234,0.1989724,0.1977248,0.1792415,0.1600732,0.1457823,0.1333264,0.09436937,0.090951,0.091425,0.08679786,0.100496,0.1100619,0.10741,0.09343786,0.08197613,0.06179154,0.04706023,0.04045404,0.03478353,0.02713658,0.02134876,0.01586055,0.01221115,0.01074214,0.01001277,0.008947257,0.008289409,0.007697165,0.006921899,0.006074833,0.005659731,0.005381261,0.004540647,0.003725063,0.003084544,0.00260858,0.00224167,0.001943248,0.001692661,0.00147933,0.001296925,0.001142498,0.000900703,0.00072796,0.000609366,0.000519741,0.000448385,0.000245651,NGAsubRSN3000103_2894E-W.AT2,NGAsubRSN3000103_2894N-S.AT2,NGAsubRSN3000103_2894--V.AT2
3000104,3000038,3000021,6.51,80,122,83.9947186,36.2197108,39.9038416,88.5060257,40.73,-999,429,-999,-999,-999,99,99,-999,0.097596,8.9247,1.5646,0.09827518,0.0994533,0.09854501,0.1004697,0.09962124,0.09991573,0.09921917,0.09929676,0.0986618,0.10044,0.1014905,0.1028301,0.1033994,0.1038864,0.1055084,0.1060869,0.1102821,0.1047142,0.1103518,0.1111905,0.1126182,0.1099604,0.1129897,0.1172653,0.1188359,0.1252829,0.1278794,0.1350166,0.1464415,0.1667263,0.1806969,0.1943878,0.2044478,0.1983275,0.1979528,0.2212345,0.2339115,0.2536509,0.2363675,0.2175508,0.2473585,0.2553949,0.2794065,0.2894487,0.2842779,0.2894127,0.3308012,0.3536306,0.383454,0.3593434,0.2730458,0.2242011,0.2068892,0.2095168,0.2184463,0.2271363,0.2165248,0.1674603,0.1231401,0.1123633,0.1085206,0.1054085,0.09587716,0.08579278,0.07242917,0.07070258,0.07468367,0.08524179,0.09961441,0.1163832,0.1112687,0.09463247,0.08564015,0.07204834,0.0638511,0.05976169,0.05485172,0.04728213,0.03524224,0.02676945,0.0232644,0.02024095,0.01506579,0.01116981,0.009285064,0.007753418,0.00699694,0.006276096,0.005707303,0.005267398,0.00479386,0.00434506,0.003954855,0.003611332,0.003319216,0.002772972,0.002369583,0.002014985,0.001683279,0.001392435,0.001177168,0.001064771,0.00095783,0.000856639,0.000764826,0.000617013,0.000505003,0.000419736,0.000353521,0.000301726,0.000159649,NGAsubRSN3000104_2897E-W.AT2,NGAsubRSN3000104_2897N-S.AT2,NGAsubRSN3000104_2897--V.AT2
3000105,3000038,3000047,6.51,80,122,82.1606631,33.0358854,40.2579244,88.6662308,31.39,-999,519,-999,-999,-999,99,99,-999,0.052539,6.2558,1.6115,0.05311813,0.05536533,0.05458582,0.0546792,0.05426324,0.05461479,0.05480437,0.05554068,0.05550315,0.05468803,0.05538554,0.05595335,0.05609808,0.05618893,0.05551515,0.05534916,0.05763795,0.05784951,0.05881628,0.05940366,0.05884108,0.0628168,0.0627344,0.06464999,0.07098194,0.07317658,0.07365861,0.07292414,0.08314304,0.07683407,0.07811788,0.08530033,0.1013887,0.1180172,0.1154085,0.1253749,0.1394543,0.1487032,0.1634827,0.1592219,0.1542372,0.1696655,0.1674673,0.1635184,0.1674839,0.1727947,0.1827609,0.1798384,0.1771052,0.1779692,0.1690256,0.1350452,0.1154908,0.120898,0.1249494,0.1162333,0.1123114,0.1168755,0.1108261,0.08926615,0.08831082,0.08000468,0.07536756,0.07320956,0.07136128,0.06860359,0.06884163,0.06911334,0.09582514,0.09872434,0.09306938,0.08638033,0.08443217,0.07874316,0.07019597,0.06085026,0.05080926,0.04288193,0.03088393,0.02330382,0.02004778,0.01886956,0.01766475,0.0160342,0.01415333,0.01141037,0.01003335,0.009358983,0.008410526,0.007817721,0.007278818,0.00661497,0.005801935,0.004901461,0.004607981,0.003910699,0.003237395,0.002525728,0.00192402,0.001472059,0.001152198,0.00101883,0.000900129,0.000794386,0.00070446,0.000572549,0.000466951,0.000390025,0.000332021,0.000286783,0.000167054,NGAsubRSN3000105_2898E-W.AT2,NGAsubRSN3000105_2898N-S.AT2,NGAsubRSN3000105_2898--V.AT2
3000106,3000038,3000027,6.51,80,122,89.5980262,46.7892047,50.9708399,94.0160971,51.3,-999,568,-999,-999,-999,99,99,-999,0.052194,5.2405,1.1084,0.05272484,0.05507974,0.05475542,0.05463448,0.05514435,0.05518442,0.0552045,0.05377411,0.05373375,0.05468524,0.05488808,0.05460383,0.05431653,0.05424135,0.05496942,0.05598772,0.05522998,0.05760179,0.05792806,0.05800058,0.059136,0.06370036,0.06455816,0.06188973,0.06611648,0.06288674,0.06594623,0.0695786,0.08378793,0.09248773,0.0935261,0.1037993,0.09943377,0.09808523,0.09948981,0.107173,0.1057217,0.09944063,0.1065717,0.1075313,0.1141667,0.1134585,0.1082269,0.1116608,0.1079836,0.1184017,0.1301715,0.1429916,0.1574204,0.1365025,0.1159317,0.1240194,0.1472416,0.1595726,0.1767627,0.1815969,0.1732221,0.1737023,0.1658285,0.1207722,0.1160142,0.1159279,0.09649444,0.09174181,0.08610488,0.07880148,0.07809176,0.07085741,0.05665604,0.0527082,0.05160157,0.04782224,0.04177591,0.03945822,0.03446125,0.0287607,0.02541589,0.02265788,0.01705976,0.01375411,0.01243344,0.01255854,0.01080706,0.00892993,0.008622977,0.008303881,0.007951703,0.007497973,0.006607412,0.005732047,0.004720264,0.003930613,0.003416275,0.00293493,0.002548089,0.001984681,0.001682183,0.001466653,0.001231548,0.001014335,0.000854807,0.000718024,0.000648355,0.000587332,0.000528578,0.000424405,0.000341077,0.000284359,0.000244474,0.000212117,0.000116941,NGAsubRSN3000106_3563E-W.AT2,NGAsubRSN3000106_3563N-S.AT2,NGAsubRSN3000106_3563--V.AT2
3000107,3000038,3000008,6.51,80,122,77.1416924,19.0405482,23.3042663,82.3655804,23.55,-999,382,-999,-999,-999,99,99,-999,0.1018,8.8482,1.8209,0.1155373,0.1590515,0.1604055,0.1619216,0.1576188,0.1586491,0.1569273,0.1535985,0.153453,0.1488152,0.1479761,0.1474122,0.1460132,0.1442734,0.1414904,0.1385686,0.1404224,0.1517817,0.1630832,0.1642744,0.1671163,0.1734947,0.1705007,0.1785485,0.1832646,0.1842379,0.1765008,0.1766321,0.1759897,0.1779854,0.1843573,0.2060459,0.2644956,0.2806233,0.2909392,0.2967316,0.2658313,0.2426248,0.270597,0.2774436,0.271873,0.2851828,0.317035,0.3005771,0.2724164,0.2723681,0.2492463,0.2461266,0.2396311,0.2601299,0.2564791,0.2192491,0.2266816,0.2429674,0.2588836,0.2551806,0.2460619,0.345735,0.3616495,0.2946114,0.2464392,0.1745202,0.1574394,0.1401138,0.1223942,0.1032554,0.09340215,0.07974248,0.08007638,0.07840701,0.09075588,0.09768595,0.09198014,0.08835085,0.08670424,0.0800695,0.07296775,0.06390881,0.04452728,0.03435263,0.03082947,0.02589555,0.01940914,0.01555201,0.01276474,0.01083092,0.010282,0.00995814,0.009421995,0.008638443,0.00787017,0.007022101,0.006160459,0.005552637,0.005019547,0.00386329,0.003272413,0.002714343,0.002336269,0.002015922,0.001741692,0.001500812,0.001295554,0.001121425,0.000975085,0.000748061,0.000588887,0.000474925,0.000391752,0.00032967,0.000188832,NGAsubRSN3000107_448E-W.AT2,NGAsubRSN3000107_448N-S.AT2,NGAsubRSN3000107_448--V.AT2
3000185,3000069,3000010,7.31,25,-106,70.0449872,24.3750966,39.8449897,82.9907417,-24.38,-999,519,-999,-999,-999,99,99,-999,0.1932,26.453,9.434,0.1934735,0.1952004,0.1949366,0.1974025,0.1973026,0.1976133,0.1970166,0.1955016,0.1975673,0.2019574,0.2003354,0.2014602,0.202444,0.2040987,0.2076776,0.2096001,0.2104415,0.2150726,0.2120749,0.2159756,0.2105369,0.2104097,0.2137293,0.2080965,0.2064425,0.2093661,0.2130984,0.2090246,0.2265797,0.2245121,0.2271768,0.2378295,0.2497784,0.2483898,0.2490871,0.2627262,0.2905219,0.2949429,0.3209268,0.3275381,0.3542143,0.3504496,0.3933733,0.4717691,0.4860698,0.4383438,0.4534557,0.4607578,0.4528787,0.4671483,0.4475697,0.4236127,0.441781,0.486064,0.5229825,0.5100277,0.4826692,0.5406742,0.5158622,0.6201736,0.6860886,0.7119732,0.5855535,0.6069354,0.5586908,0.4996255,0.5464585,0.5062119,0.4036202,0.4079,0.318432,0.3004204,0.2887717,0.2172681,0.2195256,0.2030177,0.1705949,0.1396938,0.1242967,0.1480022,0.1400843,0.1188973,0.09006357,0.07922354,0.069598,0.0669935,0.06285159,0.05932966,0.05757174,0.05555081,0.04750145,0.04198956,0.03500982,0.03258301,0.03125718,0.0211066,0.01493163,0.01176523,0.01052507,0.01035563,0.01057423,0.01091562,0.01181094,0.01139572,0.01083057,0.007706866,0.005632432,0.004430506,0.003463979,0.002573056,0.001236338,NGAsubRSN3000185_2747-EW.AT2,NGAsubRSN3000185_2747-NS.AT2,NGAsubRSN3000185_2747VERT.AT2
3000191,3000071,3000057,6.54,89,94,71.8295718,32.8302173,45.5683225,83.5252777,1.61,-999,281,-999,-999,-999,99,99,-999,0.061847,2.5302,0.24855,0.06252548,0.06389676,0.06680958,0.06705769,0.06752933,0.06855603,0.0706875,0.06710152,0.06641541,0.07832319,0.08158702,0.08059908,0.08083858,0.08144739,0.07922321,0.08125754,0.08566511,0.1056266,0.1017516,0.1098219,0.1122226,0.120966,0.1365736,0.1349055,0.1271592,0.1198234,0.1189628,0.1307068,0.1510399,0.1426688,0.1448701,0.1533821,0.1579809,0.1332832,0.127339,0.1307807,0.1523498,0.1619352,0.1426456,0.1422823,0.127478,0.1103599,0.1146791,0.1001746,0.08806293,0.08590117,0.08750354,0.08548743,0.08394962,0.08813149,0.09036527,0.08951158,0.08771937,0.09296783,0.09476069,0.09390607,0.09792931,0.107349,0.09842312,0.09972094,0.09564838,0.07641475,0.06284587,0.04950185,0.04338507,0.0374427,0.03034868,0.02498958,0.02035157,0.01578552,0.01115156,0.008761633,0.007092909,0.006104586,0.005236411,0.004410567,0.003781514,0.003309452,0.002538547,0.002033246,0.001835988,0.001646082,0.001341099,0.001169058,0.001035292,0.000902452,0.000840863,0.000785402,0.000698008,0.000636512,0.000587702,0.000541077,0.000495895,0.000452807,0.000412932,0.000330429,0.000274968,0.00023735,0.000208468,0.000183497,0.000161807,0.000142628,0.000126387,0.000112368,0.000100412,8.17E-05,6.80E-05,5.77E-05,4.98E-05,4.35E-05,2.49E-05,NGAsubRSN3000191_3547E-W.AT2,NGAsubRSN3000191_3547N-S.AT2,NGAsubRSN3000191_3547--V.AT2
3000192,3000071,3000035,6.54,89,94,63.9347808,2.4915692,15.1460104,71.619841,1.44,-999,382,-999,-999,-999,99,99,-999,0.14425,4.3258,0.35101,0.1458246,0.148594,0.1520819,0.1553784,0.1699014,0.1688796,0.1626295,0.1742365,0.178097,0.1797595,0.1845207,0.1793508,0.176618,0.1774973,0.1951443,0.2123272,0.2353242,0.2733144,0.320218,0.3371302,0.3771816,0.4189911,0.5175596,0.5753521,0.6204798,0.5546322,0.4720536,0.3959754,0.3993875,0.3717336,0.3801763,0.3415091,0.2814359,0.2457163,0.2319679,0.2022156,0.1808713,0.1915513,0.2081421,0.3020843,0.3380027,0.3281436,0.26732,0.2344269,0.2024346,0.1487719,0.1193632,0.1193038,0.1222773,0.1241364,0.1036331,0.09229925,0.09067969,0.09039304,0.09038269,0.09216652,0.09079836,0.08238009,0.07969545,0.09226114,0.09901705,0.09974907,0.08868641,0.08084604,0.0708902,0.06117091,0.05748527,0.04603016,0.03050002,0.02085902,0.01462829,0.01186265,0.009744313,0.008081144,0.006886574,0.005858102,0.005058641,0.004470998,0.003609086,0.002923382,0.002640781,0.002402609,0.002024982,0.001732802,0.001499717,0.001314953,0.001233927,0.001161518,0.001038181,0.000935118,0.000846582,0.000768913,0.000700479,0.000640128,0.000587082,0.000480527,0.000402073,0.000342337,0.000295456,0.000257461,0.000226263,0.000200198,0.000178263,0.000159619,0.000143733,0.000118261,9.90E-05,8.40E-05,7.23E-05,6.28E-05,3.52E-05,NGAsubRSN3000192_3548E-W.AT2,NGAsubRSN3000192_3548N-S.AT2,NGAsubRSN3000192_3548--V.AT2
