Record Sequence Number,EQID,SSN,Earthquake Magnitude,Dip (deg),Rake Angle (deg),ClstD (km),Rjb (km),Repi (km),Rhyp (km),Rx,Source to Site Azimuth (deg),Preferred Vs30,GMX_C1,GMX_C2,GMX_C3,Dur,AI,minFreq,PGA (g),PGV (cm/sec),PGD (cm),T0.010s,T0.020s,T0.022s,T0.025s,T0.029s,T0.030s,T0.032s,T0.035s,T0.036s,T0.040s,T0.042s,T0.044s,T0.045s,T0.046s,T0.048s,T0.050s,T0.055s,T0.060s,T0.065s,T0.067s,T0.070s,T0.075s,T0.080s,T0.085s,T0.090s,T0.095s,T0.100s,T0.110s,T0.120s,T0.130s,T0.133s,T0.140s,T0.150s,T0.160s,T0.170s,T0.180s,T0.190s,T0.200s,T0.220s,T0.240s,T0.250s,T0.260s,T0.280s,T0.290s,T0.300s,T0.320s,T0.340s,T0.350s,T0.360s,T0.380s,T0.400s,T0.420s,T0.440s,T0.450s,T0.460s,T0.480s,T0.500s,T0.550s,T0.600s,T0.650s,T0.667s,T0.700s,T0.750s,T0.800s,T0.850s,T0.900s,T0.950s,T1.000s,T1.100s,T1.200s,T1.300s,T1.400s,T1.500s,T1.600s,T1.700s,T1.800s,T1.900s,T2.000s,T2.200s,T2.400s,T2.500s,T2.600s,T2.800s,T3.000s,T3.200s,T3.400s,T3.500s,T3.600s,T3.800s,T4.000s,T4.200s,T4.400s,T4.600s,T4.800s,T5.000s,T5.500s,T6.000s,T6.500s,T7.000s,T7.500s,T8.000s,T8.500s,T9.000s,T9.500s,T10.000s,T11.000s,T12.000s,T13.000s,T14.000s,T15.000s,T20.000s,File Name (Horizontal 1),File Name (Horizontal 2),File Name (Vertical)
4000557,4000001,4000557,9.12,11.98161712,88,182.9953264,176.7865363,286.7011488,287.2345318,352.34,-999,360,-999,-999,-999,99,99,-999,0.038848,12.126,99.403,0.0388981,0.03904842,0.03908977,0.03916409,0.03935841,0.03938489,0.03948668,0.03958377,0.03957642,0.03950253,0.03995841,0.04043233,0.04046197,0.04048934,0.04047785,0.04117075,0.04110412,0.04106599,0.04199309,0.04250006,0.04415254,0.04581914,0.04651303,0.04815942,0.0534631,0.0614415,0.06527506,0.0607769,0.06352992,0.06134842,0.06215728,0.06353594,0.06235544,0.07068479,0.08252933,0.08050796,0.07394133,0.07406075,0.08198359,0.07321642,0.06782431,0.06441305,0.06659019,0.07137197,0.07296479,0.07820816,0.08417778,0.08162941,0.08174688,0.09225629,0.09954846,0.0989769,0.091794,0.09157145,0.09085041,0.08473574,0.08774536,0.09117377,0.08634666,0.08810195,0.09782024,0.1101983,0.1051467,0.1058022,0.09845261,0.1023329,0.1013625,0.1020015,0.08114372,0.0738292,0.09201087,0.08843887,0.07270088,0.06559312,0.0653097,0.06281333,0.06638281,0.05842935,0.05163281,0.05327867,0.05364098,0.05348302,0.06379434,0.05974053,0.0563066,0.05383762,0.05773554,0.0608858,0.05713739,0.0499022,0.04395112,0.0356836,0.03213486,0.02689265,0.02319755,0.01698217,0.01276618,0.0110824,0.008958976,0.009898811,0.008902982,0.007542735,0.007146432,0.006500523,0.005921266,0.005987817,0.006640222,0.006225503,0.005659784,0.006330608,0.004456858,NGAsubRSN4000557_NIGH02W2.AT2,NGAsubRSN4000557_NIGH02S2.AT2,NGAsubRSN4000557_NIGH02D2.AT2
4000560,4000001,4000560,9.12,11.98161712,88,200.6593918,195.0137981,333.5700438,334.0285941,371.62,-999,336.1,-999,-999,-999,99,99,-999,0.040344,9.1353,89.362,0.0403901,0.04053238,0.04057314,0.04064273,0.04077389,0.0408154,0.04088451,0.04093355,0.04098991,0.04129247,0.04126352,0.04115831,0.04124554,0.04135401,0.04153528,0.04174463,0.04199606,0.04225466,0.04325463,0.04349845,0.04284133,0.04401439,0.0444051,0.04609474,0.04917648,0.05100208,0.05103373,0.05646827,0.06195449,0.06868979,0.07044625,0.07629259,0.08718466,0.0899168,0.09528641,0.09665477,0.1049536,0.1078579,0.138111,0.1370537,0.1512711,0.1646429,0.1555481,0.1549664,0.1612724,0.1666456,0.153367,0.1360558,0.1178417,0.09829129,0.1062919,0.09004676,0.09060535,0.0927142,0.0931475,0.08347041,0.0814732,0.08121544,0.07475451,0.06291464,0.06285195,0.06447618,0.06907433,0.07076713,0.07318781,0.0669129,0.06758071,0.06205572,0.0516053,0.04452104,0.04636495,0.04488977,0.04935538,0.04106673,0.035771,0.03008061,0.0270574,0.02705252,0.02885228,0.0264722,0.02564306,0.02534239,0.02307327,0.02491754,0.02284119,0.02265843,0.0221711,0.02118799,0.02021866,0.02079943,0.02356012,0.02358803,0.02398353,0.02593882,0.02192593,0.01709262,0.01536986,0.01422123,0.01024235,0.01010416,0.007801792,0.006846268,0.006269856,0.005735585,0.005886485,0.00669308,0.007470071,0.006425256,0.004833594,0.005056397,0.003813927,NGAsubRSN4000560_NIGH06W2.AT2,NGAsubRSN4000560_NIGH06S2.AT2,NGAsubRSN4000560_NIGH06D2.AT2
4000684,4000001,4000684,9.12,11.98161712,88,151.4513772,143.8878368,249.0459986,249.6598424,319.13,-999,310.9,-999,-999,-999,99,99,-999,0.077779,12.748,136.43,0.07786988,0.07811508,0.07819802,0.07834888,0.07856679,0.07864608,0.07870241,0.07883992,0.07900966,0.07943303,0.07953797,0.07962756,0.07972003,0.07981894,0.07991077,0.08031615,0.08099588,0.08026592,0.08064772,0.08135466,0.08252902,0.0816276,0.08200797,0.085712,0.08919834,0.09096459,0.09433795,0.09448071,0.1016463,0.1139434,0.1170529,0.1186682,0.1212917,0.1256277,0.1316152,0.1268272,0.1296794,0.1357649,0.1448215,0.1589891,0.165704,0.1554046,0.1647519,0.1813534,0.1975682,0.246599,0.2949179,0.3068871,0.3015883,0.2896188,0.275866,0.2421145,0.2265632,0.2294374,0.2286476,0.2266846,0.218214,0.2059909,0.1664562,0.2021203,0.2031217,0.1876727,0.1848952,0.1785451,0.1973073,0.1893147,0.1652365,0.1480218,0.134479,0.12052,0.1016764,0.1020425,0.09036644,0.08563443,0.08360696,0.08565968,0.07763676,0.0815028,0.06960967,0.06366114,0.05871113,0.05655002,0.04417332,0.03379251,0.03057567,0.02810672,0.02708079,0.0269529,0.02479585,0.01714405,0.0166098,0.01523004,0.01697822,0.01843795,0.01716951,0.01385827,0.01419265,0.01112794,0.01033619,0.009205407,0.008964862,0.008571319,0.006987253,0.005963736,0.006068631,0.005986856,0.006306043,0.005440711,0.005707571,0.006293983,0.003751029,NGAsubRSN4000684_YMTH14W2.AT2,NGAsubRSN4000684_YMTH14S2.AT2,NGAsubRSN4000684_YMTH14D2.AT2
4000729,4000001,4000729,9.12,11.98161712,88,185.2073848,179.0753063,376.5476221,376.9538953,334.86,-999,272,-999,-999,-999,99,99,-999,0.05937,8.1659,58.327,0.05948555,0.05982946,0.05992873,0.0600661,0.06017336,0.06035163,0.06067007,0.06184668,0.06227696,0.0629734,0.06362224,0.06416357,0.06442197,0.06457118,0.06462874,0.06517901,0.06646751,0.06390736,0.06352627,0.06365234,0.06476983,0.06951274,0.0777643,0.08465875,0.08152545,0.08527491,0.09297262,0.09395463,0.1002789,0.1030724,0.1037827,0.09910037,0.1054297,0.1228217,0.1287803,0.1587451,0.171342,0.1762631,0.2100412,0.2867893,0.2962343,0.2860027,0.2627006,0.2422706,0.2141321,0.183307,0.1546476,0.1536956,0.1451842,0.1439135,0.1476568,0.1376393,0.1301563,0.136669,0.1379778,0.1340879,0.1453921,0.12817,0.1112622,0.09353961,0.09425145,0.09012649,0.08047435,0.06775279,0.06747162,0.06703814,0.06587388,0.06603072,0.05579529,0.05818818,0.04857228,0.04503198,0.04078102,0.04049338,0.04385564,0.05379344,0.05975316,0.06317747,0.05895828,0.0415832,0.04226526,0.04268519,0.03910527,0.027767,0.02393846,0.02161258,0.02093456,0.02156859,0.0183286,0.01713543,0.01309465,0.01033016,0.01017156,0.01011091,0.009776435,0.008740051,0.006570481,0.005804647,0.005123257,0.004676738,0.004451783,0.004626661,0.005242834,0.004683319,0.004856263,0.004972566,0.004653128,0.004077518,0.004303208,0.004337871,0.003298155,NGAsubRSN4000729_AOM006EW.AT2,NGAsubRSN4000729_AOM006NS.AT2,NGAsubRSN4000729_AOM006UD.AT2
4000789,4000001,4000789,9.12,11.98161712,88,58.5692967,34.5912192,169.8593616,170.7581045,210.51,-999,535.1,-999,-999,-999,99,99,-999,0.59117,39.561,59.952,0.5950731,0.6127828,0.6172396,0.6239382,0.6664554,0.6786373,0.6909758,0.683702,0.6892363,0.7166439,0.7663462,0.7901295,0.7832496,0.7998301,0.8998166,0.9465619,0.9541054,1.0127,1.104184,1.1514,1.244605,1.214255,1.190748,1.118953,1.262622,1.563708,1.62287,1.987937,2.165263,1.963207,1.903265,1.886719,1.899625,1.810536,1.55092,1.346426,1.381381,1.512184,1.655471,1.482309,1.516891,1.386541,1.322675,1.296959,1.406871,1.565695,1.639054,1.666625,1.672237,1.585819,1.358365,1.179213,0.9729391,0.905275,0.8618466,0.7921976,0.8124254,0.8371431,0.8284689,0.6739417,0.6201238,0.5276479,0.4716564,0.36836,0.29352,0.3037292,0.2873378,0.2853146,0.2592919,0.2502077,0.2862361,0.3186515,0.3341651,0.4169469,0.4035983,0.3027863,0.2380769,0.231126,0.227364,0.1943302,0.1686101,0.1320523,0.09363466,0.07001163,0.0724621,0.06709722,0.05701083,0.05305638,0.05217362,0.03885746,0.03402894,0.03570608,0.04062096,0.03810958,0.0356206,0.02559919,0.02228374,0.02122612,0.02098868,0.02056313,0.02100693,0.01659465,0.01379542,0.01093064,0.009245243,0.009534475,0.01217584,0.01265248,0.009390644,0.007434498,0.004202643,NGAsubRSN4000789_FKS005EW.AT2,NGAsubRSN4000789_FKS005NS.AT2,NGAsubRSN4000789_FKS005UD.AT2
4000809,4000001,4000809,9.12,11.98161712,88,149.7194529,142.0637339,304.063663,304.5666408,319.04,-999,343.8,-999,-999,-999,99,99,-999,0.069908,10.859,32.07,0.07016076,0.07091369,0.07115153,0.071583,0.07277185,0.07285894,0.07272254,0.07405454,0.07425553,0.07477441,0.07803322,0.08160103,0.08218254,0.08164689,0.08268835,0.08126532,0.0869733,0.08865697,0.09910978,0.0995036,0.1006849,0.102875,0.1245111,0.1341374,0.1501096,0.1637588,0.1677661,0.1725326,0.1996774,0.2121436,0.2233474,0.2246188,0.2386375,0.2330107,0.2417262,0.2573397,0.2320354,0.2245978,0.2210851,0.2447341,0.2365443,0.2235077,0.1919127,0.1841824,0.1817278,0.1630297,0.1274109,0.1361782,0.1378105,0.1445197,0.1327007,0.139357,0.1224341,0.119137,0.1180502,0.1201894,0.1141192,0.1158008,0.08520555,0.0791625,0.07950737,0.084795,0.07703922,0.08102173,0.07921255,0.06314208,0.05142251,0.04981563,0.05065202,0.04694149,0.05370615,0.0504656,0.05067694,0.05014385,0.05350133,0.05414188,0.04660555,0.0417333,0.03452862,0.03525579,0.03246916,0.02963681,0.03519774,0.03731471,0.03053386,0.02618398,0.02604916,0.0241316,0.01893893,0.01884027,0.01978661,0.01878612,0.01683449,0.01523757,0.01481076,0.01294341,0.01251253,0.00838633,0.007218929,0.007580513,0.00689113,0.005744874,0.00477871,0.004727914,0.004709688,0.004102111,0.00411999,0.004916374,0.004406059,0.004302604,0.002829664,NGAsubRSN4000809_FKS026EW.AT2,NGAsubRSN4000809_FKS026NS.AT2,NGAsubRSN4000809_FKS026UD.AT2
4000836,4000001,4000836,9.12,11.98161712,88,165.5992577,158.7113861,384.1870094,384.5852126,337.01,-999,277.4,-999,-999,-999,99,99,-999,0.090793,13.942,35.341,0.09102548,0.09175643,0.0919652,0.0924288,0.09360524,0.0939522,0.09398074,0.0944648,0.09463421,0.09711593,0.09777635,0.1000574,0.101457,0.1025286,0.1022622,0.1011298,0.120338,0.132487,0.1384593,0.1480694,0.1479931,0.1412317,0.1548836,0.1712055,0.1988707,0.2391589,0.2145545,0.165591,0.15683,0.161244,0.1523114,0.1681808,0.1900313,0.2159027,0.2497942,0.237905,0.2364077,0.2405112,0.2226193,0.19615,0.1889735,0.2020032,0.1971269,0.1888073,0.1861134,0.1721168,0.2004499,0.2241492,0.221434,0.2331858,0.2624651,0.2780164,0.2775562,0.2832997,0.2912218,0.2815742,0.2851694,0.230712,0.1805002,0.1734135,0.163,0.1471028,0.1544017,0.1498808,0.1512371,0.149445,0.164053,0.1500335,0.1178676,0.094639,0.0823232,0.06884808,0.0677759,0.06537635,0.07040697,0.06988448,0.06037646,0.05393805,0.04388263,0.04113339,0.04299567,0.03577314,0.02785467,0.02449014,0.02210682,0.0243094,0.02438005,0.02323049,0.02497274,0.02984093,0.03091376,0.03464375,0.03757143,0.03502404,0.03151323,0.02471165,0.02285178,0.0215975,0.01741331,0.01412353,0.01336206,0.01108754,0.01049511,0.009088582,0.007628758,0.005867901,0.004767878,0.004979415,0.004936566,0.004036366,0.004794027,NGAsubRSN4000836_GNM007EW.AT2,NGAsubRSN4000836_GNM007NS.AT2,NGAsubRSN4000836_GNM007UD.AT2
4000842,4000001,4000842,9.12,11.98161712,88,160.9350225,153.8384588,391.7974617,392.1879377,331.6,-999,263.6,-999,-999,-999,99,99,-999,0.17972,23.185,56.014,0.1799108,0.1806384,0.1809312,0.181768,0.1836734,0.1834639,0.1835798,0.1848522,0.187502,0.1911526,0.1878774,0.1872455,0.187524,0.1864112,0.1854745,0.1874279,0.1909473,0.1876097,0.2062373,0.2070637,0.2008884,0.1946087,0.206611,0.2116925,0.247866,0.2724597,0.2593493,0.2718216,0.2474241,0.2411187,0.252119,0.2887557,0.3165694,0.3069601,0.286768,0.307281,0.3345252,0.3589732,0.3985822,0.5495661,0.523041,0.5098145,0.5312369,0.4638228,0.418302,0.4825709,0.6583583,0.7095728,0.6971592,0.6665111,0.6442968,0.6766878,0.6702327,0.6450793,0.6042063,0.5672107,0.5370991,0.4246974,0.326326,0.3015102,0.3099282,0.2915995,0.2843671,0.2363054,0.2196603,0.1883838,0.1650659,0.2030042,0.1956729,0.1859699,0.1557073,0.1536171,0.1297019,0.1222595,0.1099804,0.1128345,0.1123664,0.1047609,0.08161703,0.05761041,0.05172032,0.04749732,0.04737234,0.04210285,0.04407103,0.04891694,0.05033175,0.04673451,0.04117301,0.0394408,0.03576372,0.03589994,0.03359706,0.03170743,0.03223424,0.03570975,0.03567315,0.03523727,0.02478164,0.0194107,0.01733993,0.01520324,0.01581664,0.01441828,0.01217186,0.007716448,0.007032301,0.006709284,0.007101662,0.005176391,0.006502627,NGAsubRSN4000842_GNM013EW.AT2,NGAsubRSN4000842_GNM013NS.AT2,NGAsubRSN4000842_GNM013UD.AT2
4001060,4000001,4001060,9.12,11.98161712,88,86.3269152,72.2393675,172.8893597,173.7724322,247.07,-999,579.2,-999,-999,-999,99,99,-999,0.45754,36.693,318.95,0.4586721,0.4612921,0.4621288,0.4630256,0.4683301,0.4730282,0.4826288,0.5184461,0.5331917,0.5493756,0.5425986,0.5907462,0.6146302,0.6302678,0.6296178,0.6179277,0.5968621,0.6196846,0.5821167,0.5936868,0.6155819,0.6117161,0.5838492,0.5971115,0.5825275,0.5409008,0.5462894,0.6478093,0.650166,0.759625,0.7706124,0.7217991,0.6696395,0.7815248,0.9471578,1.08433,1.091715,1.066694,1.320035,1.502898,1.517023,1.38448,1.123278,1.000765,0.9240756,0.9496402,0.8667229,0.8674594,0.8532332,0.7188335,0.6931458,0.7316303,0.6576164,0.6412169,0.6315552,0.6656688,0.743804,0.7098406,0.60072,0.6585363,0.6608498,0.6986521,0.659327,0.5743058,0.4564849,0.4271402,0.4088662,0.4789751,0.4776801,0.4236191,0.3812748,0.3115947,0.2943735,0.3361424,0.3242566,0.3137282,0.2806916,0.2318845,0.1945477,0.1678231,0.1785947,0.1764564,0.1835628,0.1454694,0.1089337,0.1105696,0.09486487,0.08741137,0.06615888,0.0589968,0.06021792,0.05449358,0.04355775,0.04239622,0.03713375,0.02924691,0.02452742,0.02716945,0.0266601,0.02818284,0.02316609,0.02256826,0.02005648,0.01660996,0.01527856,0.01595014,0.01472436,0.01167403,0.01077765,0.0123145,0.009043401,NGAsubRSN4001060_MYG009EW.AT2,NGAsubRSN4001060_MYG009NS.AT2,NGAsubRSN4001060_MYG009UD.AT2
4001062,4000001,4001062,9.12,11.98161712,88,49.9824322,16.2842803,117.1021774,118.4020586,191.08,-999,1434.4,-999,-999,-999,99,99,-999,0.89481,34.996,277.85,0.9177223,1.012054,1.047653,1.11911,1.425638,1.522145,1.998023,2.378812,2.574137,2.546823,2.615779,2.654077,2.656979,2.592514,2.765693,2.664299,2.657919,2.797205,3.150591,3.062006,2.993192,2.658588,2.528868,2.199787,2.601255,2.769661,2.586939,2.197111,2.200939,1.996439,1.908563,2.028348,1.659368,1.750722,1.61391,1.608072,1.542319,1.267509,1.174052,1.025516,1.007822,1.035568,0.9853155,0.9923947,0.9337777,0.9067542,0.9356113,0.9628753,0.9606684,0.8323339,0.730514,0.7898901,0.8291276,0.8271198,0.83073,0.8709996,0.8974929,0.6729546,0.5214977,0.4199202,0.3931067,0.3754792,0.3150607,0.30379,0.3301357,0.330866,0.3299943,0.3215333,0.3310726,0.3295865,0.3009079,0.2425642,0.1983043,0.1576802,0.1348653,0.1408507,0.1431218,0.1483815,0.1298679,0.1000488,0.09009936,0.08488312,0.07584858,0.06355973,0.06316079,0.05382808,0.05027772,0.0460915,0.0382426,0.03169461,0.02843631,0.02562221,0.02543342,0.02040635,0.01975567,0.01439429,0.01739153,0.01562167,0.01462706,0.01273909,0.01221213,0.01169042,0.01073465,0.01014821,0.009805976,0.01173334,0.0133813,0.01149793,0.009271773,0.008245965,0.007105906,NGAsubRSN4001062_MYG011EW.AT2,NGAsubRSN4001062_MYG011NS.AT2,NGAsubRSN4001062_MYG011UD.AT2
4001066,4000001,4001066,9.12,11.98161712,88,77.3234771,61.1973042,170.8825949,171.7759842,236.51,-999,234.8,-999,-999,-999,99,99,-999,0.40614,64.556,258.17,0.406595,0.4084344,0.4092154,0.4113102,0.4154739,0.4154598,0.4206777,0.4170272,0.418233,0.4168644,0.4133265,0.4153259,0.4141582,0.4139689,0.4206863,0.4304748,0.4365637,0.4609073,0.4782358,0.4697467,0.4811959,0.4794543,0.5171539,0.5375305,0.589014,0.5594467,0.5632381,0.6371791,0.5908412,0.6751756,0.6972044,0.6935521,0.6303768,0.6238447,0.7094032,0.8363205,0.8271722,0.8453323,0.7600526,0.7950892,0.8889986,0.9970453,1.195333,1.204534,1.239443,1.297129,1.301487,1.321448,1.356768,1.390243,1.304468,1.337814,1.587696,1.643865,1.646971,1.526569,1.286524,1.377786,1.165842,1.003771,0.9730328,0.8675217,0.9167522,1.054857,1.044665,0.9147735,0.8634881,0.7841007,0.5887412,0.5396515,0.475038,0.5007224,0.52925,0.5520711,0.5856484,0.5635566,0.5196702,0.4966939,0.3684315,0.3210919,0.2865805,0.2614057,0.2232724,0.1946671,0.1745142,0.1605904,0.1505249,0.139888,0.12139,0.1020211,0.0879847,0.07525615,0.06812252,0.06497493,0.05905053,0.04574841,0.03468386,0.02873338,0.02533085,0.02399568,0.02386723,0.0261918,0.02413902,0.02166148,0.02062886,0.01753596,0.01476847,0.0118973,0.009430761,0.01089344,0.008321022,NGAsubRSN4001066_MYG015EW.AT2,NGAsubRSN4001066_MYG015NS.AT2,NGAsubRSN4001066_MYG015UD.AT2
4001098,4000001,4001098,9.12,11.98161712,88,186.2932285,180.1981046,291.9328743,292.4567158,355.84,-999,310.2,-999,-999,-999,99,99,-999,0.039537,10.21,27.282,0.03956794,0.03969663,0.0397319,0.0397714,0.03989866,0.03986584,0.03988579,0.03995149,0.0400628,0.04022133,0.04032597,0.04023017,0.03990043,0.03997756,0.04066309,0.04128682,0.04127554,0.04067926,0.0435761,0.0451373,0.04752893,0.04888,0.04953732,0.0474466,0.04850207,0.04923003,0.04742818,0.05086061,0.05799211,0.06781396,0.06725934,0.06320177,0.06735764,0.06539757,0.0730354,0.07338048,0.08183533,0.0846816,0.08982802,0.07899961,0.07924111,0.08584858,0.07870393,0.0835245,0.08581143,0.08768095,0.08278188,0.07831787,0.0782755,0.07966509,0.08207233,0.08497144,0.08632406,0.0878757,0.08703598,0.08396904,0.08677175,0.08722701,0.08881187,0.1011864,0.1050401,0.1062821,0.09812606,0.09145273,0.1053905,0.1224609,0.1185194,0.1082501,0.1014849,0.09662153,0.09445401,0.08274774,0.08228219,0.07209538,0.06253482,0.05766872,0.05750335,0.0497628,0.03971423,0.04476265,0.0408887,0.03747466,0.04171984,0.04222143,0.03701109,0.03990931,0.04362763,0.04488805,0.03798325,0.02694684,0.02547755,0.02311313,0.01981733,0.01469377,0.01327946,0.01134557,0.01181752,0.009994162,0.007971848,0.007564485,0.007207472,0.007738166,0.006676291,0.00607448,0.006156159,0.006562879,0.006998476,0.006389721,0.005655863,0.006111681,0.004563171,NGAsubRSN4001098_NIG007EW.AT2,NGAsubRSN4001098_NIG007NS.AT2,NGAsubRSN4001098_NIG007UD.AT2
4001102,4000001,4001102,9.12,11.98161712,88,168.6935412,161.937336,297.4238613,297.9380486,338.35,-999,228,-999,-999,-999,99,99,-999,0.083095,13.221,42.523,0.08313816,0.08321872,0.08325578,0.08329288,0.08335368,0.08333254,0.08335338,0.08341213,0.0835507,0.08381051,0.08376725,0.08382488,0.08387988,0.08403397,0.08431087,0.0844344,0.08492684,0.08576293,0.08655097,0.08694166,0.08659036,0.08517981,0.08712597,0.08895314,0.09108569,0.09149003,0.09408722,0.09899765,0.1022649,0.09829598,0.09612796,0.09972068,0.1064032,0.1119842,0.122396,0.1371767,0.147226,0.1344627,0.1487644,0.1423216,0.1615914,0.1771081,0.1793062,0.1808801,0.1797505,0.1723946,0.1721395,0.1804973,0.1807638,0.1848456,0.2299064,0.2455532,0.236536,0.22591,0.2051261,0.2062113,0.2209708,0.2393133,0.1970028,0.228294,0.2276641,0.2304129,0.2388209,0.2290144,0.2072565,0.1863815,0.160316,0.1618784,0.137281,0.1654634,0.1641255,0.1389697,0.1093894,0.1109928,0.1205994,0.1174999,0.09613076,0.07716852,0.06821181,0.0598243,0.0530821,0.05182458,0.05390961,0.05658325,0.05418646,0.04992148,0.04905895,0.0468566,0.0377761,0.02888054,0.02510061,0.02509462,0.02149918,0.0184652,0.01780017,0.01404549,0.01251009,0.01020704,0.009674096,0.008879702,0.008174965,0.007023686,0.006714016,0.00621693,0.00616516,0.005749451,0.006635866,0.006522228,0.004241477,0.003937905,0.003191161,NGAsubRSN4001102_NIG012EW.AT2,NGAsubRSN4001102_NIG012NS.AT2,NGAsubRSN4001102_NIG012UD.AT2
