Record Sequence Number,EQID,SSN,Earthquake Magnitude,Dip (deg),Rake Angle (deg),ClstD (km),Rjb (km),Repi (km),Rhyp (km),Rx,Source to Site Azimuth (deg),Preferred Vs30,GMX_C1,GMX_C2,GMX_C3,Dur,AI,minFreq,PGA (g),PGV (cm/sec),PGD (cm),T0.010s,T0.020s,T0.022s,T0.025s,T0.029s,T0.030s,T0.032s,T0.035s,T0.036s,T0.040s,T0.042s,T0.044s,T0.045s,T0.046s,T0.048s,T0.050s,T0.055s,T0.060s,T0.065s,T0.067s,T0.070s,T0.075s,T0.080s,T0.085s,T0.090s,T0.095s,T0.100s,T0.110s,T0.120s,T0.130s,T0.133s,T0.140s,T0.150s,T0.160s,T0.170s,T0.180s,T0.190s,T0.200s,T0.220s,T0.240s,T0.250s,T0.260s,T0.280s,T0.290s,T0.300s,T0.320s,T0.340s,T0.350s,T0.360s,T0.380s,T0.400s,T0.420s,T0.440s,T0.450s,T0.460s,T0.480s,T0.500s,T0.550s,T0.600s,T0.650s,T0.667s,T0.700s,T0.750s,T0.800s,T0.850s,T0.900s,T0.950s,T1.000s,T1.100s,T1.200s,T1.300s,T1.400s,T1.500s,T1.600s,T1.700s,T1.800s,T1.900s,T2.000s,T2.200s,T2.400s,T2.500s,T2.600s,T2.800s,T3.000s,T3.200s,T3.400s,T3.500s,T3.600s,T3.800s,T4.000s,T4.200s,T4.400s,T4.600s,T4.800s,T5.000s,T5.500s,T6.000s,T6.500s,T7.000s,T7.500s,T8.000s,T8.500s,T9.000s,T9.500s,T10.000s,T11.000s,T12.000s,T13.000s,T14.000s,T15.000s,T20.000s,File Name (Horizontal 1),File Name (Horizontal 2),File Name (Vertical)
1002304,1000005,1000113,7,23,100,97.5818558,90.8781747,118.5689314,121.5379837,95.94,-999,635,-999,-999,-999,99,99,-999,0.023111,1.0356,0.27147,0.02319562,0.02351782,0.02368037,0.02393477,0.02428273,0.02437724,0.02455558,0.02477949,0.02486884,0.02559728,0.02605933,0.0266286,0.02692314,0.02725123,0.02792007,0.02869076,0.03106662,0.03904887,0.03615227,0.03589056,0.03905882,0.0414504,0.04167842,0.04421379,0.04621788,0.0512205,0.05040264,0.04852124,0.05249325,0.05825067,0.05987554,0.064252,0.0665043,0.07291171,0.08234302,0.08013202,0.0864565,0.08885895,0.07152537,0.05852493,0.06843521,0.07798622,0.08554947,0.09539021,0.0874239,0.06797161,0.05877117,0.05697247,0.05423735,0.04012917,0.035521,0.03456818,0.03311114,0.03111222,0.02982936,0.02771045,0.02488715,0.01762588,0.01449683,0.01428737,0.01410722,0.01164749,0.009378158,0.008224174,0.007577779,0.007437655,0.007047361,0.006689175,0.00617817,0.004562797,0.00421259,0.004018962,0.003129901,0.002673327,0.002210838,0.001970465,0.001808563,0.001602843,0.001512508,0.001264997,0.001180758,0.001068725,0.0007532,0.000602225,0.000504334,0.000540956,0.000531177,0.000487155,0.0005097,0.000552731,0.000537665,0.00050334,0.000488603,0.000470802,0.000454359,0.000454633,0.000361676,0.000352275,0.000314083,0.000297584,0.000281285,0.000264524,0.000249057,0.000247183,0.000263973,0.000276877,0.000258862,0.000216183,0.000174966,0.000139627,4.83E-05,NGAsubRSN1002304_ADKBH1.AT2,NGAsubRSN1002304_ADKBH2.AT2,NGAsubRSN1002304_ADKBHZ.AT2
3001943,3000271,3000464,7.99,14,72,243.3463999,240.0982367,389.6503569,389.9896256,339.82,-999,61,-999,-999,-999,99,99,-999,0.084978,30.415,16.082,0.08500008,0.08506872,0.08508819,0.08512171,0.08517378,0.0851882,0.08521936,0.08527194,0.08529104,0.08537073,0.08541448,0.08545767,0.08547931,0.08550195,0.08554874,0.08560039,0.08570111,0.08576441,0.08593552,0.08605098,0.08622251,0.08643614,0.08683514,0.08707722,0.08724,0.08751816,0.08818548,0.08851218,0.08959452,0.0901999,0.09070834,0.09003025,0.09112734,0.09079204,0.0929717,0.09198999,0.0912441,0.09347878,0.09012794,0.0938251,0.09211826,0.08800322,0.08897037,0.0919788,0.09229587,0.09314383,0.09608792,0.09679461,0.09878106,0.1016596,0.1001732,0.09766711,0.1038122,0.1057792,0.1096074,0.116496,0.1126588,0.1079807,0.1127367,0.1132393,0.1165419,0.1263153,0.1536944,0.1735078,0.1670969,0.1630954,0.1511886,0.1327593,0.1284014,0.1390062,0.1414435,0.1419301,0.1491354,0.180711,0.2192824,0.2638238,0.3054862,0.3163795,0.3306751,0.2783189,0.2591819,0.2615016,0.3120312,0.3345688,0.2700853,0.194813,0.169056,0.1511907,0.1288087,0.1161527,0.09722465,0.07546178,0.06079359,0.06231569,0.0544841,0.04592872,0.03711308,0.03423718,0.03163664,0.02462706,0.01825069,0.01617088,0.01556228,0.01479648,0.01324126,0.00998789,0.007783052,0.005739913,0.004883855,0.004302624,0.001927646,NGAsubRSN3001943_CDAFN90W.AT2,NGAsubRSN3001943_CDAFS00E.AT2,NGAsubRSN3001943_CDAFVERT.AT2
3001944,3000271,3000465,7.99,14,72,242.7396812,239.4832891,388.8802058,389.2201458,339.86,-999,53,-999,-999,-999,99,99,-999,0.075395,40.994,25.92,0.07539767,0.07540636,0.07540878,0.07541279,0.07541895,0.07542074,0.07542446,0.07543059,0.07543264,0.07544134,0.07544561,0.07545077,0.07545287,0.07545555,0.07545869,0.0754621,0.0754814,0.0754989,0.07552185,0.07553983,0.07554065,0.07558092,0.07563057,0.07570655,0.07575221,0.07572327,0.07592513,0.07602835,0.07620927,0.0761593,0.07620435,0.07655142,0.07680432,0.07698238,0.07710475,0.07793306,0.07869196,0.0794497,0.08080899,0.08256261,0.08397476,0.0841114,0.08307146,0.0836556,0.08300713,0.08203982,0.08227803,0.08555406,0.0879629,0.09259719,0.09911066,0.1050167,0.1182571,0.1229561,0.1258972,0.1178058,0.1130105,0.1074342,0.10798,0.1084234,0.1096202,0.1186526,0.1525978,0.1837678,0.1689081,0.1629017,0.1683358,0.1808912,0.2014892,0.2482858,0.2974386,0.2745,0.2005776,0.15889,0.1478216,0.1185116,0.1203747,0.1270253,0.1294332,0.1361629,0.1403793,0.1527057,0.2062305,0.2192315,0.2809535,0.3231578,0.3579906,0.3557358,0.3248428,0.2931175,0.2328523,0.1644668,0.1423424,0.1235757,0.1054259,0.07764509,0.06169697,0.05451785,0.04165314,0.03174497,0.0252787,0.02106494,0.01885339,0.0171856,0.01605926,0.01265213,0.009904235,0.008378722,0.007520732,0.006278294,0.002941614,NGAsubRSN3001944_CDAON00E.AT2,NGAsubRSN3001944_CDAON90E.AT2,NGAsubRSN3001944_CDAOVERT.AT2
3001945,3000271,3000466,7.99,14,72,232.6316381,229.2316994,378.7227019,379.071751,331.17,-999,292,-999,-999,-999,99,99,-999,0.032001,9.222,7.9729,0.03200499,0.03201808,0.03202182,0.0320274,0.03203614,0.03203839,0.03204314,0.03205108,0.03205426,0.03206807,0.03207584,0.03208252,0.03208608,0.03208966,0.03209746,0.03210547,0.03212525,0.03215348,0.03218809,0.03220518,0.03222378,0.03224379,0.03226602,0.03228751,0.03234738,0.03240005,0.0324424,0.03253896,0.03286103,0.03301419,0.03308224,0.03338804,0.03324333,0.03315422,0.03419044,0.03479413,0.03528602,0.03594611,0.03791307,0.0393502,0.04203759,0.04500946,0.04837577,0.05015665,0.04693242,0.04847362,0.05620876,0.05642248,0.05361277,0.05035489,0.04760677,0.0486564,0.04895372,0.04896076,0.04738459,0.05022402,0.05883651,0.06870511,0.06746741,0.07908793,0.08201008,0.08826982,0.08966085,0.1004674,0.1002875,0.1081287,0.1090297,0.09104595,0.08581641,0.101727,0.09708217,0.08125268,0.07848853,0.08160141,0.08742437,0.08329886,0.08510801,0.0844625,0.08904438,0.069585,0.07229211,0.07912333,0.06372496,0.0497436,0.045289,0.03629307,0.03558531,0.03297989,0.02850782,0.02563142,0.02330911,0.02105876,0.01841286,0.01972084,0.02011744,0.01852617,0.02036697,0.01837341,0.01306033,0.01012247,0.007845696,0.008538857,0.008640563,0.009055174,0.008976998,0.007688846,0.006045155,0.005103617,0.004263248,0.003372765,0.001313855,NGAsubRSN3001945_CU01N90W.AT2,NGAsubRSN3001945_CU01S00E.AT2,NGAsubRSN3001945_CU01VERT.AT2
3001946,3000271,3000467,7.99,14,72,232.6316381,229.2316994,378.7227019,379.071751,331.17,-999,292,-999,-999,-999,99,99,-999,0.034128,9.4713,7.9046,0.03413611,0.03415971,0.03416516,0.03417393,0.03418767,0.03419149,0.03419919,0.03421229,0.03421691,0.03423563,0.03424567,0.03425694,0.03426314,0.03427178,0.03428862,0.03430383,0.03434674,0.03438952,0.03443183,0.03445217,0.034484,0.03453456,0.03458948,0.03464039,0.03468052,0.03475967,0.03483672,0.03512593,0.03545461,0.03563615,0.03562236,0.03647074,0.03701943,0.03754826,0.03725499,0.03770564,0.03876633,0.03919507,0.0415004,0.04506715,0.04796806,0.05162487,0.04997577,0.04915211,0.04829944,0.05155063,0.05918287,0.05946951,0.05903404,0.05323185,0.05294216,0.05456609,0.05452191,0.05538173,0.05526378,0.055631,0.06041814,0.06839365,0.07361653,0.07415587,0.07579141,0.08852156,0.08990218,0.09995855,0.1001515,0.1094025,0.1072167,0.08705454,0.08564823,0.09943565,0.1003905,0.0802494,0.07677998,0.0827964,0.09035867,0.09020217,0.08524723,0.08414167,0.09117828,0.07223341,0.07115141,0.07817328,0.06407515,0.05080669,0.04564458,0.03721533,0.0364704,0.03363487,0.02851046,0.02479787,0.02196476,0.02043631,0.01873865,0.01973223,0.01990983,0.01837014,0.02006972,0.01878433,0.01367211,0.01039977,0.008201742,0.008515243,0.008783104,0.009135558,0.008944688,0.007314649,0.005381172,0.004434367,0.003634126,0.002917859,0.001118869,NGAsubRSN3001946_CUIPN00E.AT2,NGAsubRSN3001946_CUIPN90W.AT2,NGAsubRSN3001946_CUIPVERT.AT2
3001947,3000271,3000468,7.99,14,72,232.6316381,229.2316994,378.7227019,379.071751,331.17,-999,292,-999,-999,-999,99,99,-999,0.036608,9.4927,6.8152,0.03661409,0.03663266,0.03663788,0.03664668,0.03666006,0.03666373,0.03667141,0.03668421,0.0366887,0.03670824,0.03671825,0.03672999,0.03673611,0.0367421,0.03675551,0.03677538,0.03682663,0.0368603,0.03690668,0.03692072,0.03692964,0.03695485,0.03701228,0.03706853,0.03715109,0.03726173,0.03731364,0.03747948,0.03766847,0.03808795,0.03833544,0.03863483,0.03859866,0.03977207,0.03939435,0.03924204,0.04016704,0.04131709,0.04149862,0.04336714,0.0449865,0.04635688,0.04765433,0.04853481,0.05088444,0.05347682,0.05254082,0.05341419,0.05492069,0.0633276,0.0671929,0.0711989,0.06347966,0.0665336,0.0684785,0.07892464,0.08508433,0.07640142,0.07080903,0.07323215,0.07468457,0.08114851,0.09063675,0.0985492,0.1064715,0.1101994,0.1140772,0.1103015,0.08086482,0.07925352,0.07374498,0.06406928,0.07242042,0.07883102,0.07673262,0.07714284,0.08882005,0.09110308,0.08434853,0.06025022,0.04535243,0.04097837,0.03943246,0.04393563,0.04285604,0.03691538,0.03530065,0.03325934,0.03166147,0.02895319,0.02337,0.02107792,0.01781279,0.01631824,0.01666203,0.01636351,0.01841615,0.01726748,0.01274481,0.01003851,0.007752982,0.008590418,0.008684034,0.009270546,0.009130466,0.007339928,0.005682498,0.0047342,0.003682281,0.002864977,0.000943318,NGAsubRSN3001947_CUMVN90W.AT2,NGAsubRSN3001947_CUMVS00E.AT2,NGAsubRSN3001947_CUMVVERT.AT2
3001948,3000271,3000469,7.99,14,72,239.145973,235.8399655,384.5237425,384.8675305,339.2,-999,69,-999,-999,-999,99,99,-999,0.14303,50.584,20.496,0.1430472,0.1430863,0.1430974,0.1431158,0.143145,0.1431539,0.1431745,0.1432077,0.1432183,0.1432613,0.1432767,0.1432906,0.1433028,0.1433189,0.1433529,0.1433865,0.1434637,0.1435583,0.1436593,0.14368,0.1436694,0.1438192,0.1438342,0.1438765,0.1439141,0.1444647,0.1445233,0.1446363,0.1456027,0.1463544,0.1461446,0.145181,0.1474054,0.1535839,0.1536055,0.1552001,0.1600247,0.160685,0.1546247,0.161665,0.1667772,0.1720573,0.1770537,0.1782766,0.1812624,0.1813073,0.182776,0.180485,0.1731971,0.1733258,0.174038,0.1753875,0.1824131,0.1927743,0.1977829,0.2202263,0.2503371,0.2394025,0.2093873,0.2415477,0.2652623,0.2888543,0.2435027,0.2054551,0.2032956,0.2054885,0.2057183,0.2180422,0.2330165,0.2309202,0.2421836,0.258364,0.31539,0.3586777,0.4175325,0.5334101,0.6591179,0.8204348,0.6262209,0.5335217,0.5411646,0.564701,0.4455864,0.2880585,0.2036034,0.1579209,0.1434879,0.1245644,0.1069452,0.09378539,0.08155208,0.07013281,0.06046456,0.0544355,0.04923094,0.04621334,0.04217926,0.04020686,0.0338462,0.02413951,0.01931379,0.01724219,0.01587353,0.01406827,0.01336026,0.01230399,0.01025257,0.007898222,0.006465586,0.005372101,0.002517678,NGAsubRSN3001948_SCT1N90W.AT2,NGAsubRSN3001948_SCT1S00E.AT2,NGAsubRSN3001948_SCT1VERT.AT2
3001949,3000271,3000470,7.99,14,72,315.8370802,313.3412743,468.7152713,468.9973486,355.55,-999,429,-999,-999,-999,99,99,-999,0.032418,7.3233,3.277,0.03242305,0.03244093,0.03244391,0.03245557,0.03247798,0.0324857,0.03249297,0.03249873,0.03250239,0.03252545,0.03253214,0.03255633,0.03256408,0.03257274,0.03259113,0.0326337,0.03262255,0.03273533,0.03278155,0.03273941,0.03282936,0.03287084,0.03286557,0.03289032,0.03292198,0.03288845,0.03373501,0.03433412,0.03445541,0.03473428,0.03479453,0.03489438,0.03581223,0.0367647,0.03756826,0.03753057,0.03660385,0.03680444,0.04055267,0.03806533,0.0376944,0.03736781,0.03842368,0.04011924,0.04108965,0.04003716,0.04391974,0.04567669,0.04613882,0.04734309,0.05270862,0.04598829,0.04613692,0.04753949,0.04906642,0.04798141,0.04769176,0.05686205,0.06440706,0.07649474,0.07858336,0.08290608,0.08984368,0.09258687,0.1007963,0.1091058,0.1019136,0.1037021,0.1379828,0.1029244,0.09041037,0.07703784,0.07773239,0.08655287,0.07895923,0.08716673,0.0768756,0.07074451,0.05721988,0.05234823,0.04640436,0.04216381,0.03994602,0.03469673,0.02931732,0.02512304,0.02313302,0.02171786,0.0182618,0.01558834,0.01513787,0.01461007,0.01449731,0.01383535,0.01132089,0.009357635,0.008182681,0.005281664,0.004222455,0.003859897,0.003245948,0.002925408,0.002591063,0.002332965,0.002361621,0.002532228,0.002338759,0.001975866,0.001630525,0.001169486,0.000465772,NGAsubRSN3001949_SXPUN00E.AT2,NGAsubRSN3001949_SXPUN90E.AT2,NGAsubRSN3001949_SXPUVERT.AT2
3001950,3000271,3000471,7.99,14,72,235.1812975,231.818756,380.9423079,381.2893251,334.49,-999,281,-999,-999,-999,99,99,-999,0.045962,10.89,6.5009,0.04596771,0.04598569,0.04599071,0.04599923,0.04601251,0.04601619,0.04602399,0.04603573,0.0460403,0.04605817,0.04607134,0.04608195,0.04608657,0.04609118,0.04610204,0.0461148,0.04614035,0.04617948,0.04623357,0.04625633,0.04628808,0.0463404,0.04642066,0.04645085,0.04654284,0.04662145,0.04678337,0.04675999,0.04682942,0.04701962,0.0472034,0.04781638,0.04844512,0.04830659,0.04927267,0.05050704,0.05147371,0.05171837,0.05330897,0.05584209,0.05749239,0.05765929,0.05859561,0.05895786,0.06076156,0.06054509,0.06297661,0.06623755,0.06918088,0.07004899,0.0829272,0.0970336,0.1034635,0.1088422,0.1152841,0.1263611,0.1352263,0.1416691,0.1464321,0.1338883,0.1399664,0.1415102,0.1476197,0.1575277,0.1262844,0.1151126,0.1062406,0.1041313,0.08961939,0.09276603,0.09826596,0.08795624,0.07873063,0.07515806,0.0661302,0.06918109,0.06567566,0.06898282,0.0693336,0.06860765,0.07784759,0.08185376,0.0706051,0.07743733,0.07108432,0.05698248,0.04970905,0.04398983,0.03309022,0.03120063,0.02434614,0.02294423,0.02061948,0.01854565,0.01974451,0.01978274,0.01891193,0.01801055,0.01458648,0.009801263,0.0080947,0.007060427,0.006537967,0.005956645,0.005655258,0.005012757,0.004013058,0.003788011,0.003116993,0.00240486,0.000873314,NGAsubRSN3001950_SXVIN00E.AT2,NGAsubRSN3001950_SXVIN90E.AT2,NGAsubRSN3001950_SXVIVERT.AT2
3001951,3000271,3000472,7.99,14,72,235.4942058,232.1361969,380.3165388,380.6641264,337.64,-999,568,-999,-999,-999,99,99,-999,0.033962,10.231,8.5348,0.03397137,0.03399935,0.0340072,0.03402046,0.0340411,0.03404676,0.03405864,0.03407883,0.03408575,0.03411501,0.03413094,0.03414479,0.03415146,0.03415841,0.03417297,0.03418816,0.0342333,0.03427408,0.03433588,0.03435601,0.03437719,0.03442633,0.03450008,0.03458362,0.03468098,0.0347881,0.03489147,0.03517355,0.03541123,0.03583274,0.03593703,0.03626131,0.03706611,0.03734262,0.03808801,0.0381811,0.04005107,0.04067322,0.0458182,0.05486371,0.05292925,0.04840038,0.04492614,0.04491553,0.04616973,0.04608263,0.04872938,0.05517067,0.06383879,0.06247791,0.05908314,0.06214625,0.06816264,0.06676501,0.06372446,0.05600063,0.06028534,0.06680424,0.06916,0.06485474,0.06521773,0.07553363,0.09282819,0.09687656,0.1030318,0.07941551,0.07476689,0.0668038,0.05917374,0.06418415,0.07677123,0.07242479,0.06589577,0.05357857,0.05038031,0.04784507,0.04210566,0.04334345,0.04556277,0.05361147,0.06175151,0.06461236,0.05446495,0.04806416,0.04157155,0.0355652,0.03298377,0.03213951,0.03516598,0.03382834,0.03012474,0.02582367,0.02298642,0.02492687,0.02858128,0.02976096,0.02533145,0.02201135,0.0157308,0.01125103,0.008882214,0.008477587,0.008817466,0.00918688,0.009051839,0.008115326,0.006254349,0.005585894,0.004591758,0.00368138,0.001658185,NGAsubRSN3001951_TACYN90W.AT2,NGAsubRSN3001951_TACYS00E.AT2,NGAsubRSN3001951_TACYVERT.AT2
3001952,3000271,3000473,7.99,14,72,246.359122,243.1512079,394.3795531,394.7147569,335.71,-999,62,-999,-999,-999,99,99,-999,0.11575,57.063,38.093,0.1157512,0.1157632,0.1157667,0.1157724,0.1157815,0.115784,0.1157888,0.1157974,0.1158007,0.1158129,0.115821,0.1158284,0.1158333,0.1158375,0.1158437,0.1158544,0.1158695,0.115905,0.115954,0.1159667,0.1159533,0.1160009,0.1161681,0.1161852,0.1160626,0.1159893,0.1160074,0.1165824,0.1172532,0.1182514,0.1185724,0.1197856,0.1220406,0.1241611,0.1248455,0.1242573,0.1248111,0.1245806,0.1253277,0.1241829,0.1218872,0.1210184,0.1212604,0.1213839,0.1223967,0.1217463,0.1237447,0.1241128,0.1227214,0.1229589,0.1224584,0.1263056,0.1296824,0.1314598,0.1336826,0.134396,0.1306044,0.1195605,0.1284325,0.1335648,0.1362472,0.1391392,0.1516961,0.1499437,0.1549336,0.1746277,0.1781478,0.1828864,0.1964574,0.2089277,0.1970325,0.2033007,0.2373857,0.2852528,0.3849854,0.503808,0.5887337,0.5637219,0.3453634,0.3309684,0.3208889,0.3252929,0.2650273,0.257383,0.3046594,0.3686493,0.3857039,0.3726169,0.3068494,0.2238235,0.2087903,0.2065463,0.2187893,0.2090977,0.2264885,0.2198205,0.1892324,0.140743,0.09482656,0.06335077,0.04750125,0.03987151,0.03396637,0.02998665,0.0259994,0.02015984,0.01656763,0.01398461,0.01111942,0.009261654,0.004241024,NGAsubRSN3001952_TLHBN00E.AT2,NGAsubRSN3001952_TLHBN90W.AT2,NGAsubRSN3001952_TLHBVERT.AT2
3001953,3000271,3000474,7.99,14,72,244.4800077,241.247108,392.1500954,392.4872033,335.6,-999,62,-999,-999,-999,99,99,-999,0.11201,37.686,19.3,0.1120172,0.1120326,0.1120369,0.1120442,0.1120553,0.1120583,0.1120649,0.1120756,0.1120789,0.1121066,0.1121215,0.1121402,0.1121474,0.1121535,0.1121695,0.1121896,0.1122352,0.1122755,0.1123351,0.1123642,0.1124393,0.1125292,0.1126313,0.1128024,0.1129084,0.1129924,0.1131582,0.1138637,0.1151636,0.1157193,0.1159044,0.1160676,0.1158881,0.11686,0.1169208,0.1166953,0.1169059,0.1177314,0.1234203,0.1250018,0.123157,0.1233569,0.1275713,0.1301885,0.1315474,0.1280613,0.1262091,0.1267162,0.1292015,0.1386747,0.1378819,0.1331758,0.1376085,0.1352582,0.1324217,0.1278232,0.1382089,0.1398327,0.159428,0.161692,0.1593125,0.1631922,0.1823566,0.1878394,0.169205,0.1839602,0.1809885,0.1924722,0.23681,0.2564546,0.2578618,0.2503358,0.2600205,0.2467352,0.2507506,0.3319381,0.3824894,0.3713639,0.3567992,0.3336971,0.2959911,0.2435994,0.1803784,0.1585516,0.1525632,0.1727061,0.1894386,0.1959848,0.1923844,0.1425725,0.102772,0.08829296,0.07297581,0.07283592,0.06838121,0.07068701,0.06669643,0.05909361,0.04438657,0.03259502,0.025818,0.01960341,0.01863878,0.01620026,0.01388201,0.01065449,0.009247189,0.007342826,0.005786943,0.004493145,0.002241,NGAsubRSN3001953_TLHDN00E.AT2,NGAsubRSN3001953_TLHDN90W.AT2,NGAsubRSN3001953_TLHDVERT.AT2
3001954,3000271,3000475,7.99,14,72,126.3972812,124.7042414,250.6981238,251.2251116,61.16,-999,429,-999,-999,-999,99,99,-999,0.055161,6.0378,3.6054,0.05526391,0.05576669,0.05667737,0.05776609,0.05742434,0.05967943,0.06287237,0.06200025,0.06277528,0.06372414,0.06473395,0.06446049,0.06528751,0.06592595,0.0667577,0.06698845,0.06598292,0.06394684,0.06896178,0.06850689,0.06791486,0.07328925,0.08695316,0.09285931,0.1006003,0.1266814,0.1417358,0.1480789,0.1405671,0.1534194,0.1440126,0.128356,0.1169179,0.1494809,0.1646364,0.1782005,0.1495957,0.1470528,0.136526,0.1129769,0.1121622,0.1233971,0.1142104,0.1256409,0.1358949,0.1391652,0.124798,0.1234098,0.1193933,0.11008,0.1213569,0.1088502,0.08457203,0.07771849,0.07194746,0.07893822,0.07947656,0.08414645,0.1036009,0.1020226,0.09722342,0.09333353,0.1010521,0.09575578,0.09106173,0.078629,0.07770326,0.06471999,0.06253632,0.05226888,0.05027881,0.05000542,0.04490899,0.03334253,0.03203752,0.03378326,0.03393893,0.03562694,0.03781117,0.02569601,0.02253813,0.02216804,0.01816672,0.01115799,0.009298913,0.009434314,0.01013793,0.01073409,0.01128745,0.01096398,0.01125992,0.01133783,0.01084308,0.01086859,0.01067648,0.008462538,0.00621249,0.005143678,0.005122635,0.005388114,0.00529084,0.005327426,0.005514191,0.005650802,0.005272641,0.004067704,0.002933621,0.002037519,0.001453819,0.001140522,0.000445409,NGAsubRSN3001954_ATYCN00E.AT2,NGAsubRSN3001954_ATYCN90E.AT2,NGAsubRSN3001954_ATYCVERT.AT2
