Record Sequence Number,EQID,SSN,Earthquake Magnitude,Dip (deg),Rake Angle (deg),ClstD (km),Rjb (km),Repi (km),Rhyp (km),Rx,Source to Site Azimuth (deg),Preferred Vs30,GMX_C1,GMX_C2,GMX_C3,Dur,AI,minFreq,PGA (g),PGV (cm/sec),PGD (cm),T0.010s,T0.020s,T0.022s,T0.025s,T0.029s,T0.030s,T0.032s,T0.035s,T0.036s,T0.040s,T0.042s,T0.044s,T0.045s,T0.046s,T0.048s,T0.050s,T0.055s,T0.060s,T0.065s,T0.067s,T0.070s,T0.075s,T0.080s,T0.085s,T0.090s,T0.095s,T0.100s,T0.110s,T0.120s,T0.130s,T0.133s,T0.140s,T0.150s,T0.160s,T0.170s,T0.180s,T0.190s,T0.200s,T0.220s,T0.240s,T0.250s,T0.260s,T0.280s,T0.290s,T0.300s,T0.320s,T0.340s,T0.350s,T0.360s,T0.380s,T0.400s,T0.420s,T0.440s,T0.450s,T0.460s,T0.480s,T0.500s,T0.550s,T0.600s,T0.650s,T0.667s,T0.700s,T0.750s,T0.800s,T0.850s,T0.900s,T0.950s,T1.000s,T1.100s,T1.200s,T1.300s,T1.400s,T1.500s,T1.600s,T1.700s,T1.800s,T1.900s,T2.000s,T2.200s,T2.400s,T2.500s,T2.600s,T2.800s,T3.000s,T3.200s,T3.400s,T3.500s,T3.600s,T3.800s,T4.000s,T4.200s,T4.400s,T4.600s,T4.800s,T5.000s,T5.500s,T6.000s,T6.500s,T7.000s,T7.500s,T8.000s,T8.500s,T9.000s,T9.500s,T10.000s,T11.000s,T12.000s,T13.000s,T14.000s,T15.000s,T20.000s,File Name (Horizontal 1),File Name (Horizontal 2),File Name (Vertical)
4000244,4000001,4000244,9.12,11.98161712,88,42.8337186,23.0602807,316.7607216,317.2435693,154.31,-999,248.8,-999,-999,-999,99,99,-999,0.14609,16.956,38.056,0.1462431,0.1466952,0.1468236,0.1470554,0.1475382,0.1476739,0.1479655,0.1484594,0.1486308,0.1491805,0.1495278,0.1502033,0.1506628,0.151302,0.1529869,0.154299,0.1560533,0.1553245,0.1609058,0.1630529,0.1661885,0.1748275,0.1773177,0.1635397,0.1706911,0.1674737,0.1967508,0.1905606,0.1956968,0.2010532,0.1952191,0.177794,0.2052103,0.2133399,0.2513317,0.2836184,0.3030001,0.3264043,0.4147437,0.3663417,0.3854469,0.4750704,0.5339279,0.4537618,0.3959305,0.3856299,0.3932746,0.3660605,0.3308384,0.2971867,0.3379217,0.3344966,0.3772902,0.3973688,0.405188,0.390201,0.3698284,0.3532183,0.2795965,0.2672959,0.263623,0.2759685,0.2388506,0.2156677,0.186909,0.2236599,0.2174293,0.1989849,0.1721423,0.1674902,0.16259,0.1398675,0.1317742,0.1292222,0.1205491,0.1367879,0.1220153,0.105394,0.07647584,0.06929131,0.07090665,0.06560737,0.0569774,0.04421288,0.03962462,0.03532111,0.03352716,0.03475327,0.03271631,0.03056605,0.02424835,0.02125134,0.01973123,0.01797859,0.01630301,0.01893457,0.01751195,0.01712852,0.0144084,0.01262474,0.01087489,0.008720229,0.007826423,0.008165134,0.0083875,0.007315049,0.006547927,0.006297285,0.005751771,0.005604198,0.005532388,NGAsubRSN4000244_E40-EW.AT2,NGAsubRSN4000244_E40-NS.AT2,NGAsubRSN4000244_E40-UD.AT2
4000321,4000001,4000321,9.12,11.98161712,88,163.0768212,156.0776715,266.7945429,267.3676413,329.57,-999,375,-999,-999,-999,99,99,-999,0.07287,16.748,66.821,0.07307956,0.07368305,0.0738399,0.07418809,0.07496311,0.07525991,0.07584726,0.07702707,0.07772839,0.07999051,0.08099549,0.08148243,0.08095497,0.07982174,0.07889517,0.07892726,0.08086089,0.07942463,0.08395772,0.08471959,0.08639163,0.09256689,0.1026688,0.1140508,0.1274097,0.1419926,0.1504201,0.1931909,0.2267866,0.2002972,0.1992451,0.1910449,0.1594272,0.1538005,0.1495295,0.1644216,0.1712394,0.166194,0.1573536,0.1713743,0.1547176,0.1525816,0.1866224,0.1999287,0.1919588,0.2002357,0.171596,0.1679151,0.1498579,0.1489815,0.1611365,0.1680471,0.1785624,0.1845915,0.185445,0.1955476,0.1979234,0.180046,0.1698703,0.1448822,0.1449525,0.1483574,0.1388021,0.1442593,0.1331434,0.1294611,0.1251013,0.1220322,0.1256812,0.1149861,0.1021379,0.08680073,0.08495128,0.08197679,0.07818,0.09339265,0.1096436,0.1129806,0.09314503,0.08018644,0.07103255,0.0693812,0.07788023,0.07655725,0.0946616,0.100116,0.09769329,0.09193422,0.07456607,0.06555002,0.06575911,0.06631713,0.05985431,0.05170562,0.04519735,0.03778883,0.0319125,0.02277773,0.01604422,0.01157726,0.009985126,0.009700817,0.008981655,0.008708511,0.008291054,0.007679149,0.008514155,0.008860624,0.007633064,0.007067535,0.003549382,NGAsubRSN4000321_AKTH16W2.AT2,NGAsubRSN4000321_AKTH16S2.AT2,NGAsubRSN4000321_AKTH16D2.AT2
4000322,4000001,4000322,9.12,11.98161712,88,143.178797,135.1530904,249.706461,250.3186852,308.53,-999,288.8,-999,-999,-999,99,99,-999,0.09964,15.076,65.303,0.09983192,0.1004464,0.1006383,0.1010334,0.1018809,0.1021553,0.1022877,0.1023103,0.1018898,0.1046787,0.1047553,0.1034165,0.103646,0.1045942,0.107102,0.1084289,0.1114915,0.1145682,0.1231171,0.1271883,0.1324557,0.1367891,0.1420597,0.132034,0.129314,0.1370285,0.1448993,0.1650895,0.1952177,0.2286527,0.23941,0.2731966,0.3146847,0.3095785,0.3417887,0.4123282,0.4098943,0.3678197,0.4030419,0.3691088,0.3153739,0.3128391,0.3237925,0.2976451,0.2822142,0.2276845,0.2171773,0.2159339,0.2172944,0.228442,0.1978793,0.2058511,0.2232896,0.2285488,0.2274599,0.2069761,0.2032604,0.1805082,0.1552748,0.1657384,0.1544173,0.1640842,0.1614592,0.1443984,0.1338651,0.1362952,0.1451052,0.1218883,0.1032202,0.09739137,0.09826741,0.09190822,0.09131169,0.09935713,0.09472244,0.09615821,0.09721419,0.07820559,0.07540201,0.07011485,0.06092402,0.06829877,0.07707623,0.06123156,0.0639487,0.06385992,0.05784141,0.05226078,0.04380112,0.03657126,0.03537529,0.03419882,0.03355062,0.02956167,0.02505,0.02248823,0.01972304,0.01136704,0.01146217,0.01031784,0.009601839,0.009691413,0.009618781,0.009375366,0.01011983,0.007894082,0.007574413,0.008127154,0.005860025,0.004595146,0.002987737,NGAsubRSN4000322_AKTH17W2.AT2,NGAsubRSN4000322_AKTH17S2.AT2,NGAsubRSN4000322_AKTH17D2.AT2
4000348,4000001,4000348,9.12,11.98161712,88,44.5236211,24.6977181,319.015882,319.4953215,157.11,-999,200.7,-999,-999,-999,99,99,-999,0.15251,17.768,45.355,0.1526827,0.1532174,0.1533708,0.1536985,0.1540434,0.1541228,0.1537055,0.154762,0.1551418,0.1571324,0.1561732,0.1549391,0.1547769,0.155176,0.1565922,0.1578588,0.1573544,0.1569915,0.1580664,0.1605248,0.1639214,0.1680391,0.1678557,0.1827628,0.2030304,0.196757,0.19751,0.1948046,0.2029941,0.255228,0.2590719,0.241037,0.3084795,0.3706153,0.3761249,0.3615227,0.3264516,0.3491158,0.3493178,0.3151291,0.2936152,0.3653765,0.3938761,0.4047968,0.3963944,0.4313974,0.4086545,0.4171873,0.4022417,0.3583985,0.3480611,0.2976694,0.2667842,0.2536869,0.2311757,0.2322321,0.2143005,0.2705809,0.2557179,0.2502626,0.2676261,0.2809241,0.279794,0.2724291,0.2605019,0.2484536,0.2722062,0.2374857,0.2112787,0.1969989,0.1893931,0.1502049,0.144464,0.1373761,0.1210539,0.09356442,0.1008,0.09075419,0.06957787,0.0755453,0.07539546,0.07233112,0.05442546,0.0413862,0.03684067,0.03844583,0.03925008,0.03919136,0.03045399,0.02552244,0.0232455,0.0228786,0.02021648,0.01752788,0.01659899,0.01762058,0.01641689,0.01451778,0.01212839,0.01016118,0.00807668,0.007119113,0.007453931,0.00821176,0.008578832,0.007244288,0.006252505,0.006311501,0.006154424,0.005649399,0.005348037,NGAsubRSN4000348_CHBH14W2.AT2,NGAsubRSN4000348_CHBH14S2.AT2,NGAsubRSN4000348_CHBH14D2.AT2
4000359,4000001,4000359,9.12,11.98161712,88,134.2043644,125.6065339,274.7091068,275.2657277,302.23,-999,245.9,-999,-999,-999,99,99,-999,0.17912,15.456,55.937,0.1794912,0.1809572,0.1813467,0.181952,0.1833615,0.1839625,0.1843175,0.1864933,0.1861122,0.1871318,0.1889205,0.1898696,0.1895935,0.1901039,0.1894874,0.1921259,0.1850958,0.1997687,0.1919607,0.1959293,0.2032865,0.2157904,0.2152958,0.219551,0.2224248,0.2391777,0.2549874,0.3324114,0.3309328,0.3955708,0.4263544,0.4296113,0.4236686,0.5588141,0.5977325,0.6169742,0.5852473,0.50892,0.4938784,0.5108837,0.5223184,0.5382459,0.5437229,0.569643,0.6463357,0.6986655,0.6824443,0.6281909,0.5771323,0.6230127,0.6532696,0.6066701,0.482331,0.4536573,0.444091,0.4011517,0.4050375,0.3054839,0.2853435,0.2392248,0.2351356,0.2171243,0.186162,0.1955203,0.2087856,0.1775822,0.1410627,0.1325065,0.1134145,0.1084286,0.1023588,0.09396972,0.08870675,0.0944726,0.08931378,0.0801578,0.08226437,0.07694514,0.07858203,0.07105605,0.06390524,0.05177369,0.04370717,0.04444919,0.04664008,0.04400134,0.0432982,0.04015996,0.04506631,0.03857043,0.03465899,0.03461902,0.02927605,0.02438889,0.02452447,0.02104925,0.0187207,0.01490179,0.01282039,0.01174254,0.01062774,0.009118916,0.007332412,0.006576685,0.006219304,0.005381342,0.006965811,0.006977511,0.006372935,0.005404643,0.003522584,NGAsubRSN4000359_FKSH04W2.AT2,NGAsubRSN4000359_FKSH04S2.AT2,NGAsubRSN4000359_FKSH04D2.AT2
4000369,4000001,4000369,9.12,11.98161712,88,101.42699,89.741987,218.0782705,218.77902,265.72,-999,531.6,-999,-999,-999,99,99,-999,0.27479,23.083,76.869,0.2763961,0.281577,0.2834819,0.2865693,0.2915468,0.2943959,0.2965006,0.29519,0.2949285,0.2974949,0.3009076,0.2957127,0.2922241,0.2895803,0.2798589,0.2789776,0.3187868,0.3313972,0.3646058,0.3746668,0.4043426,0.4671131,0.4576258,0.4702171,0.4887131,0.5121885,0.5103853,0.6048621,0.648301,0.5958962,0.5794825,0.5905679,0.5729663,0.5460848,0.5523446,0.5816008,0.5973774,0.5584428,0.6328685,0.695914,0.6518444,0.6358109,0.6212491,0.6225483,0.5825552,0.5899318,0.5217302,0.4879898,0.4614446,0.4365466,0.4149256,0.3676242,0.309286,0.3098189,0.3070945,0.3266753,0.3473372,0.3114029,0.287047,0.2898597,0.2716077,0.2586962,0.2611902,0.2707314,0.2797554,0.2559936,0.2412377,0.210601,0.2056321,0.268713,0.2598307,0.239964,0.2132718,0.1886937,0.1561086,0.1509214,0.1163794,0.104525,0.09075271,0.07243711,0.06986391,0.06972326,0.0658811,0.04585574,0.0400092,0.03172911,0.03551136,0.03621482,0.03341164,0.02740122,0.02687762,0.02892763,0.0273095,0.02495589,0.02264223,0.02069708,0.01678229,0.01273867,0.009551232,0.008526322,0.007462645,0.007197644,0.007092072,0.007744433,0.007922802,0.009877508,0.01227852,0.01169184,0.008122332,0.00762169,0.004251722,NGAsubRSN4000369_FKSH16W2.AT2,NGAsubRSN4000369_FKSH16S2.AT2,NGAsubRSN4000369_FKSH16D2.AT2
4000427,4000001,4000427,9.12,11.98161712,88,44.4509502,17.487548,314.9922679,315.4778223,168.18,-999,243.9,-999,-999,-999,99,99,-999,0.20797,22.867,84.62,0.2082532,0.2096127,0.2101606,0.2103904,0.2130869,0.2129316,0.2130144,0.2190439,0.2208855,0.2202072,0.2139673,0.2199857,0.2248266,0.2297147,0.2299855,0.2325615,0.2365278,0.2439736,0.2552792,0.2667556,0.2712971,0.2766771,0.3092921,0.3240632,0.3389451,0.3293402,0.3801342,0.4404695,0.4408053,0.4413719,0.4386871,0.4606325,0.4279542,0.4441482,0.4598814,0.5049279,0.6089172,0.6267614,0.4563196,0.4524307,0.3922233,0.3845146,0.4164424,0.4082676,0.4688699,0.5578259,0.5755891,0.5786833,0.5504121,0.5366475,0.5446916,0.5800831,0.5859547,0.5265532,0.504042,0.4851639,0.512853,0.474234,0.460753,0.4521392,0.4379011,0.4138552,0.4080529,0.3408597,0.3169242,0.2631603,0.2095634,0.2003492,0.2095662,0.1996524,0.1828691,0.177202,0.1588992,0.134887,0.1520874,0.1457325,0.1295417,0.1262559,0.1002857,0.08908367,0.09829716,0.1070933,0.09562393,0.07621837,0.07984143,0.08851036,0.09390146,0.09659938,0.1054995,0.1037645,0.07957328,0.06487007,0.05290051,0.04592022,0.04385358,0.03760545,0.02740021,0.02470202,0.0199812,0.0150967,0.01158695,0.01088034,0.01147384,0.01125712,0.01055379,0.009036432,0.007893909,0.007376341,0.006288349,0.006341551,0.006480108,NGAsubRSN4000427_IBRH20W2.AT2,NGAsubRSN4000427_IBRH20S2.AT2,NGAsubRSN4000427_IBRH20D2.AT2
4000457,4000001,4000457,9.12,11.98161712,88,109.0470972,98.2723732,224.0293529,224.711545,271.39,-999,337.5,-999,-999,-999,99,99,-999,0.20152,17.378,115.19,0.2018808,0.2028999,0.2031472,0.2036575,0.2045691,0.2040862,0.2045326,0.2064058,0.207,0.2109527,0.2130998,0.2121858,0.2119351,0.2108317,0.2071294,0.2120004,0.2163641,0.2129003,0.2229589,0.2308635,0.2426586,0.2762924,0.2833769,0.3007953,0.3476498,0.386948,0.4000142,0.3983014,0.419032,0.5102802,0.5237609,0.5440894,0.5758317,0.6768581,0.7095451,0.8150231,0.7491544,0.7246284,0.5552936,0.5028325,0.488146,0.5297492,0.5232965,0.5545166,0.5377613,0.5178805,0.4802217,0.4574327,0.4146,0.3621696,0.3346291,0.3773795,0.4218796,0.4466198,0.4435785,0.4338515,0.4843881,0.4698519,0.433387,0.366064,0.3690009,0.3870186,0.384145,0.3447941,0.3194724,0.3076396,0.3107985,0.2558565,0.2438926,0.2580109,0.2183643,0.1808859,0.1858981,0.1485844,0.116121,0.09818599,0.09656752,0.07998184,0.07395024,0.06209992,0.06291123,0.05902434,0.05195962,0.0484239,0.03873794,0.03697196,0.03302319,0.03238887,0.02883132,0.03025962,0.02659806,0.0235907,0.02195968,0.01876528,0.01650659,0.01443389,0.01375904,0.01449423,0.01340248,0.01280502,0.01010526,0.008857761,0.008210712,0.007786429,0.007692479,0.009509859,0.009101934,0.008085896,0.006915733,0.005947706,0.002893209,NGAsubRSN4000457_IWTH15W2.AT2,NGAsubRSN4000457_IWTH15S2.AT2,NGAsubRSN4000457_IWTH15D2.AT2
4000463,4000001,4000463,9.12,11.98161712,88,54.183083,26.4952148,155.2258133,156.2087726,199.82,-999,922.9,-999,-999,-999,99,99,-999,0.40238,17.384,203.83,0.4068436,0.4219342,0.4258987,0.4427496,0.4816779,0.497216,0.5548508,0.6985077,0.7140222,0.781778,0.8213595,0.9167544,0.9250331,0.9126852,0.8258239,0.8422374,0.8267429,0.778026,0.7746376,0.7990421,0.8933659,1.066918,1.47679,1.688386,1.93952,1.948101,1.909349,2.003353,1.743687,1.671821,1.58058,1.339836,1.134823,0.9268746,0.8327603,0.720627,0.6629933,0.6420629,0.6413559,0.5706907,0.5744136,0.584049,0.6507635,0.6111552,0.5812388,0.5231622,0.4310007,0.4207918,0.4169703,0.4824011,0.4381752,0.3489977,0.3283972,0.3602369,0.3746022,0.3603955,0.3544901,0.3468749,0.2507991,0.2088403,0.2051095,0.1851822,0.1837012,0.1866628,0.1719656,0.1523076,0.1453207,0.1290131,0.1191912,0.09431592,0.07760201,0.07729505,0.07131657,0.06075192,0.04887493,0.04054647,0.04006678,0.0398449,0.03317502,0.02984907,0.02950895,0.03048761,0.03055723,0.02835079,0.02741344,0.02879535,0.02743572,0.02446767,0.02236992,0.0185319,0.01732454,0.0164671,0.01767726,0.01858197,0.01850624,0.01432271,0.01182619,0.01045104,0.009432871,0.009965754,0.01088207,0.01073679,0.01011972,0.00879004,0.008543788,0.009229084,0.009308914,0.007723012,0.008038554,0.008312481,0.004667392,NGAsubRSN4000463_IWTH23W2.AT2,NGAsubRSN4000463_IWTH23S2.AT2,NGAsubRSN4000463_IWTH23D2.AT2
4000482,4000001,4000482,9.12,11.98161712,88,153.7003403,146.2531523,428.4275324,428.7846523,299.66,-999,388.4,-999,-999,-999,99,99,-999,0.098072,11.764,44.593,0.09826513,0.09885196,0.09901861,0.0992895,0.09992106,0.1002153,0.1006254,0.1009846,0.1012112,0.1017135,0.1006881,0.1021386,0.1040465,0.1054058,0.106499,0.1076563,0.1095701,0.1090302,0.1121177,0.1128525,0.113612,0.1212407,0.1252506,0.128958,0.1373709,0.155574,0.1594038,0.2152624,0.2223784,0.2346836,0.2352768,0.2317738,0.2249819,0.212294,0.1932435,0.1835526,0.1990809,0.2260683,0.2328927,0.2907382,0.3533849,0.3937101,0.3649716,0.3270846,0.3284492,0.3742844,0.4440493,0.4289761,0.384131,0.2657722,0.2373271,0.2437754,0.268569,0.2775024,0.2784182,0.260441,0.2214472,0.1832331,0.1547654,0.1364158,0.1262236,0.1204704,0.1054008,0.1178518,0.1115488,0.1080137,0.1230997,0.1239104,0.1080346,0.08838755,0.06630769,0.06187934,0.05367701,0.05744883,0.05002182,0.04978422,0.04817205,0.04383407,0.04536128,0.04441289,0.03876132,0.03411882,0.0276142,0.0244866,0.02230047,0.01953923,0.01773463,0.01688164,0.01745344,0.01632229,0.0142552,0.01156653,0.01026644,0.009830949,0.009346937,0.009920943,0.01126842,0.0112367,0.008198585,0.007227091,0.007064802,0.007272868,0.006967592,0.006495649,0.005563992,0.004050094,0.00433463,0.004359263,0.0045952,0.004073521,0.004564333,NGAsubRSN4000482_KNGH18W2.AT2,NGAsubRSN4000482_KNGH18S2.AT2,NGAsubRSN4000482_KNGH18D2.AT2
4000485,4000001,4000485,9.12,11.98161712,88,153.5196102,146.0632077,436.2015525,436.552313,286.16,-999,792.5,-999,-999,-999,99,99,-999,0.039291,10.005,45.932,0.03937887,0.03966118,0.0397494,0.03989385,0.04001376,0.04004264,0.04031061,0.04058724,0.04060927,0.04135267,0.04160092,0.04150703,0.04134962,0.04120391,0.04129979,0.04185805,0.04308066,0.04297346,0.0448672,0.04504985,0.04617338,0.04710039,0.04741025,0.05084769,0.05491478,0.05636687,0.0641522,0.08466553,0.09870932,0.1011565,0.09920468,0.1176219,0.1088726,0.08785973,0.09515519,0.1121766,0.1176121,0.1014054,0.08071148,0.06077461,0.05850335,0.06132405,0.07008365,0.07352591,0.07327241,0.06878064,0.06316196,0.06471987,0.06370671,0.06601167,0.06880667,0.07437022,0.07765096,0.07517742,0.07043108,0.06074093,0.05929267,0.05559464,0.05020344,0.04682667,0.05072329,0.05048306,0.05551701,0.05550947,0.05362096,0.04970867,0.0552476,0.05230113,0.05187598,0.04783907,0.05096841,0.05842862,0.06347846,0.06822298,0.07403693,0.08090544,0.0920827,0.09340385,0.07115069,0.04534041,0.03754927,0.03284731,0.02475914,0.02223712,0.01764243,0.01577644,0.01623506,0.01629364,0.01468266,0.0140196,0.01430522,0.01355009,0.01157624,0.01086939,0.01076916,0.01003201,0.01013842,0.01058097,0.008922824,0.008953305,0.007990593,0.006606824,0.006676488,0.006573744,0.006121354,0.00494526,0.004306022,0.003894328,0.00359373,0.003581417,0.005768287,NGAsubRSN4000485_KNGH21W2.AT2,NGAsubRSN4000485_KNGH21S2.AT2,NGAsubRSN4000485_KNGH21D2.AT2
4000518,4000001,4000518,9.12,11.98161712,88,67.9428718,48.8100784,150.1623035,151.1781893,223,-999,849.8,-999,-999,-999,99,99,-999,0.5154,20.924,151.21,0.5204096,0.5370672,0.5418935,0.5454473,0.6014884,0.626543,0.6559823,0.701932,0.7227344,0.8422272,0.8655116,0.816419,0.7892565,0.799234,0.8116978,0.8201023,0.8415316,0.8402224,0.9292678,0.9637583,1.074023,1.229175,1.226586,1.351665,1.514108,1.648314,1.890887,1.907469,2.068533,2.412689,2.285131,2.32871,2.340339,1.934678,1.590317,1.331501,1.247915,1.14259,0.9204142,0.859833,0.7896508,0.7404006,0.5708634,0.5410888,0.5113247,0.5524102,0.5022931,0.5310742,0.5744842,0.5763225,0.5268942,0.4338064,0.3859196,0.3914193,0.3933404,0.3658104,0.3651806,0.3101676,0.2475295,0.2308661,0.2440406,0.2512951,0.1855787,0.1710218,0.1703277,0.1477325,0.1353253,0.1282591,0.1077377,0.09553677,0.09545453,0.08801347,0.08583301,0.07281054,0.06486914,0.07147063,0.07425204,0.07189582,0.06207091,0.05573001,0.0497844,0.04497809,0.04114218,0.03848491,0.03547846,0.03111106,0.02947232,0.02934139,0.02841661,0.02456368,0.02156864,0.01781769,0.01484132,0.01449822,0.01554155,0.01707578,0.01568012,0.01503378,0.01471231,0.01053969,0.01105481,0.0124423,0.01107317,0.009844217,0.009750783,0.010612,0.01089263,0.00815557,0.00763342,0.008822589,0.006644037,NGAsubRSN4000518_MYGH04W2.AT2,NGAsubRSN4000518_MYGH04S2.AT2,NGAsubRSN4000518_MYGH04D2.AT2
4000521,4000001,4000521,9.12,11.98161712,88,79.2677145,63.6361571,173.1252761,174.0071514,238.95,-999,203.4,-999,-999,-999,99,99,-999,0.26505,36.188,259.01,0.2666798,0.2725958,0.2744987,0.2782069,0.278205,0.2807471,0.3005685,0.3091222,0.3100796,0.3299029,0.3612922,0.3877541,0.3868567,0.3817512,0.3803693,0.392717,0.4373026,0.519146,0.6097341,0.5902414,0.6679634,0.7675776,0.7643057,0.6884987,0.7238172,0.7696132,0.7247419,0.6515385,0.5802319,0.6081041,0.5921926,0.5544245,0.5242257,0.59023,0.7461708,0.7510034,0.7520335,0.7162765,0.562417,0.5279666,0.544802,0.5793137,0.5704589,0.5579912,0.5750038,0.5160121,0.50368,0.484066,0.4484586,0.4310594,0.408857,0.3835025,0.3597968,0.34538,0.340489,0.3531558,0.3531516,0.4027524,0.4059255,0.412367,0.4268212,0.4290956,0.3980313,0.3663822,0.3098484,0.2639625,0.2762489,0.2454176,0.2286173,0.2780576,0.2889584,0.3190573,0.3181644,0.3609655,0.3520633,0.3269717,0.2866706,0.2556335,0.1906543,0.1363687,0.1289671,0.1217442,0.1078568,0.08507983,0.0681796,0.05962591,0.06078734,0.05905468,0.05456738,0.05311875,0.04584173,0.03992048,0.03653806,0.0353664,0.03300092,0.02760119,0.02397483,0.02052999,0.01861299,0.01819176,0.01855821,0.01971357,0.01766619,0.01808709,0.01800229,0.0156912,0.01301032,0.009911461,0.007544797,0.008680231,0.007835358,NGAsubRSN4000521_MYGH08W2.AT2,NGAsubRSN4000521_MYGH08S2.AT2,NGAsubRSN4000521_MYGH08D2.AT2
