Record Sequence Number,EQID,SSN,Earthquake Magnitude,Dip (deg),Rake Angle (deg),ClstD (km),Rjb (km),Repi (km),Rhyp (km),Rx,Source to Site Azimuth (deg),Preferred Vs30,GMX_C1,GMX_C2,GMX_C3,Dur,AI,minFreq,PGA (g),PGV (cm/sec),PGD (cm),T0.010s,T0.020s,T0.022s,T0.025s,T0.029s,T0.030s,T0.032s,T0.035s,T0.036s,T0.040s,T0.042s,T0.044s,T0.045s,T0.046s,T0.048s,T0.050s,T0.055s,T0.060s,T0.065s,T0.067s,T0.070s,T0.075s,T0.080s,T0.085s,T0.090s,T0.095s,T0.100s,T0.110s,T0.120s,T0.130s,T0.133s,T0.140s,T0.150s,T0.160s,T0.170s,T0.180s,T0.190s,T0.200s,T0.220s,T0.240s,T0.250s,T0.260s,T0.280s,T0.290s,T0.300s,T0.320s,T0.340s,T0.350s,T0.360s,T0.380s,T0.400s,T0.420s,T0.440s,T0.450s,T0.460s,T0.480s,T0.500s,T0.550s,T0.600s,T0.650s,T0.667s,T0.700s,T0.750s,T0.800s,T0.850s,T0.900s,T0.950s,T1.000s,T1.100s,T1.200s,T1.300s,T1.400s,T1.500s,T1.600s,T1.700s,T1.800s,T1.900s,T2.000s,T2.200s,T2.400s,T2.500s,T2.600s,T2.800s,T3.000s,T3.200s,T3.400s,T3.500s,T3.600s,T3.800s,T4.000s,T4.200s,T4.400s,T4.600s,T4.800s,T5.000s,T5.500s,T6.000s,T6.500s,T7.000s,T7.500s,T8.000s,T8.500s,T9.000s,T9.500s,T10.000s,T11.000s,T12.000s,T13.000s,T14.000s,T15.000s,T20.000s,File Name (Horizontal 1),File Name (Horizontal 2),File Name (Vertical)
3001955,3000271,3000476,7.99,14,72,18.4430943,8.1485868,133.381043,134.3689327,44.33,-999,392,-999,-999,-999,99,99,-999,0.14698,18.769,14.164,0.1471818,0.148163,0.1488058,0.1508749,0.1548841,0.1531766,0.1564472,0.1574234,0.1572385,0.1711515,0.168585,0.1776633,0.1821843,0.1868549,0.1980095,0.2144335,0.2156565,0.2279145,0.2061063,0.2103728,0.2221104,0.2245457,0.2351746,0.2779394,0.2781985,0.2534999,0.3131078,0.3815599,0.5104893,0.4379816,0.4016847,0.3103875,0.3309714,0.3837538,0.349302,0.3459458,0.3050705,0.2980744,0.3144867,0.3025137,0.3048957,0.308185,0.3470415,0.3798468,0.396256,0.3593985,0.3623104,0.3546296,0.3276437,0.2988091,0.2941897,0.3282089,0.3303666,0.3252643,0.3120605,0.292182,0.3077923,0.3190184,0.2582406,0.2257857,0.2332276,0.2213151,0.174001,0.1483601,0.1329926,0.1383594,0.170784,0.188444,0.2120936,0.161168,0.1459438,0.1542994,0.1787137,0.1864228,0.1719092,0.1510603,0.1337285,0.132948,0.121473,0.1099517,0.09986263,0.08726899,0.0619347,0.04910873,0.04370863,0.04115666,0.03993714,0.03729708,0.03286466,0.02669628,0.02256694,0.02070808,0.02020722,0.01975918,0.01903385,0.01746584,0.02125506,0.02212407,0.01825576,0.01531495,0.01292489,0.01076493,0.009440194,0.008979045,0.008841791,0.008209086,0.009292222,0.009232597,0.008687149,0.00749834,0.00290627,NGAsubRSN3001955_AZIHN90W.AT2,NGAsubRSN3001955_AZIHS00E.AT2,NGAsubRSN3001955_AZIHVERT.AT2
3001956,3000271,3000477,7.99,14,72,10.8818076,0,23.0838353,28.2377566,20.92,-999,-999,-999,-999,-999,99,99,-999,0.13891,16.689,10.258,0.139474,0.140781,0.141282,0.1430863,0.1489545,0.1499196,0.1540326,0.1565672,0.1590035,0.1718169,0.1792761,0.1789307,0.1840806,0.1861899,0.1894039,0.1943723,0.2056916,0.2153,0.2551719,0.2679396,0.2732078,0.275641,0.3101135,0.3369892,0.3727188,0.351887,0.2963408,0.301463,0.3310528,0.3717846,0.3658631,0.3586052,0.3503826,0.2954233,0.2997362,0.3094735,0.3275278,0.3540493,0.3484719,0.2818533,0.285963,0.3103329,0.3009192,0.2781099,0.2691427,0.2935436,0.3094254,0.3297774,0.3273797,0.3158696,0.2761715,0.3172691,0.3338624,0.3157766,0.2957992,0.2842822,0.294083,0.3184536,0.283836,0.2626997,0.2577963,0.2453649,0.2368933,0.2477058,0.2386245,0.2046329,0.2017896,0.1836297,0.2148605,0.1546006,0.1471252,0.1278478,0.1115213,0.1116476,0.1152067,0.1277587,0.1447354,0.1627264,0.1449037,0.1165098,0.1084871,0.09324545,0.06682348,0.05317221,0.04871015,0.05022654,0.04884901,0.04568048,0.03528397,0.02515398,0.02282556,0.02168923,0.02046254,0.02014404,0.01983826,0.02043786,0.01925199,0.01811313,0.01782855,0.01735413,0.01636303,0.01513054,0.01372407,0.01224878,0.01141493,0.009417103,0.007643653,0.005912712,0.004434457,0.003416452,0.001312752,NGAsubRSN3001956_CALEN00E.AT2,NGAsubRSN3001956_CALEN90E.AT2,NGAsubRSN3001956_CALEVERT.AT2
3001957,3000271,3000478,7.99,14,72,150.5013848,149.3048995,274.810328,275.2911619,54.22,-999,353,-999,-999,-999,99,99,-999,0.042072,3.7004,1.4454,0.04218344,0.04254779,0.04292807,0.04327069,0.04411205,0.0447891,0.04482339,0.04379206,0.04414974,0.04576668,0.04745412,0.04806583,0.04771222,0.04738062,0.04761388,0.04765113,0.04875498,0.05068742,0.05706485,0.05811065,0.05553065,0.05859579,0.05934186,0.05806325,0.05853081,0.05341092,0.05408593,0.06256742,0.07302147,0.08419643,0.0889408,0.1027032,0.1207533,0.1079712,0.1005997,0.1009946,0.1047937,0.1175226,0.1318716,0.1316134,0.1213983,0.102774,0.116251,0.112431,0.1014378,0.0905012,0.09553504,0.09666584,0.08599004,0.06966673,0.06564065,0.06022132,0.06541125,0.06650086,0.06533837,0.06245065,0.05592143,0.06289918,0.06506033,0.0634866,0.06125705,0.05966956,0.05573899,0.05423335,0.06132388,0.07561588,0.0758674,0.06700786,0.04435283,0.03678901,0.03317403,0.03040976,0.02694034,0.02579457,0.02221529,0.02287701,0.02318764,0.02162788,0.01719134,0.01776876,0.01671679,0.01537229,0.0133946,0.01015519,0.009113412,0.008826337,0.0089991,0.009049488,0.008952905,0.008749356,0.0086741,0.008108721,0.007304342,0.006404568,0.005551334,0.004191703,0.003367451,0.002647112,0.002081071,0.001657269,0.001345727,0.001116343,0.000944885,0.000813795,0.000711141,0.000562163,0.000457832,0.000382114,0.00032456,0.000279551,0.000152448,NGAsubRSN3001957_CAYAN00E.AT2,NGAsubRSN3001957_CAYAN90E.AT2,NGAsubRSN3001957_CAYAVERT.AT2
3001958,3000271,3000479,7.99,14,72,166.71866,165.5525218,291.1949576,291.6487799,57.3,-999,429,-999,-999,-999,99,99,-999,0.036623,6.2062,2.2016,0.03676578,0.03713043,0.03748992,0.03809367,0.03859609,0.03861145,0.03871091,0.03952542,0.0396933,0.04016204,0.04096003,0.04065818,0.04040534,0.04020024,0.03995029,0.04092207,0.04067321,0.04382231,0.04782918,0.04722264,0.04666629,0.05587327,0.05844258,0.05942157,0.06431788,0.0672525,0.07073969,0.07723857,0.09140916,0.1040003,0.1092138,0.1255501,0.1241039,0.1383677,0.1538152,0.142035,0.1389877,0.1167367,0.09650499,0.08676595,0.08732168,0.08690524,0.08453088,0.07991449,0.07739125,0.07331911,0.08307368,0.0849996,0.08391851,0.07613275,0.0626747,0.0692401,0.06992722,0.06895896,0.06706145,0.06279822,0.06219941,0.0780925,0.08038168,0.07368285,0.07142463,0.06132245,0.05909538,0.05495599,0.0634863,0.06597608,0.07329939,0.07099339,0.04921219,0.04689491,0.0404755,0.04754549,0.04836215,0.04003486,0.03689902,0.03706638,0.03693752,0.0376071,0.03829807,0.03644148,0.03529989,0.03281504,0.02535285,0.01877341,0.01512682,0.01326739,0.01294749,0.01295601,0.0130348,0.01282853,0.01221947,0.01128346,0.01026909,0.009182257,0.008075257,0.005539265,0.004032869,0.00359859,0.003391737,0.002982459,0.002353203,0.001870739,0.001531438,0.001297714,0.001084949,0.000843063,0.000667096,0.000546878,0.000468267,0.000406515,0.000227933,NGAsubRSN3001958_COYCN90W.AT2,NGAsubRSN3001958_COYCS00E.AT2,NGAsubRSN3001958_COYCVERT.AT2
3001959,3000271,3000480,7.99,14,72,223.3389068,222.3970086,348.1366696,348.5163528,60.63,-999,392,-999,-999,-999,99,99,-999,0.02082,3.0303,1.0738,0.02083354,0.0208809,0.02089151,0.02091014,0.02099077,0.02095681,0.02089277,0.02109668,0.02115113,0.02110968,0.02100046,0.02105133,0.02103317,0.02106136,0.02122074,0.02131301,0.02140765,0.02197899,0.02299262,0.02312121,0.02303107,0.02253683,0.02222835,0.02241808,0.02354491,0.02543571,0.02579168,0.02656159,0.02930897,0.03066012,0.03025213,0.02951154,0.0305335,0.03116565,0.02766768,0.02591292,0.0254134,0.02651992,0.02873682,0.03067856,0.02975752,0.0326451,0.03534304,0.03852784,0.03959513,0.03937841,0.03841706,0.03934829,0.04003652,0.03906465,0.03928875,0.03895374,0.04451887,0.04494176,0.04362609,0.04237043,0.0449947,0.05877376,0.05901717,0.05288255,0.04850608,0.0431475,0.05083755,0.05303189,0.05041272,0.0583459,0.06124825,0.05448377,0.04717837,0.04067279,0.03342502,0.03243989,0.0298816,0.03213741,0.02922561,0.02268433,0.01797672,0.01365754,0.01236005,0.01069161,0.01024044,0.009258155,0.008840759,0.008395816,0.007766996,0.007697322,0.007715425,0.007442547,0.007749486,0.008296694,0.008656794,0.008635772,0.007648118,0.006417349,0.005750066,0.004225179,0.003150913,0.002538678,0.001979579,0.001590011,0.00133278,0.001043259,0.000824191,0.000703695,0.000606602,0.000463365,0.000365813,0.000296957,0.000246628,0.000208706,0.000113512,NGAsubRSN3001959_CPDRN90W.AT2,NGAsubRSN3001959_CPDRS00E.AT2,NGAsubRSN3001959_CPDRVERT.AT2
3001960,3000271,3000481,7.99,14,72,227.3286758,225.5146147,354.728335,355.1009703,94.41,-999,517,-999,-999,-999,99,99,-999,0.020072,2.8163,0.81416,0.02011366,0.02022263,0.02033242,0.02069708,0.02096225,0.02109312,0.02094853,0.02094415,0.02112385,0.02190069,0.0221632,0.02223771,0.02233598,0.02241341,0.02270884,0.02307741,0.02230066,0.02282339,0.02437738,0.02511233,0.02507114,0.02540798,0.02537443,0.02798446,0.03057415,0.03388648,0.03689389,0.04815144,0.04999374,0.04506797,0.04184168,0.03760617,0.0298524,0.03149526,0.03491363,0.0308605,0.02774103,0.02862405,0.0277503,0.02921973,0.02602682,0.02519534,0.02895796,0.03099206,0.03356741,0.03269901,0.03775763,0.0391601,0.03762012,0.03682505,0.0414071,0.04584473,0.04644032,0.04652703,0.04593109,0.04305079,0.03914688,0.03076714,0.03054611,0.0265882,0.02518575,0.02762758,0.02869024,0.03036499,0.02901205,0.02784737,0.03141143,0.036706,0.0423965,0.03442786,0.0238858,0.02182886,0.02510833,0.02753849,0.02490279,0.02299,0.02162548,0.02234571,0.01521946,0.01219455,0.01111614,0.01039823,0.01097009,0.01040507,0.01061289,0.009883396,0.009483898,0.008928794,0.00781614,0.006451811,0.005204988,0.004293087,0.003473861,0.002954029,0.002465949,0.001583642,0.001253493,0.000994898,0.000830573,0.000707569,0.000612529,0.00053054,0.000474997,0.0004257,0.000382978,0.000311976,0.000256758,0.000213459,0.000180082,0.000155636,8.67E-05,NGAsubRSN3001960_MSASN00E.AT2,NGAsubRSN3001960_MSASN90E.AT2,NGAsubRSN3001960_MSASVERT.AT2
3001961,3000271,3000482,7.99,14,72,64.6160507,62.7508735,187.9520045,188.6543491,39.65,-999,517,-999,-999,-999,99,99,-999,0.14861,9.9198,7.6342,0.1501747,0.1566834,0.1577318,0.165152,0.1776123,0.1825635,0.1918276,0.2063413,0.2227382,0.211945,0.2306562,0.2380693,0.2458996,0.2438039,0.2679023,0.2606568,0.271118,0.3384442,0.3302493,0.3564183,0.3678316,0.3701011,0.4124424,0.3928286,0.3838163,0.3660169,0.3718306,0.3553481,0.4560433,0.5141463,0.5071036,0.502529,0.4032908,0.3631203,0.3969171,0.3531997,0.3538419,0.3336466,0.2983468,0.2616481,0.235391,0.2130585,0.2135947,0.2197511,0.1996365,0.1732539,0.1732018,0.1856903,0.1900654,0.1623792,0.1452668,0.1656246,0.1781477,0.1860389,0.1888767,0.1948772,0.202696,0.1770243,0.1218649,0.1009701,0.1033633,0.1113044,0.0974337,0.108223,0.08767089,0.08801199,0.08304762,0.08221611,0.089444,0.08737447,0.06880303,0.05096467,0.04098416,0.04403513,0.04710525,0.04737803,0.0444475,0.03761645,0.02838103,0.02676341,0.02607675,0.02489924,0.02428047,0.01975874,0.0150336,0.01195026,0.01099866,0.01033101,0.009631339,0.009425644,0.009115098,0.008582688,0.00831,0.008714288,0.009464969,0.0103103,0.009735999,0.009339238,0.008814441,0.009053414,0.009000943,0.008302081,0.007545169,0.006969098,0.006430647,0.005925997,0.005508537,0.004919351,0.004248601,0.003536555,0.001283094,NGAsubRSN3001961_PAPNN90W.AT2,NGAsubRSN3001961_PAPNS00E.AT2,NGAsubRSN3001961_PAPNVERT.AT2
3001962,3000271,3000483,7.99,14,72,106.6658274,105.0938152,230.5140465,231.0870682,51.35,-999,517,-999,-999,-999,99,99,-999,0.091246,11.495,7.1431,0.0913735,0.09214373,0.09261915,0.09271628,0.09304232,0.09288747,0.0929397,0.09259038,0.09275404,0.09289411,0.09318361,0.09344963,0.093268,0.09391312,0.09458896,0.09528864,0.09779464,0.09926681,0.09788368,0.09658356,0.09553828,0.1021075,0.1076302,0.1100788,0.1108845,0.1083353,0.1144585,0.1174864,0.1198618,0.1365383,0.1353262,0.1398546,0.1317097,0.1478186,0.1684495,0.1903373,0.1904866,0.1989081,0.2001878,0.1709669,0.1695023,0.1618997,0.1727538,0.1873392,0.1980542,0.1911575,0.2205801,0.2327155,0.2381129,0.2137109,0.233352,0.238291,0.2421784,0.2569131,0.2680813,0.2531082,0.2441134,0.2481223,0.2911456,0.2824751,0.2668234,0.2311036,0.1871927,0.1537232,0.1556617,0.1548371,0.1428449,0.1177584,0.0939809,0.08079787,0.07271679,0.06746078,0.06176327,0.06108949,0.06813344,0.07500114,0.06004585,0.04844313,0.04555207,0.03261523,0.0259953,0.02331053,0.02089945,0.01711231,0.01629809,0.01684519,0.01701937,0.01728309,0.01641227,0.01450284,0.01435266,0.0135268,0.01320463,0.01245733,0.01154492,0.00994175,0.008926689,0.007637148,0.007643641,0.00843351,0.008602473,0.00785147,0.007014287,0.006575694,0.006100386,0.005737699,0.005126026,0.004731251,0.004118097,0.003334985,0.001133078,NGAsubRSN3001962_SUCHN90W.AT2,NGAsubRSN3001962_SUCHS00E.AT2,NGAsubRSN3001962_SUCHVERT.AT2
3001963,3000271,3000484,7.99,14,72,180.5404267,176.1378398,332.3724926,332.7701628,248.56,-999,517,-999,-999,-999,99,99,-999,0.03674,6.7772,4.575,0.03675736,0.03685195,0.03689919,0.03693019,0.0369688,0.03694691,0.0373073,0.0373047,0.03741253,0.03726777,0.0371176,0.03737436,0.03758704,0.03771538,0.03775665,0.03754572,0.03760892,0.03780939,0.03811647,0.03779896,0.03808874,0.0400443,0.04006375,0.04133731,0.04046404,0.03979135,0.04251802,0.05019637,0.05463473,0.05875474,0.05969011,0.05802405,0.05478411,0.0571209,0.05644377,0.05680155,0.05826843,0.06043119,0.05601787,0.05890336,0.05983728,0.05726267,0.06318116,0.06471249,0.06811593,0.07588296,0.0738226,0.07460666,0.07583134,0.08871429,0.08494991,0.08309606,0.07931726,0.08051395,0.08034506,0.0794711,0.09262371,0.1007361,0.1113398,0.1075643,0.1258857,0.1468256,0.1045491,0.07537968,0.06656803,0.06475791,0.07166082,0.07137879,0.07626364,0.08520907,0.06055757,0.05879677,0.05418606,0.05352316,0.06088987,0.05782851,0.04934723,0.04229697,0.03904207,0.03385032,0.03101632,0.02941203,0.03018159,0.03151451,0.02886545,0.02752248,0.02689074,0.0269047,0.02308966,0.01802394,0.01448956,0.01295015,0.0122493,0.0120127,0.01188723,0.012898,0.01316559,0.01201263,0.01008339,0.009493647,0.008840108,0.007604777,0.006440909,0.005459363,0.004564614,0.003189717,0.0024004,0.001812208,0.001384135,0.001081327,0.000500157,NGAsubRSN3001963_TEACN00E.AT2,NGAsubRSN3001963_TEACN90E.AT2,NGAsubRSN3001963_TEACVERT.AT2
3001964,3000271,3000485,7.99,14,72,20.8585342,0,83.7626261,85.32693,62.16,-999,517,-999,-999,-999,99,99,-999,0.15943,17.5,9.6817,0.1598776,0.1622443,0.1638987,0.1658831,0.1812763,0.182374,0.1868017,0.1873772,0.1912263,0.2038671,0.2096258,0.2062728,0.20414,0.2147361,0.2327652,0.231065,0.2218697,0.2511334,0.24661,0.2507502,0.2523257,0.2479704,0.2538577,0.2843877,0.3011312,0.3231968,0.3675425,0.4033317,0.362031,0.3848797,0.4048861,0.4259747,0.4413027,0.4222122,0.4616996,0.4796754,0.4532227,0.4573964,0.4489693,0.4845418,0.4757412,0.5101244,0.4964136,0.467779,0.4990031,0.4493322,0.5075963,0.5188748,0.5134478,0.4115803,0.3930164,0.3803062,0.3627024,0.3523754,0.3376125,0.3339967,0.341614,0.4375884,0.3452627,0.349685,0.3493831,0.3685822,0.353556,0.2778347,0.234168,0.2294813,0.2298286,0.2019456,0.188596,0.1469145,0.1555253,0.1195701,0.09355303,0.0981286,0.0980756,0.1052632,0.09255211,0.0916638,0.09851486,0.1091739,0.1100638,0.09178525,0.06907353,0.05216855,0.04640878,0.04418091,0.04146824,0.03772613,0.03057229,0.02703373,0.02780123,0.02976801,0.03016058,0.02895088,0.02602911,0.02007123,0.01637632,0.0134866,0.01341301,0.0125905,0.01212186,0.01086901,0.009882799,0.00910926,0.008785525,0.008009681,0.006708701,0.005463199,0.004339549,0.003233807,0.001335611,NGAsubRSN3001964_UNION00E.AT2,NGAsubRSN3001964_UNION90E.AT2,NGAsubRSN3001964_UNIOVERT.AT2
3001965,3000271,3000486,7.99,14,72,17.5491173,0,43.342481,46.2933916,48.48,-999,429,-999,-999,-999,99,99,-999,0.11753,16.47,11.909,0.1177374,0.1190747,0.1191606,0.1211176,0.1246068,0.1261495,0.1250762,0.1238372,0.1225322,0.1212215,0.1264505,0.1311673,0.1329815,0.1345958,0.136569,0.1346708,0.1300921,0.140623,0.1302642,0.1284237,0.1292171,0.1377593,0.138336,0.1314747,0.1326977,0.1339971,0.1346292,0.142763,0.1481113,0.1657715,0.1631922,0.1640148,0.1599188,0.1446808,0.1626527,0.1724911,0.1878133,0.2022817,0.1900856,0.2035209,0.230627,0.2476112,0.271869,0.2849441,0.2790253,0.2681557,0.2856812,0.3106111,0.321696,0.2815769,0.3188452,0.29831,0.2703944,0.2785731,0.2858326,0.3224732,0.3421157,0.4427468,0.3359029,0.2599257,0.2425104,0.1914926,0.1508024,0.1517215,0.1493176,0.1471096,0.147183,0.1435786,0.1256827,0.1290108,0.1076837,0.08359043,0.09600154,0.09470041,0.08542618,0.07445125,0.06484736,0.06268614,0.06422857,0.05765079,0.05237113,0.04789154,0.04581242,0.04629528,0.04688132,0.04368031,0.04132435,0.03901311,0.0359659,0.03505408,0.03417853,0.03353502,0.03269979,0.03175385,0.03070343,0.02752291,0.02430641,0.02092844,0.01794134,0.01669984,0.01567319,0.01425405,0.01368139,0.01301778,0.01202066,0.009358492,0.007403465,0.006173432,0.0051797,0.004312656,0.001692446,NGAsubRSN3001965_VILEN00E.AT2,NGAsubRSN3001965_VILEN90E.AT2,NGAsubRSN3001965_VILEVERT.AT2
3001966,3000271,3000487,7.99,14,72,198.951283,197.7623946,323.8884195,324.2964935,65.71,-999,429,-999,-999,-999,99,99,-999,0.019157,3.0686,0.79712,0.01918571,0.0192965,0.01931473,0.01933661,0.0194504,0.01939853,0.01945209,0.01939245,0.01933272,0.01936366,0.01946361,0.01940025,0.0193245,0.01932476,0.01946252,0.01969585,0.02053185,0.02065359,0.02026352,0.02054234,0.02097218,0.02156824,0.0217428,0.02087818,0.02165233,0.02315558,0.02424708,0.02404749,0.02131361,0.02303264,0.02345188,0.02393574,0.02516565,0.02292657,0.02251419,0.02438143,0.02594675,0.02575896,0.02718101,0.02857784,0.02760664,0.03270513,0.03803125,0.04332707,0.0441878,0.04550196,0.04449815,0.04453382,0.04475095,0.04256537,0.0409238,0.04641495,0.05069846,0.05040535,0.05029118,0.04675246,0.04182585,0.03960324,0.03944271,0.04077211,0.04209225,0.04697296,0.05244523,0.04913793,0.04606718,0.03928235,0.03780415,0.03642775,0.03478027,0.03070631,0.0331771,0.03682991,0.03739794,0.03806487,0.0360222,0.0393314,0.03866847,0.03344889,0.02165078,0.01512406,0.01319393,0.01165089,0.009444326,0.007548713,0.005992936,0.005010659,0.004593822,0.004219888,0.003582672,0.003068427,0.002650934,0.002309779,0.002029534,0.001797291,0.001603302,0.001240334,0.000993212,0.00082307,0.000694667,0.000594618,0.000513962,0.00044987,0.000397257,0.000354446,0.00031879,0.000262375,0.000220047,0.000187365,0.00016155,0.000140774,7.94E-05,NGAsubRSN3001966_VNTAN00E.AT2,NGAsubRSN3001966_VNTAN90E.AT2,NGAsubRSN3001966_VNTAVERT.AT2
3001968,3000272,3000476,7.56,14,100,24.3800601,0,37.8752749,42.9057714,52.65,-999,392,-999,-999,-999,99,99,-999,0.15694,16.097,4.9751,0.1573086,0.1597221,0.160144,0.1643819,0.1690333,0.1714591,0.1760255,0.1829959,0.178818,0.1772407,0.178545,0.1853205,0.1816215,0.1820695,0.1872564,0.190991,0.2024766,0.2118553,0.2062989,0.2137274,0.216405,0.235374,0.2697329,0.2378795,0.2445033,0.2297901,0.2370071,0.2715116,0.3218946,0.330278,0.3309763,0.3086379,0.2758969,0.3203271,0.3151277,0.2771276,0.2906176,0.2936093,0.315982,0.3712902,0.3937037,0.3534506,0.372128,0.3883254,0.4445056,0.4834901,0.4430349,0.4256836,0.4058421,0.3549215,0.3278536,0.2928362,0.3060248,0.3083811,0.3000439,0.2680137,0.2795215,0.2582752,0.2709392,0.2687885,0.2710288,0.2334302,0.1867067,0.2020603,0.2299897,0.2663241,0.2763801,0.2458642,0.1936144,0.1899116,0.1939294,0.1894055,0.1557511,0.1215566,0.1091341,0.09914545,0.09041788,0.07774746,0.07131404,0.06178666,0.06090685,0.05913235,0.05942034,0.05909545,0.06283535,0.05930636,0.05624748,0.05242336,0.04236059,0.0333435,0.02682892,0.02306385,0.02019936,0.01763501,0.01530175,0.01298945,0.01107905,0.009055173,0.007689914,0.006480807,0.005585098,0.004764728,0.004013086,0.003369585,0.00284216,0.002173512,0.001783531,0.001465309,0.00121202,0.001008785,0.000511278,NGAsubRSN3001968_AZIHN90W.AT2,NGAsubRSN3001968_AZIHS00E.AT2,NGAsubRSN3001968_AZIHVERT.AT2
