Record Sequence Number,EQID,SSN,Earthquake Magnitude,Dip (deg),Rake Angle (deg),ClstD (km),Rjb (km),Repi (km),Rhyp (km),Rx,Source to Site Azimuth (deg),Preferred Vs30,GMX_C1,GMX_C2,GMX_C3,Dur,AI,minFreq,PGA (g),PGV (cm/sec),PGD (cm),T0.010s,T0.020s,T0.022s,T0.025s,T0.029s,T0.030s,T0.032s,T0.035s,T0.036s,T0.040s,T0.042s,T0.044s,T0.045s,T0.046s,T0.048s,T0.050s,T0.055s,T0.060s,T0.065s,T0.067s,T0.070s,T0.075s,T0.080s,T0.085s,T0.090s,T0.095s,T0.100s,T0.110s,T0.120s,T0.130s,T0.133s,T0.140s,T0.150s,T0.160s,T0.170s,T0.180s,T0.190s,T0.200s,T0.220s,T0.240s,T0.250s,T0.260s,T0.280s,T0.290s,T0.300s,T0.320s,T0.340s,T0.350s,T0.360s,T0.380s,T0.400s,T0.420s,T0.440s,T0.450s,T0.460s,T0.480s,T0.500s,T0.550s,T0.600s,T0.650s,T0.667s,T0.700s,T0.750s,T0.800s,T0.850s,T0.900s,T0.950s,T1.000s,T1.100s,T1.200s,T1.300s,T1.400s,T1.500s,T1.600s,T1.700s,T1.800s,T1.900s,T2.000s,T2.200s,T2.400s,T2.500s,T2.600s,T2.800s,T3.000s,T3.200s,T3.400s,T3.500s,T3.600s,T3.800s,T4.000s,T4.200s,T4.400s,T4.600s,T4.800s,T5.000s,T5.500s,T6.000s,T6.500s,T7.000s,T7.500s,T8.000s,T8.500s,T9.000s,T9.500s,T10.000s,T11.000s,T12.000s,T13.000s,T14.000s,T15.000s,T20.000s,File Name (Horizontal 1),File Name (Horizontal 2),File Name (Vertical)
4001158,4000001,4001158,9.12,11.98161712,88,213.5119372,208.2151226,495.9162274,496.2247798,330.99,-999,318.2,-999,-999,-999,99,99,-999,0.073962,13.733,31.557,0.07406386,0.07452626,0.07465561,0.07479171,0.07496385,0.07503888,0.07525726,0.07563187,0.07572965,0.0761167,0.07633629,0.0765814,0.07680979,0.07697346,0.07739245,0.07780582,0.07938436,0.08020557,0.08030374,0.08065649,0.08143948,0.08332732,0.08457799,0.08621898,0.0877215,0.09020703,0.09230214,0.1094912,0.1260769,0.1604834,0.1477647,0.1388037,0.1562046,0.1340784,0.1384657,0.1257138,0.1473097,0.1638877,0.1340461,0.1689736,0.1811682,0.1927537,0.1882446,0.1997066,0.1987141,0.1821163,0.168931,0.1763105,0.1810999,0.172436,0.1555124,0.1527375,0.1447453,0.1450119,0.1523115,0.1826658,0.1973852,0.2101528,0.1632417,0.1457901,0.145811,0.1383945,0.1177783,0.1211516,0.1201102,0.1354999,0.1454268,0.1332474,0.09800199,0.1021124,0.08455484,0.06566598,0.06524151,0.05779947,0.05974047,0.06342807,0.06823091,0.08049297,0.08224393,0.06209931,0.05428461,0.05240041,0.0483454,0.0356426,0.03440609,0.03201924,0.03214826,0.0308184,0.02810286,0.02720314,0.02581368,0.02184428,0.0174172,0.01414604,0.01412982,0.01285252,0.01129378,0.01025932,0.007001234,0.005632307,0.005278652,0.004985249,0.004316049,0.004069431,0.004196544,0.004313214,0.003446114,0.003613844,0.003530413,0.003674674,0.005417326,NGAsubRSN4001158_SZO011EW.AT2,NGAsubRSN4001158_SZO011NS.AT2,NGAsubRSN4001158_SZO011UD.AT2
4001181,4000001,4001181,9.12,11.98161712,88,100.030841,88.1609839,311.4456118,311.9366869,265.99,-999,566.7,-999,-999,-999,99,99,-999,0.18091,19.81,84.026,0.1823156,0.1867433,0.1888895,0.1927623,0.2006866,0.2062389,0.2136777,0.2229751,0.2300492,0.2656834,0.2676527,0.2801099,0.3048471,0.3283938,0.3436317,0.3465882,0.375411,0.43236,0.4669776,0.4732183,0.5033839,0.4790447,0.4135776,0.4370479,0.3935223,0.3659621,0.3617676,0.3622984,0.3291459,0.3084211,0.2977735,0.3173894,0.3372281,0.3766003,0.3735315,0.4072168,0.4099067,0.3836161,0.3158107,0.2745637,0.2615009,0.2813213,0.3083818,0.3204627,0.343867,0.327374,0.2912764,0.3061422,0.3180274,0.364302,0.3875301,0.3627689,0.3228244,0.2975336,0.2934143,0.2813886,0.2850212,0.2452531,0.2644307,0.2675774,0.2520387,0.2282448,0.2249882,0.2095771,0.2054392,0.1696634,0.1428758,0.1519786,0.1644771,0.1612667,0.1411,0.1288318,0.1377334,0.1737204,0.1903457,0.1865928,0.1672078,0.1253978,0.1072913,0.1070013,0.09063824,0.08136255,0.06891048,0.05502537,0.04158604,0.03239695,0.02957935,0.02803402,0.02793641,0.02492943,0.02065569,0.01945887,0.01719304,0.01642047,0.0166913,0.01600553,0.0155884,0.01435373,0.01071825,0.008487716,0.007960812,0.008057309,0.008750437,0.008147293,0.007602837,0.007030061,0.007356702,0.006571942,0.005699844,0.004688113,0.006641071,NGAsubRSN4001181_TCG007EW.AT2,NGAsubRSN4001181_TCG007NS.AT2,NGAsubRSN4001181_TCG007UD.AT2
4001222,4000001,4001222,9.12,11.98161712,88,167.8314907,161.0391232,432.6626877,433.0163147,322.47,-999,930,-999,-999,-999,99,99,-999,0.052691,7.3058,31.428,0.05332293,0.05519214,0.05570117,0.05683949,0.05912497,0.06126999,0.0659274,0.06838409,0.06934287,0.0626025,0.06581201,0.07211043,0.0746866,0.07487607,0.07142945,0.07444483,0.08994105,0.1030249,0.1171183,0.1214671,0.1224562,0.1289343,0.1726502,0.1945852,0.2009665,0.1913576,0.187213,0.1521259,0.1180032,0.1031991,0.1017157,0.1041689,0.09002757,0.09020613,0.09368697,0.08790029,0.09500953,0.08219603,0.08046415,0.08126637,0.08233723,0.08118391,0.07962649,0.07499509,0.07763401,0.08903218,0.08872954,0.08745726,0.08904809,0.1047123,0.1190188,0.1148618,0.1081193,0.1059752,0.1038229,0.09752548,0.09562256,0.0844152,0.07076057,0.07757836,0.08194497,0.08330021,0.07535827,0.0700857,0.06334161,0.04823461,0.04060549,0.03488738,0.03352217,0.0355211,0.04054131,0.04182624,0.0395321,0.0298741,0.02339339,0.02430726,0.02422323,0.02370151,0.02166299,0.01746931,0.01512631,0.01459905,0.01286327,0.01055132,0.01022949,0.009738994,0.008699344,0.008816603,0.008458748,0.007890782,0.006863656,0.007002595,0.007585596,0.008220457,0.008314475,0.006708697,0.006221264,0.007945342,0.00721555,0.005851311,0.00572315,0.00537079,0.005429769,0.005431035,0.004657874,0.003251603,0.003317436,0.003816983,0.004014573,0.003378766,0.003712728,NGAsubRSN4001222_YMN001EW.AT2,NGAsubRSN4001222_YMN001NS.AT2,NGAsubRSN4001222_YMN001UD.AT2
4001223,4000001,4001223,9.12,11.98161712,88,169.6496768,162.9331236,443.0856034,443.4309185,314.29,-999,300.3,-999,-999,-999,99,99,-999,0.066515,10.901,51.233,0.06670737,0.06729089,0.06741392,0.06760573,0.06888257,0.06906535,0.07026596,0.07337644,0.07474329,0.07697886,0.07940306,0.07810972,0.07743473,0.07637646,0.07574581,0.0777052,0.08200632,0.09065077,0.09434307,0.0995594,0.1091587,0.1078849,0.1001585,0.09535909,0.1023457,0.1149167,0.1153644,0.1220958,0.1549225,0.2245831,0.2477126,0.2821947,0.2788405,0.2531985,0.2329379,0.2302927,0.2072975,0.1992652,0.1830763,0.1743737,0.1597719,0.1617051,0.1374688,0.1329543,0.1540667,0.1589817,0.1730567,0.1751742,0.1620971,0.1420949,0.116626,0.1071031,0.1146383,0.119058,0.1282059,0.1434173,0.1361977,0.09475973,0.08290572,0.1126759,0.1169196,0.1028679,0.07774589,0.07138564,0.06030447,0.06332384,0.05818147,0.06196202,0.06724358,0.06758523,0.06497724,0.04623281,0.04835834,0.0532607,0.06113424,0.0579257,0.05763286,0.05869076,0.0614632,0.04796516,0.03759946,0.03092454,0.03030682,0.03194103,0.03185774,0.02642261,0.0231477,0.02098195,0.02068293,0.02016123,0.0181802,0.01573789,0.01358818,0.01218528,0.01095968,0.01089521,0.01181126,0.01225428,0.009645754,0.00819486,0.00807425,0.006964283,0.005720778,0.005201181,0.004667483,0.004319026,0.003965131,0.003964055,0.004277496,0.003423333,0.004313033,NGAsubRSN4001223_YMN002EW.AT2,NGAsubRSN4001223_YMN002NS.AT2,NGAsubRSN4001223_YMN002UD.AT2
4001239,4000001,4001239,9.12,11.98161712,88,122.0755952,112.555057,215.1772491,215.8874152,287.59,-999,340.7,-999,-999,-999,99,99,-999,0.20303,19.152,56.092,0.2038077,0.2064273,0.207047,0.2083232,0.2108857,0.212166,0.2149146,0.2203289,0.2228467,0.2325659,0.2376421,0.2332227,0.2301844,0.2302505,0.2348189,0.2395189,0.2503663,0.2483012,0.2452828,0.2395017,0.2487895,0.2720613,0.2917562,0.3013535,0.3174131,0.3392445,0.3407799,0.3777326,0.372112,0.376689,0.3770368,0.3713447,0.3740156,0.424849,0.4339056,0.5047479,0.4833969,0.5013349,0.5958921,0.5566519,0.5656141,0.6638456,0.682498,0.6241571,0.546277,0.446141,0.4916779,0.5170473,0.5331306,0.5502248,0.5430092,0.4975863,0.4518191,0.4179991,0.3848404,0.3721795,0.3751288,0.2770734,0.2944999,0.2509531,0.2420448,0.2329391,0.2510018,0.2664264,0.2346187,0.2013258,0.1813046,0.1942553,0.1882189,0.1719905,0.1712618,0.1603032,0.139466,0.1136182,0.1053438,0.09996568,0.09694491,0.09090516,0.08229753,0.05952086,0.05777432,0.06009452,0.06412137,0.05707504,0.05713386,0.04604226,0.04057301,0.03483481,0.03230827,0.0330511,0.03258986,0.02967538,0.02628737,0.02331967,0.01874472,0.01438974,0.01312195,0.01334062,0.01372585,0.01513114,0.01033267,0.009777454,0.009719611,0.009519717,0.008890175,0.008414427,0.00708665,0.007301902,0.005827679,0.006766398,0.004379178,NGAsubRSN4001239_YMT007EW.AT2,NGAsubRSN4001239_YMT007NS.AT2,NGAsubRSN4001239_YMT007UD.AT2
4001240,4000001,4001240,9.12,11.98161712,88,151.3986419,143.8323284,248.997989,249.6119509,319.08,-999,282.2,-999,-999,-999,99,99,-999,0.082439,12.824,34.956,0.0825596,0.08293479,0.08304404,0.08319882,0.08341736,0.08347809,0.08376227,0.0839881,0.08405364,0.0849332,0.08541304,0.08554349,0.08545555,0.08513791,0.08437688,0.08443025,0.08419264,0.08579627,0.08798479,0.08820976,0.08709925,0.08688059,0.09103329,0.09381413,0.09645912,0.09559257,0.09953975,0.1036043,0.1105,0.1218099,0.1237582,0.1249145,0.1243966,0.1297933,0.137149,0.1345254,0.1341331,0.1415658,0.1440872,0.1600011,0.1714308,0.1597698,0.1686661,0.1866043,0.2028039,0.2526982,0.300326,0.3110617,0.3064864,0.3036911,0.2834071,0.2509269,0.2295581,0.2343569,0.2377968,0.2339887,0.2259095,0.2082606,0.1701091,0.2062099,0.2103267,0.1929674,0.1915058,0.1835827,0.2067347,0.1986026,0.1719244,0.1500942,0.1383511,0.1231279,0.1028012,0.1047845,0.09224404,0.0874768,0.08517161,0.08740541,0.07741562,0.08256298,0.07053359,0.06480511,0.05997002,0.05774007,0.04488926,0.03425408,0.03113377,0.028791,0.02761581,0.02776061,0.02545872,0.01770614,0.01683578,0.01558741,0.01740922,0.01895019,0.01771682,0.01432931,0.0144304,0.01142314,0.0108762,0.009622608,0.00924949,0.008831813,0.007311021,0.006254118,0.006366299,0.006297939,0.006534039,0.005548263,0.005842799,0.006424368,0.003910806,NGAsubRSN4001240_YMT008EW.AT2,NGAsubRSN4001240_YMT008NS.AT2,NGAsubRSN4001240_YMT008UD.AT2
4001245,4000001,4001245,9.12,11.98161712,88,158.9903786,151.8029328,268.341743,268.9115441,327.59,-999,444.4,-999,-999,-999,99,99,-999,0.059289,9.5537,32.313,0.05934825,0.05953604,0.05959186,0.05967867,0.05987325,0.06000076,0.06002092,0.06020415,0.06034097,0.06025985,0.06013896,0.05982763,0.05983106,0.05996222,0.06071655,0.06169575,0.06385562,0.06362519,0.06713288,0.0683992,0.06896504,0.07109509,0.07456357,0.07566822,0.07581835,0.0773945,0.08485952,0.09602141,0.1012819,0.1066762,0.1103203,0.1228091,0.1390397,0.1582942,0.1747829,0.1678142,0.1556159,0.1530888,0.2128894,0.1753112,0.1660702,0.1745005,0.1775438,0.1748365,0.1862113,0.2153163,0.2186746,0.20139,0.1797924,0.1584819,0.1715504,0.1763102,0.1783039,0.1632797,0.1558397,0.1564342,0.1436535,0.1500828,0.1229106,0.1103777,0.1067355,0.1040756,0.09626826,0.07989401,0.07167777,0.06595346,0.07095801,0.07345953,0.05961964,0.0433981,0.0375759,0.04075169,0.03355663,0.03176019,0.03645604,0.03691941,0.03314736,0.02936192,0.02598743,0.02443695,0.02545434,0.02389759,0.01979314,0.02228752,0.01964978,0.01789201,0.01626877,0.01502742,0.01320284,0.01253971,0.01179007,0.01122639,0.009616832,0.009649381,0.009247772,0.01013881,0.008696621,0.008990323,0.008080405,0.006679166,0.006455455,0.006623539,0.006600427,0.006454707,0.006333895,0.006969573,0.008017962,0.007360853,0.005802215,0.006012544,0.002959637,NGAsubRSN4001245_YMT013EW.AT2,NGAsubRSN4001245_YMT013NS.AT2,NGAsubRSN4001245_YMT013UD.AT2
4022792,4000068,4000325,8.29,20,90,191.4151084,182.5739952,264.5072277,265.6869937,156.73,-999,302,-999,-999,-999,99,99,-999,0.062406,6.4337,9.8359,0.06250528,0.06286402,0.06291755,0.06310958,0.06348483,0.06346992,0.06351151,0.06400131,0.06429267,0.0653593,0.06574897,0.0657623,0.06575152,0.06580118,0.06518523,0.06452747,0.06557255,0.06883162,0.07012697,0.07122089,0.07138266,0.07409618,0.0770443,0.07996236,0.08521165,0.09026986,0.09822188,0.1148863,0.1618355,0.1315104,0.1287774,0.1277639,0.1528996,0.1650338,0.1991162,0.1914257,0.2179932,0.2039544,0.179375,0.152538,0.1565033,0.1589398,0.1499138,0.1602137,0.1888624,0.1700018,0.1520985,0.1330503,0.1298303,0.1425141,0.1307035,0.1153635,0.1164943,0.1194643,0.1212853,0.1397534,0.1395871,0.1099649,0.09779455,0.08568453,0.07532512,0.07143328,0.0678942,0.06941664,0.05718618,0.04876263,0.05590054,0.07287621,0.1009898,0.08174569,0.06516948,0.04766098,0.05299372,0.0586071,0.0650328,0.06064636,0.05268454,0.04899932,0.04028002,0.03787415,0.03493417,0.03410128,0.02997311,0.02254853,0.0191473,0.01622784,0.01621287,0.01557043,0.01357133,0.01198489,0.01188698,0.01324496,0.01441608,0.01455986,0.01481166,0.0119122,0.007429778,0.00527738,0.004122172,0.003603979,0.002666541,0.002099777,0.00204357,0.002028637,0.001962689,0.001697304,0.001678893,0.001562128,0.001574495,0.001740406,0.0017614,NGAsubRSN4022792_AOMH01EW2.AT2,NGAsubRSN4022792_AOMH01NS2.AT2,NGAsubRSN4022792_AOMH01UD2.AT2
4022796,4000068,4000330,8.29,20,90,191.4902651,184.6225596,243.1227407,244.4057531,84.58,-999,385.6,-999,-999,-999,99,99,-999,0.052406,4.4488,8.4657,0.05256076,0.05299837,0.05308843,0.05328354,0.05356113,0.05361956,0.05388405,0.05474648,0.05490488,0.05570909,0.0559926,0.05699859,0.05722156,0.05699204,0.05807257,0.06010666,0.06146806,0.06313285,0.0643214,0.06529718,0.07170821,0.08092073,0.09384196,0.09875163,0.1263928,0.1405171,0.1698687,0.2160189,0.191147,0.199193,0.1900095,0.1908848,0.177028,0.1652889,0.1673457,0.1617975,0.1511662,0.1512283,0.1554306,0.1752499,0.1588479,0.1351346,0.1277845,0.1379503,0.1394729,0.1349516,0.123949,0.1194216,0.1135604,0.1155141,0.1193471,0.1008785,0.08683617,0.08174358,0.08141597,0.08487011,0.08530854,0.08455608,0.07294476,0.06020107,0.05938596,0.06278227,0.05886385,0.05723498,0.05809136,0.05483779,0.04506581,0.03722023,0.04074486,0.03865154,0.04101085,0.03503409,0.02616631,0.02614551,0.02806976,0.02446589,0.02203469,0.01782596,0.01614715,0.0184695,0.02009382,0.01973114,0.01744447,0.01745372,0.0155871,0.01555341,0.01294225,0.01080977,0.009010546,0.00842056,0.008224622,0.008803547,0.008935555,0.008938746,0.009283671,0.007859896,0.006899248,0.005726031,0.004580618,0.003699795,0.003048922,0.002640595,0.001951527,0.001932098,0.001889774,0.001731856,0.001566534,0.001356603,0.001007569,0.000943825,0.001154127,NGAsubRSN4022796_AOMH06EW2.AT2,NGAsubRSN4022796_AOMH06NS2.AT2,NGAsubRSN4022796_AOMH06UD2.AT2
4022835,4000068,4000407,8.29,20,90,84.6059,62.0618909,155.7140139,157.7097309,156.03,-999,766.2,-999,-999,-999,99,99,-999,0.09485,12.33,119.57,0.09512378,0.0959432,0.09615751,0.09639375,0.09697264,0.0971989,0.09766196,0.09916809,0.09961437,0.09969907,0.09973694,0.09998132,0.1003199,0.1003667,0.10058,0.1017484,0.1015847,0.1060897,0.109246,0.1121094,0.1205748,0.1325904,0.1461155,0.1641136,0.1808611,0.2153517,0.2202358,0.2440192,0.2575261,0.2528346,0.233512,0.2322287,0.2495208,0.2970472,0.2832371,0.2810917,0.309788,0.297989,0.3367772,0.2932273,0.2659553,0.2358928,0.2112235,0.2191475,0.2218914,0.2311565,0.2050774,0.1951443,0.192914,0.1709634,0.1790776,0.1864705,0.1919689,0.184774,0.1784415,0.1711527,0.1393505,0.1267001,0.132063,0.1156232,0.1091097,0.09541443,0.1037453,0.08942085,0.09812392,0.112197,0.1199805,0.09865505,0.07858095,0.06155938,0.05036915,0.05852709,0.05332579,0.04683141,0.04002219,0.03756836,0.03932266,0.04406425,0.05186038,0.04612657,0.04114362,0.0357816,0.03105392,0.03240382,0.02918093,0.02316523,0.02161811,0.02042884,0.01904469,0.01667271,0.01551378,0.01839301,0.01964828,0.02030665,0.01926491,0.01682287,0.0123655,0.01120974,0.01060617,0.009910942,0.009166387,0.008475551,0.00803414,0.007592105,0.007156425,0.006408866,0.00564503,0.005045141,0.005227736,0.005672317,0.006223173,NGAsubRSN4022835_HDKH05EW2.AT2,NGAsubRSN4022835_HDKH05NS2.AT2,NGAsubRSN4022835_HDKH05UD2.AT2
4022853,4000068,4000428,8.29,20,90,137.849309,125.2834865,222.0438444,223.4479222,218.25,-999,306.8,-999,-999,-999,99,99,-999,0.1392,17.359,52.75,0.1393944,0.1399579,0.1401126,0.1404232,0.1408541,0.1410645,0.1413419,0.1413331,0.1414605,0.1421985,0.1427332,0.1430098,0.1433009,0.1438826,0.1451316,0.1459273,0.144285,0.1432589,0.1445108,0.1451914,0.1458912,0.1478463,0.145601,0.1629352,0.1778255,0.1899319,0.2262108,0.2622139,0.2520991,0.2815081,0.2837355,0.3150562,0.3556544,0.309617,0.3138684,0.3401093,0.3669142,0.3761715,0.4018283,0.3397438,0.3548588,0.3457946,0.35181,0.3681332,0.3591623,0.3850342,0.4880176,0.4788296,0.4619051,0.4268107,0.3854823,0.4035164,0.3307365,0.3076587,0.2933634,0.3153146,0.3276847,0.2923355,0.2582296,0.2271652,0.2175292,0.1878922,0.1873167,0.1683806,0.1736381,0.1676563,0.1748288,0.1681939,0.1479357,0.1296199,0.1347257,0.1320308,0.122879,0.1266876,0.105767,0.08697607,0.06939532,0.06765923,0.06968872,0.08796507,0.08141934,0.0753008,0.0590359,0.05081716,0.04388736,0.04152025,0.04166333,0.04164237,0.04264784,0.04369202,0.04446514,0.04401322,0.04236401,0.04055488,0.03954012,0.03729291,0.03509537,0.03094394,0.02647103,0.02305897,0.02008433,0.01795765,0.01625506,0.0148229,0.01305132,0.009782191,0.007855849,0.006684923,0.005571768,0.004657692,0.002803927,NGAsubRSN4022853_IBUH01EW2.AT2,NGAsubRSN4022853_IBUH01NS2.AT2,NGAsubRSN4022853_IBUH01UD2.AT2
4022859,4000068,4000433,8.29,20,90,176.031306,166.3746996,266.3288005,267.5005328,240.66,-999,259.3,-999,-999,-999,99,99,-999,0.078849,10.312,21.766,0.07891317,0.07910935,0.07917188,0.0793284,0.07955348,0.07962946,0.07962984,0.07993709,0.08004789,0.080295,0.08029308,0.07981545,0.07987422,0.08023205,0.08047362,0.08066308,0.08089388,0.08120394,0.08355386,0.08734804,0.09066535,0.09632985,0.09446339,0.09575856,0.09528989,0.09143164,0.1023973,0.1010188,0.1034127,0.1176505,0.1149515,0.1092512,0.1294737,0.1215736,0.1282305,0.1579569,0.1620048,0.1657444,0.1957287,0.255105,0.2277455,0.1975562,0.1580608,0.153701,0.15276,0.1472589,0.153307,0.1481979,0.1565075,0.1886112,0.2117635,0.2206503,0.1971147,0.2021227,0.2149654,0.2420066,0.2767812,0.2862175,0.2273216,0.2517049,0.2606441,0.2509343,0.229686,0.1818126,0.180195,0.1531188,0.1392096,0.130864,0.1167921,0.09903298,0.09633871,0.08485708,0.0778935,0.06925423,0.05735702,0.05377244,0.05314947,0.04313783,0.04419934,0.0322537,0.03021111,0.02595631,0.02209114,0.01976433,0.01659611,0.01312045,0.01237752,0.01164778,0.01080363,0.009155727,0.009602101,0.009721774,0.009221558,0.008517925,0.008138773,0.007669667,0.006477732,0.005926781,0.007150273,0.007463732,0.00691074,0.005970199,0.005591026,0.00509065,0.004455727,0.003336632,0.003136281,0.003156755,0.003830055,0.003814318,0.002838123,NGAsubRSN4022859_IBUH07EW2.AT2,NGAsubRSN4022859_IBUH07NS2.AT2,NGAsubRSN4022859_IBUH07UD2.AT2
4022901,4000068,4000477,8.29,20,90,157.5992269,146.7345777,236.9250395,238.241431,240.7,-999,355.5,-999,-999,-999,99,99,-999,0.039093,6.3554,53.636,0.0391794,0.03944779,0.03953173,0.03961226,0.03983276,0.03988308,0.03988818,0.04011892,0.04023465,0.04024651,0.04038269,0.04070302,0.04084727,0.04098131,0.04123391,0.04147137,0.04193355,0.04236782,0.04297271,0.04342203,0.04411609,0.04524307,0.04664098,0.04728051,0.04914908,0.05176298,0.05426316,0.06493393,0.0728448,0.07535992,0.08194228,0.09762435,0.1046897,0.1526548,0.1818692,0.1923202,0.1773601,0.159329,0.1318925,0.1143096,0.1065363,0.1162785,0.100544,0.09558465,0.09928782,0.08787456,0.08198413,0.07476012,0.0692423,0.06652094,0.07891965,0.08402085,0.08491592,0.08406487,0.0816829,0.07817178,0.08246531,0.08424372,0.06825749,0.05504178,0.05219756,0.05393624,0.06177421,0.05817337,0.05873753,0.04593643,0.04441642,0.04106272,0.04331834,0.04108134,0.04689419,0.04471285,0.03672687,0.02899267,0.02527891,0.02413266,0.02622217,0.02297872,0.02079438,0.01538997,0.01488002,0.01348964,0.01128111,0.01070169,0.0120536,0.01217369,0.01270549,0.01309507,0.01243119,0.01203597,0.01309899,0.01346168,0.01477714,0.01598942,0.01541845,0.01284282,0.009898659,0.009416617,0.007862774,0.007473876,0.007443399,0.007057713,0.007165992,0.007432284,0.00714854,0.005596156,0.003951862,0.00276091,0.002507484,0.002465467,0.001654389,NGAsubRSN4022901_KKWH13EW2.AT2,NGAsubRSN4022901_KKWH13NS2.AT2,NGAsubRSN4022901_KKWH13UD2.AT2
