Record Sequence Number,EQID,SSN,Earthquake Magnitude,Dip (deg),Rake Angle (deg),ClstD (km),Rjb (km),Repi (km),Rhyp (km),Rx,Source to Site Azimuth (deg),Preferred Vs30,GMX_C1,GMX_C2,GMX_C3,Dur,AI,minFreq,PGA (g),PGV (cm/sec),PGD (cm),T0.010s,T0.020s,T0.022s,T0.025s,T0.029s,T0.030s,T0.032s,T0.035s,T0.036s,T0.040s,T0.042s,T0.044s,T0.045s,T0.046s,T0.048s,T0.050s,T0.055s,T0.060s,T0.065s,T0.067s,T0.070s,T0.075s,T0.080s,T0.085s,T0.090s,T0.095s,T0.100s,T0.110s,T0.120s,T0.130s,T0.133s,T0.140s,T0.150s,T0.160s,T0.170s,T0.180s,T0.190s,T0.200s,T0.220s,T0.240s,T0.250s,T0.260s,T0.280s,T0.290s,T0.300s,T0.320s,T0.340s,T0.350s,T0.360s,T0.380s,T0.400s,T0.420s,T0.440s,T0.450s,T0.460s,T0.480s,T0.500s,T0.550s,T0.600s,T0.650s,T0.667s,T0.700s,T0.750s,T0.800s,T0.850s,T0.900s,T0.950s,T1.000s,T1.100s,T1.200s,T1.300s,T1.400s,T1.500s,T1.600s,T1.700s,T1.800s,T1.900s,T2.000s,T2.200s,T2.400s,T2.500s,T2.600s,T2.800s,T3.000s,T3.200s,T3.400s,T3.500s,T3.600s,T3.800s,T4.000s,T4.200s,T4.400s,T4.600s,T4.800s,T5.000s,T5.500s,T6.000s,T6.500s,T7.000s,T7.500s,T8.000s,T8.500s,T9.000s,T9.500s,T10.000s,T11.000s,T12.000s,T13.000s,T14.000s,T15.000s,T20.000s,File Name (Horizontal 1),File Name (Horizontal 2),File Name (Vertical)
3001493,3000184,3000405,7.15,82,-106,89.8893003,84.7880662,106.8473646,112.4337998,17.97,-999,517,-999,-999,-999,99,99,-999,0.078425,8.3625,2.3186,0.07902043,0.08125208,0.08133765,0.08308709,0.08609065,0.08630987,0.08755687,0.088843,0.09140063,0.09674275,0.09937562,0.1004135,0.1033058,0.108731,0.1119634,0.1200727,0.1324675,0.1382679,0.1593324,0.1650116,0.1725868,0.1989071,0.198983,0.1769905,0.1635149,0.1661388,0.1771163,0.1855078,0.1866896,0.1989814,0.1951585,0.2346324,0.2669777,0.2711243,0.2200916,0.2184178,0.2025506,0.1680283,0.1768446,0.1388184,0.1317433,0.1204924,0.1249933,0.1279888,0.1157512,0.1106287,0.1263421,0.1297035,0.1273381,0.1173684,0.10933,0.1068383,0.1028586,0.09993631,0.09627145,0.09798812,0.1018917,0.08779447,0.08504123,0.08134127,0.07727323,0.07188703,0.07558214,0.07941435,0.08186042,0.07944839,0.0755364,0.07414639,0.06618386,0.06172848,0.05705807,0.05306173,0.04980962,0.04668997,0.04367509,0.0408493,0.03772781,0.03534959,0.02986359,0.02568875,0.02403909,0.02265047,0.02031511,0.01847335,0.01641197,0.01375088,0.01267774,0.01185553,0.01053814,0.009651066,0.009070626,0.008469878,0.007641738,0.006701111,0.005904134,0.00426314,0.003304899,0.002867537,0.002408337,0.001971948,0.001631462,0.001440354,0.001340833,0.001237994,0.001135998,0.000948781,0.000792347,0.000666216,0.000564608,0.000483071,0.000252155,NGAsubRSN3001493_UNIOS00E.AT2,NGAsubRSN3001493_UNIOS90E.AT2,NGAsubRSN3001493_UNIO--V.AT2
3001494,3000184,3000408,7.15,82,-106,51.5806884,42.936262,65.055418,73.8729139,5.46,-999,429,-999,-999,-999,99,99,-999,0.10175,8.5687,3.5724,0.1023536,0.1047728,0.1076191,0.1059211,0.1161346,0.1176752,0.1179182,0.1196372,0.1203732,0.1208303,0.125012,0.1298144,0.1325667,0.1354603,0.1475591,0.1528018,0.1668586,0.1488178,0.1403927,0.146481,0.1617153,0.1556,0.1569763,0.1562249,0.1700379,0.1666313,0.1681808,0.1994728,0.186197,0.1725105,0.165001,0.1532223,0.1398982,0.1555388,0.167343,0.1999313,0.1935683,0.2264243,0.2814934,0.3402268,0.3383988,0.3131357,0.345372,0.3174568,0.3045513,0.3218521,0.3178234,0.2995028,0.2770674,0.2353908,0.1996351,0.1905497,0.1963302,0.20214,0.2151131,0.2166228,0.2379752,0.1624097,0.1167592,0.08642503,0.09013284,0.09309597,0.1094589,0.1168121,0.116626,0.09985138,0.08506193,0.08071448,0.08731023,0.09001016,0.08422694,0.06806428,0.04867282,0.03793935,0.02953948,0.02384844,0.02214549,0.02219882,0.02635909,0.02893301,0.02824373,0.02819281,0.02659206,0.02473133,0.02344377,0.0212358,0.02027349,0.01957763,0.01788051,0.01600375,0.01410874,0.01242695,0.01098274,0.009906791,0.00890754,0.006780579,0.005219003,0.004193841,0.003685474,0.00330932,0.00296229,0.002644004,0.002355895,0.002098677,0.00187164,0.001500741,0.00122037,0.00100834,0.000846923,0.00072169,0.000381384,NGAsubRSN3001494_VILES00E.AT2,NGAsubRSN3001494_VILES90E.AT2,NGAsubRSN3001494_VILE--V.AT2
3001522,3000188,3000405,6.51,62,-96,90.7605585,72.0952219,76.5700669,97.2778245,-71.7,-999,517,-999,-999,-999,99,99,-999,0.046314,3.5041,0.6034,0.04673724,0.04985461,0.04910977,0.05153976,0.05394977,0.05417205,0.05554063,0.05993176,0.0617986,0.06578409,0.07137854,0.07682908,0.08019608,0.08230314,0.08067556,0.07552861,0.08179398,0.09968694,0.106261,0.1139418,0.1233115,0.1097788,0.1227807,0.1126011,0.1066968,0.1001429,0.1028025,0.1101261,0.1243639,0.1329947,0.1321847,0.1390369,0.1575748,0.1488513,0.1573211,0.1409574,0.1397071,0.1349796,0.1159649,0.09793765,0.08566794,0.08324575,0.07585943,0.07082118,0.06944147,0.07277159,0.06092741,0.06527551,0.07277553,0.07824856,0.08189857,0.08961737,0.09205464,0.08648526,0.07907979,0.07077323,0.07119595,0.0535205,0.05959745,0.06748388,0.06707139,0.06494006,0.06754689,0.06576826,0.06322667,0.05853383,0.04761761,0.03808626,0.03608591,0.03138456,0.02328259,0.01833677,0.01375546,0.01125357,0.01088462,0.0105134,0.00952792,0.008788562,0.005582966,0.00412244,0.003828745,0.0035739,0.003264275,0.003224984,0.00306204,0.002686099,0.002459709,0.002240258,0.001893786,0.00165813,0.001557604,0.001444567,0.001265297,0.001216757,0.001172289,0.000986472,0.000816107,0.000693715,0.000598141,0.000515134,0.000441638,0.000378967,0.000327749,0.000286855,0.00025428,0.00020649,0.000173103,0.000148127,0.00012844,0.000112383,6.30E-05,NGAsubRSN3001522_UNION00W.AT2,NGAsubRSN3001522_UNION90W.AT2,NGAsubRSN3001522_UNIO--V.AT2
3001523,3000188,3000408,6.51,62,-96,100.0700668,83.5120369,92.4570671,110.2193687,-67.1,-999,429,-999,-999,-999,99,99,-999,0.028872,2.3367,0.38431,0.02896058,0.03023685,0.03057936,0.0311726,0.03090046,0.03080287,0.03114648,0.03117733,0.0310832,0.03166663,0.03255148,0.03385428,0.03518483,0.03637671,0.03667415,0.03713639,0.03909485,0.04332003,0.041091,0.04116735,0.04158388,0.04608819,0.04767659,0.04661895,0.04630744,0.04377316,0.04867194,0.04456,0.04776681,0.04229663,0.04321349,0.05066999,0.05723175,0.05940121,0.07226574,0.08268881,0.08436067,0.08074453,0.07961424,0.07031635,0.06831747,0.07498277,0.09148704,0.09395352,0.09561415,0.1143705,0.1051579,0.09903595,0.08104312,0.07383128,0.06739178,0.06280471,0.06373483,0.06064648,0.05960568,0.05909611,0.05824303,0.05404658,0.04420375,0.03677843,0.03560276,0.03493629,0.04056014,0.04486531,0.04039858,0.04151969,0.0380521,0.02864136,0.02109606,0.01928106,0.01705037,0.01442819,0.01473114,0.01391424,0.01331111,0.01180802,0.008914662,0.006795364,0.005284529,0.00426855,0.003897172,0.003560339,0.003017638,0.003010499,0.002989894,0.002816108,0.002653561,0.002447609,0.002231435,0.001942693,0.001697134,0.001587211,0.001439719,0.001394575,0.001298152,0.000921903,0.00069181,0.000530778,0.000408081,0.000340355,0.00029026,0.000250675,0.000219193,0.000193737,0.000174103,0.000143139,0.0001197,0.000101356,8.66E-05,7.48E-05,4.04E-05,NGAsubRSN3001523_VILEN00W.AT2,NGAsubRSN3001523_VILEN90W.AT2,NGAsubRSN3001523_VILE--V.AT2
3001576,3000199,3000418,6.96,40,-83,266.8565991,260.5490513,272.0545229,279.2537618,-249.73,-999,517,-999,-999,-999,99,99,-999,0.020547,0.70052,0.28492,0.02085579,0.0217916,0.02250761,0.02356651,0.02794025,0.03006743,0.03276505,0.03590525,0.03440893,0.04000125,0.04387476,0.04256119,0.04317343,0.0443335,0.04800521,0.05152606,0.06301013,0.05836711,0.0659202,0.066737,0.0696772,0.07867362,0.06584565,0.05885757,0.06340054,0.06530999,0.06234507,0.06610473,0.06329738,0.04931659,0.04756794,0.05266146,0.04532635,0.03424799,0.03356907,0.03277429,0.02746573,0.02620012,0.02508699,0.02475726,0.02340676,0.02209,0.02328379,0.02166755,0.02159457,0.0201509,0.01983384,0.02169998,0.0229732,0.0215205,0.01581936,0.01524791,0.01477695,0.01387262,0.01403096,0.01415491,0.01324329,0.01318737,0.01215083,0.0127397,0.01257487,0.01175783,0.01128281,0.01156772,0.01176205,0.01110081,0.01100142,0.01112944,0.01115621,0.009033088,0.005047128,0.00439256,0.004178293,0.004618512,0.004521096,0.004656217,0.004670016,0.004921282,0.005359959,0.004311974,0.004005186,0.003697255,0.003048691,0.002409634,0.002025813,0.001774227,0.001649472,0.00152689,0.001278704,0.001097567,0.001009482,0.000928489,0.00084141,0.000794241,0.000721777,0.000535556,0.000475588,0.000436025,0.00035267,0.000330832,0.000285864,0.00026699,0.000268479,0.00025457,0.00022751,0.000158635,0.000113233,9.82E-05,7.98E-05,7.15E-05,3.49E-05,NGAsubRSN3001576_POZUN00W.AT2,NGAsubRSN3001576_POZUN90W.AT2,NGAsubRSN3001576_POZU--V.AT2
3001587,3000201,3000409,7.46,49,-78,189.8808165,187.0645283,228.9177004,232.3861303,-49.66,-999,460,-999,-999,-999,99,99,-999,0.026871,1.7273,0.85764,0.02738128,0.03003643,0.02954016,0.03194452,0.03861581,0.04180722,0.04453887,0.04861339,0.05138016,0.06672556,0.07012878,0.07953503,0.08111776,0.08236355,0.08145622,0.08333877,0.08031301,0.0742373,0.06858505,0.06438286,0.0574725,0.06599415,0.07408063,0.08076648,0.08447239,0.08879752,0.08605865,0.07418989,0.07547942,0.07317021,0.07084979,0.0635723,0.05574264,0.05427264,0.06096346,0.05028061,0.04585611,0.05297454,0.06112192,0.04996485,0.04674723,0.04436282,0.03973382,0.03865039,0.03840485,0.04145256,0.04223872,0.03890632,0.03604241,0.03763434,0.04030797,0.03370192,0.03439661,0.03579102,0.03697013,0.03833921,0.03823576,0.03229694,0.02514156,0.02404614,0.02622124,0.02298807,0.02260181,0.01975711,0.02032183,0.02249836,0.01928366,0.01934139,0.01732845,0.01877932,0.01724669,0.01659842,0.01273821,0.01102815,0.009592297,0.00934187,0.008387839,0.00852746,0.01042752,0.01003774,0.008237381,0.006836564,0.006608685,0.007852017,0.007291397,0.005447194,0.004738293,0.004066607,0.003609565,0.003291661,0.002986562,0.003165243,0.00314752,0.003004061,0.002609707,0.002036689,0.001433034,0.001305292,0.001142359,0.001098437,0.001139023,0.001122235,0.001012975,0.000852421,0.000679699,0.000596605,0.000522883,0.000407275,0.000291909,0.000234781,0.000128354,NGAsubRSN3001587_COPLN00W.AT2,NGAsubRSN3001587_COPLN90W.AT2,NGAsubRSN3001587_COPL--V.AT2
4007219,4000035,4000322,7.15,37,87,162.8911345,155.027487,186.3954163,197.879112,-143.71,-999,288.8,-999,-999,-999,99,99,-999,0.11243,6.7686,2.6965,0.112804,0.1136574,0.1138673,0.1142721,0.114347,0.1146625,0.1151296,0.1155775,0.1154923,0.1163165,0.1171398,0.1192293,0.1197888,0.1200451,0.1220491,0.123687,0.1269572,0.1334474,0.1409198,0.1469983,0.1532334,0.1623341,0.1720213,0.1748205,0.1902781,0.2126508,0.2414678,0.3159576,0.4882899,0.5471373,0.5300366,0.4606225,0.3995531,0.4116359,0.4048841,0.3471696,0.3733197,0.3367782,0.3572089,0.3591143,0.3453952,0.3269413,0.2872304,0.2943591,0.2777795,0.2238202,0.2034959,0.2114251,0.219197,0.2170684,0.1974715,0.1860017,0.1779238,0.1780947,0.1862207,0.1811409,0.1688326,0.1742932,0.1494942,0.1574537,0.1516704,0.1215643,0.1137273,0.0904275,0.08072323,0.07884377,0.07595719,0.06426013,0.06834098,0.0613947,0.05397246,0.04797487,0.04865324,0.04635791,0.05281864,0.05434433,0.04394381,0.03859989,0.03073621,0.02807966,0.02731574,0.02520853,0.02390539,0.02031074,0.01605728,0.01269526,0.01185851,0.01172947,0.01041617,0.009634526,0.009700772,0.009655294,0.01033576,0.008820846,0.007352603,0.005479085,0.00523236,0.004575786,0.003668791,0.003099796,0.002812868,0.002414848,0.002073728,0.001877875,0.001713888,0.001389832,0.001052172,0.000831315,0.000675458,0.000619829,0.000292942,NGAsubRSN4007219_AKTH17W2.AT2,NGAsubRSN4007219_AKTH17S2.AT2,NGAsubRSN4007219_AKTH17D2.AT2
4007340,4000035,4000451,7.15,37,87,177.4520635,170.2622532,204.9903285,215.4853279,-81.16,-999,966.8,-999,-999,-999,99,99,-999,0.11021,3.2738,2.2576,0.1117803,0.1170514,0.1187223,0.1205729,0.1301356,0.1319074,0.1360099,0.143083,0.1488148,0.1528769,0.172161,0.1780155,0.1790909,0.1851673,0.1948651,0.2087446,0.2844484,0.3283519,0.3421373,0.3685359,0.4101404,0.3802049,0.3698908,0.3397425,0.2887354,0.2805373,0.3114153,0.3010289,0.2888875,0.238731,0.2212234,0.2100296,0.245192,0.2372947,0.2483465,0.2424547,0.2240847,0.2248068,0.2125671,0.1909835,0.1565136,0.1331765,0.1100716,0.1013355,0.09735841,0.1030766,0.1094174,0.1100842,0.1070265,0.09429844,0.09447125,0.08561936,0.0843273,0.07873981,0.07237241,0.06458629,0.05871419,0.06467536,0.0678164,0.07009879,0.06448509,0.05171191,0.04694152,0.05325382,0.05607096,0.04744832,0.03897966,0.03199701,0.02231708,0.02019042,0.02012413,0.02197287,0.02149724,0.01923556,0.01691461,0.01410015,0.01230941,0.01098109,0.008926903,0.007356975,0.006393399,0.005662927,0.005143701,0.004451991,0.003846133,0.003299757,0.003111571,0.002997458,0.002795683,0.002554258,0.002377522,0.002452338,0.002393013,0.002312717,0.002297132,0.002393453,0.002226546,0.001960242,0.001601876,0.001367764,0.001261837,0.001128613,0.001006245,0.000879498,0.000827274,0.00068081,0.000546678,0.000461573,0.000371488,0.000305325,0.000142454,NGAsubRSN4007340_IWTH09W2.AT2,NGAsubRSN4007340_IWTH09S2.AT2,NGAsubRSN4007340_IWTH09D2.AT2
4007347,4000035,4000459,7.15,37,87,132.5937616,122.805153,157.912641,171.3163563,-70.14,-999,1269.8,-999,-999,-999,99,99,-999,0.156,4.4705,1.3863,0.1580099,0.164525,0.166457,0.167668,0.1876193,0.1916582,0.2120828,0.258449,0.257035,0.2739592,0.2889127,0.3371178,0.3676568,0.3863139,0.3727121,0.3518501,0.3894741,0.4078158,0.4674595,0.4649949,0.5107315,0.5415273,0.4253364,0.4432811,0.4528984,0.5003541,0.4748566,0.4998555,0.4497366,0.3910426,0.3896608,0.3548676,0.3048239,0.2304162,0.205124,0.2033191,0.2497682,0.2151251,0.1724565,0.1804763,0.200592,0.1788952,0.1485681,0.1401486,0.135751,0.1509993,0.1461074,0.1383832,0.1318792,0.1222533,0.1070968,0.1054515,0.1011482,0.1020168,0.1008965,0.0967234,0.08885543,0.07861058,0.09126168,0.06934808,0.0636703,0.05083665,0.04739138,0.04511712,0.04439207,0.03821956,0.03837589,0.04039047,0.03346884,0.03018444,0.03247783,0.03280779,0.03079705,0.02772313,0.02463209,0.02152046,0.01795111,0.01569469,0.01143552,0.01032164,0.01017626,0.01010138,0.009200837,0.008049833,0.007315236,0.006614307,0.006208495,0.005821432,0.004943558,0.004682251,0.004527583,0.004278135,0.003979798,0.003716284,0.0035035,0.00291875,0.002481336,0.002059591,0.001798029,0.001635235,0.00152032,0.001409806,0.001291712,0.001153051,0.001003604,0.000732664,0.000628877,0.000539588,0.000438539,0.000368911,0.000190985,NGAsubRSN4007347_IWTH17W2.AT2,NGAsubRSN4007347_IWTH17S2.AT2,NGAsubRSN4007347_IWTH17D2.AT2
4007388,4000035,4000516,7.15,37,87,120.6802483,109.8349777,132.5692732,148.2818396,-109.83,-999,398.6,-999,-999,-999,99,99,-999,0.082844,4.102,1.7806,0.08344448,0.08528981,0.08583188,0.08660024,0.08838701,0.08839385,0.0918993,0.09235263,0.09132307,0.09770162,0.100788,0.09926493,0.1027612,0.1094337,0.1164887,0.1153314,0.1096575,0.12142,0.1226,0.1255141,0.1329971,0.1607635,0.1864516,0.1961622,0.2150906,0.2374482,0.2711872,0.273531,0.243879,0.1815006,0.1845166,0.188575,0.1779159,0.2227256,0.2429189,0.2238363,0.2532243,0.2398945,0.2169237,0.2138978,0.226216,0.220073,0.1914702,0.1901541,0.1639599,0.1465104,0.1257184,0.1154955,0.1067557,0.1130086,0.1134152,0.1153648,0.09698054,0.09320205,0.09019159,0.08837694,0.09896105,0.09623318,0.08593222,0.09188028,0.08751772,0.07621141,0.06778851,0.05000249,0.04745919,0.05253923,0.05368889,0.04907946,0.03849871,0.02948375,0.03271399,0.03759186,0.02973533,0.02307711,0.02149087,0.01908464,0.01836293,0.01734434,0.01334622,0.01285683,0.01365651,0.01316274,0.01046026,0.009206194,0.0071333,0.006736116,0.006601586,0.006969694,0.007647693,0.008242342,0.008383917,0.008014929,0.007894026,0.007264175,0.006058604,0.004299054,0.003039601,0.002439489,0.002088009,0.00184783,0.001635141,0.001612729,0.001562092,0.001475992,0.001337378,0.001034918,0.000872596,0.000646997,0.000506554,0.000426701,0.000196731,NGAsubRSN4007388_MYGH02W2.AT2,NGAsubRSN4007388_MYGH02S2.AT2,NGAsubRSN4007388_MYGH02D2.AT2
4007389,4000035,4000518,7.15,37,87,73.0202327,53.2161102,81.2645715,104.9610515,-53.06,-999,849.8,-999,-999,-999,99,99,-999,0.60863,16.83,3.9651,0.6147411,0.6373225,0.6437765,0.6522947,0.7218176,0.7486403,0.7792475,0.9747429,1.000335,1.02901,1.007115,0.9053823,0.9287446,0.9396738,0.9705235,0.9860979,0.9960548,1.107783,1.150208,1.160344,1.157258,1.260496,1.548678,1.624526,1.65825,1.891672,1.93215,2.127428,2.257848,2.713409,2.695346,2.332058,1.910698,1.771866,1.854933,1.737196,1.402863,1.456581,1.576175,1.047111,0.9201604,0.9062889,0.7454601,0.5764945,0.4796326,0.444779,0.4713347,0.4625222,0.4100176,0.3753214,0.3032565,0.2763026,0.2805896,0.2799403,0.2855458,0.2550391,0.2335572,0.1739665,0.1653893,0.1501977,0.1517219,0.1416516,0.1323684,0.1362576,0.1236541,0.1296908,0.1259059,0.1264662,0.1195443,0.1243904,0.1233546,0.1016659,0.0736041,0.05572055,0.04816347,0.03737648,0.03142165,0.02757187,0.02362488,0.02294015,0.0212229,0.01950736,0.01719171,0.01663519,0.01615143,0.01533358,0.01505023,0.0148338,0.01359521,0.01221438,0.01157184,0.01064686,0.009593062,0.008495529,0.008071959,0.006891672,0.006038225,0.005295994,0.004534947,0.003912688,0.003474682,0.003063572,0.002684338,0.002335202,0.002167066,0.001906709,0.001680323,0.001469282,0.001278882,0.001114995,0.000597433,NGAsubRSN4007389_MYGH04W2.AT2,NGAsubRSN4007389_MYGH04S2.AT2,NGAsubRSN4007389_MYGH04D2.AT2
4016832,4000035,4000757,7.15,37,87,286.9152471,279.7168748,297.4751546,304.8021643,42.48,-999,477.9,-999,-999,-999,99,99,-999,0.011345,1.1707,0.69398,0.01137184,0.011529,0.01160918,0.01177086,0.01208612,0.0120238,0.01210392,0.01314785,0.01330287,0.01343781,0.01367938,0.01382179,0.01406283,0.01504365,0.0163101,0.01579285,0.02231416,0.0242811,0.02106523,0.01991033,0.01974973,0.01930066,0.01957673,0.02065936,0.02174039,0.02186327,0.02122688,0.02516571,0.03066037,0.03403831,0.03411163,0.03097831,0.0355156,0.03608034,0.0381279,0.0428029,0.04024086,0.03403361,0.0315039,0.02480984,0.02331977,0.02275499,0.02174561,0.0233954,0.02526726,0.02387396,0.02831655,0.02887226,0.02786833,0.02460297,0.01860694,0.01747407,0.01681204,0.01679463,0.01657269,0.01813314,0.01897073,0.02143161,0.0227315,0.02911463,0.0288897,0.0262902,0.02590742,0.02132181,0.02647995,0.02906065,0.0251847,0.02175178,0.01901286,0.01299945,0.01092971,0.01049079,0.009357449,0.009674901,0.009126756,0.01015316,0.008741279,0.007204004,0.005643494,0.004266694,0.004156224,0.003923627,0.00348799,0.003258534,0.003073869,0.002462966,0.002283424,0.002320028,0.001975539,0.001661975,0.001504543,0.001381641,0.001231701,0.001008154,0.000875715,0.000793106,0.00069732,0.000499077,0.000408517,0.000379918,0.000348759,0.000274484,0.000236542,0.000245162,0.000227259,0.000243917,0.000265516,0.000223691,0.000159967,0.000124066,0.00011241,NGAsubRSN4016832_CHB005EW.AT2,NGAsubRSN4016832_CHB005NS.AT2,NGAsubRSN4016832_CHB005UD.AT2
4022455,4000067,4000332,7.03,60,92,240.329058,227.8886513,233.0964498,242.0529122,175.82,-999,297.8,-999,-999,-999,99,99,-999,0.011394,3.5286,2.0783,0.01140443,0.01143707,0.011449,0.01150389,0.01148874,0.01150104,0.01152345,0.01153088,0.01153467,0.01152726,0.0115722,0.01160672,0.01160591,0.01161766,0.0116421,0.01169587,0.01171347,0.01191527,0.01203358,0.01207869,0.01243728,0.0127984,0.01290819,0.01309726,0.01292971,0.01294149,0.01320965,0.01406004,0.01468774,0.01623193,0.01730156,0.01932339,0.02209912,0.02335544,0.02514542,0.02518823,0.02589313,0.02744706,0.02397695,0.02287007,0.02067031,0.01936097,0.01639344,0.01543009,0.01688489,0.01499917,0.01357888,0.0134429,0.0137248,0.01528078,0.01578936,0.01509146,0.01662726,0.0169956,0.01743155,0.0179058,0.01699031,0.01697213,0.01741553,0.01679892,0.01678513,0.01799738,0.01875687,0.02010522,0.01889546,0.01622411,0.01577541,0.01540423,0.01486384,0.01356349,0.01348137,0.01471409,0.01596806,0.01775783,0.01582316,0.01610267,0.01678152,0.01764385,0.01994112,0.02211132,0.02169167,0.02072065,0.02258628,0.02073004,0.02097892,0.02518914,0.02504851,0.02359462,0.02189788,0.02338995,0.02549777,0.02402893,0.01851231,0.01487541,0.01135487,0.008241779,0.006511753,0.004436288,0.003176491,0.002923969,0.002349143,0.002111342,0.001570289,0.001318084,0.001162531,0.000906539,0.000724755,0.000596782,0.0004824,0.000405812,0.000217816,NGAsubRSN4022455_AOMH08EW2.AT2,NGAsubRSN4022455_AOMH08NS2.AT2,NGAsubRSN4022455_AOMH08UD2.AT2
